{"type": "FeatureCollection", "features": [{"type": "Feature", "geometry": {"type": "Point", "coordinates": [-70.46305176, -33.37050191]}, "properties": {"Codigo_de_la_remocion_en_masa": "RM-1985-01-001", "Tipo_de_remocion_en_masa": "Flujo", "Detonante": "Lluvias", "Año_del_evento": 1980, "Region": "Metropolitana"}}, {"type": "Feature", "geometry": {"type": "Point", "coordinates": [-69.93091595, -33.87025411]}, "properties": {"Codigo_de_la_remocion_en_masa": "RM-1985-01-002", "Tipo_de_remocion_en_masa": "Flujo", "Detonante": "Lluvias", "Año_del_evento": 1949, "Region": "Metropolitana"}}, {"type": "Feature", "geometry": {"type": "Point", "coordinates": [-70.2624198, -33.5311288999999]}, "properties": {"Codigo_de_la_remocion_en_masa": "RM-1991-02-001", "Tipo_de_remocion_en_masa": "Caída", "Detonante": "Sin información", "Año_del_evento": 0, "Region": "Metropolitana"}}, {"type": "Feature", "geometry": {"type": "Point", "coordinates": [-70.0741805599999, -33.8301758699999]}, "properties": {"Codigo_de_la_remocion_en_masa": "RM-1991-03-001", "Tipo_de_remocion_en_masa": "Flujo", "Detonante": "Lluvias", "Año_del_evento": 1991, "Region": "Metropolitana"}}, {"type": "Feature", "geometry": {"type": "Point", "coordinates": [-70.23675542, -33.7842796099999]}, "properties": {"Codigo_de_la_remocion_en_masa": "RM-1991-04-001", "Tipo_de_remocion_en_masa": "Deslizamiento", "Detonante": "Sin información", "Año_del_evento": 0, "Region": "Metropolitana"}}, {"type": "Feature", "geometry": {"type": "Point", "coordinates": [-70.06141031, -33.82454831]}, "properties": {"Codigo_de_la_remocion_en_masa": "RM-1993-03-001", "Tipo_de_remocion_en_masa": "Caída", "Detonante": "Lluvias", "Año_del_evento": 1987, "Region": "Metropolitana"}}, {"type": "Feature", "geometry": {"type": "Point", "coordinates": [-70.06224335, -33.82513453]}, "properties": {"Codigo_de_la_remocion_en_masa": "RM-1993-03-002", "Tipo_de_remocion_en_masa": "Caída", "Detonante": "Lluvias", "Año_del_evento": 1987, "Region": "Metropolitana"}}, {"type": "Feature", "geometry": {"type": "Point", "coordinates": [-70.06089608, -33.8242706299999]}, "properties": {"Codigo_de_la_remocion_en_masa": "RM-1993-03-003", "Tipo_de_remocion_en_masa": "Caída", "Detonante": "Lluvias", "Año_del_evento": 1953, "Region": "Metropolitana"}}, {"type": "Feature", "geometry": {"type": "Point", "coordinates": [-70.05817483, -33.8304563299999]}, "properties": {"Codigo_de_la_remocion_en_masa": "RM-1995-01-001", "Tipo_de_remocion_en_masa": "Flujo", "Detonante": "Lluvias", "Año_del_evento": 0, "Region": "Metropolitana"}}, {"type": "Feature", "geometry": {"type": "Point", "coordinates": [-70.05505508, -33.82896794]}, "properties": {"Codigo_de_la_remocion_en_masa": "RM-1995-01-002", "Tipo_de_remocion_en_masa": "Flujo", "Detonante": "Lluvias", "Año_del_evento": 1994, "Region": "Metropolitana"}}, {"type": "Feature", "geometry": {"type": "Point", "coordinates": [-70.62889883, -33.4528026799999]}, "properties": {"Codigo_de_la_remocion_en_masa": "RM-1995-02-001", "Tipo_de_remocion_en_masa": "Caída", "Detonante": "Vibración artificial (tráfico, explosiones, hincado de pilotes, otro)", "Año_del_evento": 1995, "Region": "Metropolitana"}}, {"type": "Feature", "geometry": {"type": "Point", "coordinates": [-70.5403033699999, -33.5121728899999]}, "properties": {"Codigo_de_la_remocion_en_masa": "RM-1996-01-001", "Tipo_de_remocion_en_masa": "Flujo", "Detonante": "Lluvias", "Año_del_evento": 1993, "Region": "Metropolitana"}}, {"type": "Feature", "geometry": {"type": "Point", "coordinates": [-70.30939381, -33.73212539]}, "properties": {"Codigo_de_la_remocion_en_masa": "RM-1996-02-001", "Tipo_de_remocion_en_masa": "Flujo", "Detonante": "Lluvias", "Año_del_evento": 0, "Region": "Metropolitana"}}, {"type": "Feature", "geometry": {"type": "Point", "coordinates": [-70.5399973899999, -33.53038781]}, "properties": {"Codigo_de_la_remocion_en_masa": "RM-1998-01-001", "Tipo_de_remocion_en_masa": "Flujo", "Detonante": "Lluvias", "Año_del_evento": 1991, "Region": "Metropolitana"}}, {"type": "Feature", "geometry": {"type": "Point", "coordinates": [-70.51982974, -33.52940209]}, "properties": {"Codigo_de_la_remocion_en_masa": "RM-1998-01-002", "Tipo_de_remocion_en_masa": "Flujo", "Detonante": "Lluvias", "Año_del_evento": 1993, "Region": "Metropolitana"}}, {"type": "Feature", "geometry": {"type": "Point", "coordinates": [-70.51084766, -33.5012748]}, "properties": {"Codigo_de_la_remocion_en_masa": "RM-1998-01-003", "Tipo_de_remocion_en_masa": "Flujo", "Detonante": "Lluvias", "Año_del_evento": 1993, "Region": "Metropolitana"}}, {"type": "Feature", "geometry": {"type": "Point", "coordinates": [-70.52704261, -33.52667001]}, "properties": {"Codigo_de_la_remocion_en_masa": "RM-2000-05-001", "Tipo_de_remocion_en_masa": "Flujo", "Detonante": "Sin información", "Año_del_evento": 0, "Region": "Metropolitana"}}, {"type": "Feature", "geometry": {"type": "Point", "coordinates": [-70.53113444, -33.4655473]}, "properties": {"Codigo_de_la_remocion_en_masa": "RM-2000-08-001", "Tipo_de_remocion_en_masa": "Flujo", "Detonante": "Lluvias", "Año_del_evento": 2000, "Region": "Metropolitana"}}, {"type": "Feature", "geometry": {"type": "Point", "coordinates": [-70.61700913, -33.398199]}, "properties": {"Codigo_de_la_remocion_en_masa": "RM-2000-08-002", "Tipo_de_remocion_en_masa": "Caída", "Detonante": "Lluvias", "Año_del_evento": 2000, "Region": "Metropolitana"}}, {"type": "Feature", "geometry": {"type": "Point", "coordinates": [-70.39759665, -33.36941638]}, "properties": {"Codigo_de_la_remocion_en_masa": "RM-2000-09-023", "Tipo_de_remocion_en_masa": "Flujo", "Detonante": "Lluvias", "Año_del_evento": 1980, "Region": "Metropolitana"}}, {"type": "Feature", "geometry": {"type": "Point", "coordinates": [-70.21873785, -33.8145894799999]}, "properties": {"Codigo_de_la_remocion_en_masa": "RM-2000-09-024", "Tipo_de_remocion_en_masa": "Flujo", "Detonante": "Lluvias", "Año_del_evento": 1981, "Region": "Metropolitana"}}, {"type": "Feature", "geometry": {"type": "Point", "coordinates": [-70.10519759, -33.6852136599999]}, "properties": {"Codigo_de_la_remocion_en_masa": "RM-2000-09-025", "Tipo_de_remocion_en_masa": "Flujo", "Detonante": "Lluvias", "Año_del_evento": 1958, "Region": "Metropolitana"}}, {"type": "Feature", "geometry": {"type": "Point", "coordinates": [-70.07684764, -33.82727003]}, "properties": {"Codigo_de_la_remocion_en_masa": "RM-2000-09-026", "Tipo_de_remocion_en_masa": "Flujo", "Detonante": "Lluvias", "Año_del_evento": 1997, "Region": "Metropolitana"}}, {"type": "Feature", "geometry": {"type": "Point", "coordinates": [-69.9994319699999, -33.6126735299999]}, "properties": {"Codigo_de_la_remocion_en_masa": "RM-2000-09-027", "Tipo_de_remocion_en_masa": "Deslizamiento", "Detonante": "Lluvias", "Año_del_evento": 1958, "Region": "Metropolitana"}}, {"type": "Feature", "geometry": {"type": "Point", "coordinates": [-70.29568805, -33.6272835299999]}, "properties": {"Codigo_de_la_remocion_en_masa": "RM-2000-10-001", "Tipo_de_remocion_en_masa": "Deslizamiento", "Detonante": "Lluvias", "Año_del_evento": 0, "Region": "Metropolitana"}}, {"type": "Feature", "geometry": {"type": "Point", "coordinates": [-70.3463536, -33.62211008]}, "properties": {"Codigo_de_la_remocion_en_masa": "RM-2000-11-001", "Tipo_de_remocion_en_masa": "Deslizamiento", "Detonante": "Sin información", "Año_del_evento": 0, "Region": "Metropolitana"}}, {"type": "Feature", "geometry": {"type": "Point", "coordinates": [-70.1995570399999, -33.507422]}, "properties": {"Codigo_de_la_remocion_en_masa": "RM-2001-01-001", "Tipo_de_remocion_en_masa": "Flujo", "Detonante": "Lluvias", "Año_del_evento": 0, "Region": "Metropolitana"}}, {"type": "Feature", "geometry": {"type": "Point", "coordinates": [-70.1852398199999, -33.50200418]}, "properties": {"Codigo_de_la_remocion_en_masa": "RM-2001-01-002", "Tipo_de_remocion_en_masa": "Deslizamiento", "Detonante": "Deshielo", "Año_del_evento": 1987, "Region": "Metropolitana"}}, {"type": "Feature", "geometry": {"type": "Point", "coordinates": [-70.1761130899999, -33.4934149699999]}, "properties": {"Codigo_de_la_remocion_en_masa": "RM-2001-01-003", "Tipo_de_remocion_en_masa": "Flujo", "Detonante": "Lluvias", "Año_del_evento": 0, "Region": "Metropolitana"}}, {"type": "Feature", "geometry": {"type": "Point", "coordinates": [-70.1244857899999, -33.49161248]}, "properties": {"Codigo_de_la_remocion_en_masa": "RM-2001-01-004", "Tipo_de_remocion_en_masa": "Flujo", "Detonante": "Lluvias", "Año_del_evento": 0, "Region": "Metropolitana"}}, {"type": "Feature", "geometry": {"type": "Point", "coordinates": [-70.0976991799999, -33.50141282]}, "properties": {"Codigo_de_la_remocion_en_masa": "RM-2001-01-005", "Tipo_de_remocion_en_masa": "Flujo", "Detonante": "Lluvias", "Año_del_evento": 0, "Region": "Metropolitana"}}, {"type": "Feature", "geometry": {"type": "Point", "coordinates": [-70.07772778, -33.4960685199999]}, "properties": {"Codigo_de_la_remocion_en_masa": "RM-2001-01-006", "Tipo_de_remocion_en_masa": "Deslizamiento", "Detonante": "Lluvias", "Año_del_evento": 1987, "Region": "Metropolitana"}}, {"type": "Feature", "geometry": {"type": "Point", "coordinates": [-70.0435656499999, -33.48662939]}, "properties": {"Codigo_de_la_remocion_en_masa": "RM-2001-01-007", "Tipo_de_remocion_en_masa": "Deslizamiento", "Detonante": "Lluvias", "Año_del_evento": 1987, "Region": "Metropolitana"}}, {"type": "Feature", "geometry": {"type": "Point", "coordinates": [-70.01837427, -33.4429969299999]}, "properties": {"Codigo_de_la_remocion_en_masa": "RM-2001-01-008", "Tipo_de_remocion_en_masa": "Flujo", "Detonante": "Lluvias", "Año_del_evento": 0, "Region": "Metropolitana"}}, {"type": "Feature", "geometry": {"type": "Point", "coordinates": [-70.01569653, -33.30900158]}, "properties": {"Codigo_de_la_remocion_en_masa": "RM-2001-01-009", "Tipo_de_remocion_en_masa": "Deslizamiento", "Detonante": "Lluvias", "Año_del_evento": 1987, "Region": "Metropolitana"}}, {"type": "Feature", "geometry": {"type": "Point", "coordinates": [-70.2123950499999, -33.51472854]}, "properties": {"Codigo_de_la_remocion_en_masa": "RM-2001-02-001", "Tipo_de_remocion_en_masa": "Flujo", "Detonante": "Lluvias", "Año_del_evento": 2001, "Region": "Metropolitana"}}, {"type": "Feature", "geometry": {"type": "Point", "coordinates": [-70.5584105199999, -33.5165578199999]}, "properties": {"Codigo_de_la_remocion_en_masa": "RM-2003-02-001", "Tipo_de_remocion_en_masa": "Flujo", "Detonante": "Lluvias", "Año_del_evento": 1993, "Region": "Metropolitana"}}, {"type": "Feature", "geometry": {"type": "Point", "coordinates": [-70.5517480299999, -33.43488282]}, "properties": {"Codigo_de_la_remocion_en_masa": "RM-2003-02-002", "Tipo_de_remocion_en_masa": "Flujo", "Detonante": "Lluvias", "Año_del_evento": 1993, "Region": "Metropolitana"}}, {"type": "Feature", "geometry": {"type": "Point", "coordinates": [-70.53620018, -33.48309757]}, "properties": {"Codigo_de_la_remocion_en_masa": "RM-2005-06-001", "Tipo_de_remocion_en_masa": "Flujo", "Detonante": "Lluvias", "Año_del_evento": 2005, "Region": "Metropolitana"}}, {"type": "Feature", "geometry": {"type": "Point", "coordinates": [-70.51857117, -33.36883399]}, "properties": {"Codigo_de_la_remocion_en_masa": "RM-2005-06-002", "Tipo_de_remocion_en_masa": "Flujo", "Detonante": "Lluvias", "Año_del_evento": 2005, "Region": "Metropolitana"}}, {"type": "Feature", "geometry": {"type": "Point", "coordinates": [-70.51753301, -33.52966413]}, "properties": {"Codigo_de_la_remocion_en_masa": "RM-2005-06-003", "Tipo_de_remocion_en_masa": "Flujo", "Detonante": "Lluvias", "Año_del_evento": 2005, "Region": "Metropolitana"}}, {"type": "Feature", "geometry": {"type": "Point", "coordinates": [-70.4934287899999, -33.36242018]}, "properties": {"Codigo_de_la_remocion_en_masa": "RM-2005-06-004", "Tipo_de_remocion_en_masa": "Flujo", "Detonante": "Lluvias", "Año_del_evento": 2005, "Region": "Metropolitana"}}, {"type": "Feature", "geometry": {"type": "Point", "coordinates": [-70.53937788, -33.43344953]}, "properties": {"Codigo_de_la_remocion_en_masa": "RM-2005-06-005", "Tipo_de_remocion_en_masa": "Flujo", "Detonante": "Lluvias", "Año_del_evento": 2005, "Region": "Metropolitana"}}, {"type": "Feature", "geometry": {"type": "Point", "coordinates": [-70.5418452599999, -33.5125535999999]}, "properties": {"Codigo_de_la_remocion_en_masa": "RM-2005-06-006", "Tipo_de_remocion_en_masa": "Flujo", "Detonante": "Lluvias", "Año_del_evento": 2005, "Region": "Metropolitana"}}, {"type": "Feature", "geometry": {"type": "Point", "coordinates": [-70.3501618, -33.64382899]}, "properties": {"Codigo_de_la_remocion_en_masa": "RM-2005-08-001", "Tipo_de_remocion_en_masa": "Flujo", "Detonante": "Lluvias", "Año_del_evento": 1999, "Region": "Metropolitana"}}, {"type": "Feature", "geometry": {"type": "Point", "coordinates": [-70.34957933, -33.64174307]}, "properties": {"Codigo_de_la_remocion_en_masa": "RM-2005-08-002", "Tipo_de_remocion_en_masa": "Flujo", "Detonante": "Lluvias", "Año_del_evento": 2000, "Region": "Metropolitana"}}, {"type": "Feature", "geometry": {"type": "Point", "coordinates": [-70.34845867, -33.64109695]}, "properties": {"Codigo_de_la_remocion_en_masa": "RM-2005-08-003", "Tipo_de_remocion_en_masa": "Flujo", "Detonante": "Lluvias", "Año_del_evento": 1999, "Region": "Metropolitana"}}, {"type": "Feature", "geometry": {"type": "Point", "coordinates": [-70.3496577, -33.64699789]}, "properties": {"Codigo_de_la_remocion_en_masa": "RM-2005-08-004", "Tipo_de_remocion_en_masa": "Deslizamiento", "Detonante": "Lluvias", "Año_del_evento": 1997, "Region": "Metropolitana"}}, {"type": "Feature", "geometry": {"type": "Point", "coordinates": [-70.82558569, -33.4583276399999]}, "properties": {"Codigo_de_la_remocion_en_masa": "RM-2006-03-001", "Tipo_de_remocion_en_masa": "Flujo", "Detonante": "Lluvias", "Año_del_evento": 0, "Region": "Metropolitana"}}, {"type": "Feature", "geometry": {"type": "Point", "coordinates": [-70.47014817, -33.34699656]}, "properties": {"Codigo_de_la_remocion_en_masa": "RM-2006-09-001", "Tipo_de_remocion_en_masa": "Caída", "Detonante": "Lluvias", "Año_del_evento": 2006, "Region": "Metropolitana"}}, {"type": "Feature", "geometry": {"type": "Point", "coordinates": [-70.48447809, -33.64372298]}, "properties": {"Codigo_de_la_remocion_en_masa": "RM-2007-09-001", "Tipo_de_remocion_en_masa": "Flujo", "Detonante": "Lluvias", "Año_del_evento": 0, "Region": "Metropolitana"}}, {"type": "Feature", "geometry": {"type": "Point", "coordinates": [-70.4899962499999, -33.50000324]}, "properties": {"Codigo_de_la_remocion_en_masa": "RM-2008-04-005", "Tipo_de_remocion_en_masa": "Deslizamiento", "Detonante": "Evento Sísmico", "Año_del_evento": 0, "Region": "Metropolitana"}}, {"type": "Feature", "geometry": {"type": "Point", "coordinates": [-70.49, -33.4]}, "properties": {"Codigo_de_la_remocion_en_masa": "RM-2008-04-006", "Tipo_de_remocion_en_masa": "Caída", "Detonante": "Evento Sísmico", "Año_del_evento": 0, "Region": "Metropolitana"}}, {"type": "Feature", "geometry": {"type": "Point", "coordinates": [-70.45, -33.4]}, "properties": {"Codigo_de_la_remocion_en_masa": "RM-2008-04-007", "Tipo_de_remocion_en_masa": "Caída", "Detonante": "Evento Sísmico", "Año_del_evento": 0, "Region": "Metropolitana"}}, {"type": "Feature", "geometry": {"type": "Point", "coordinates": [-70.3799999999999, -33.4999999999999]}, "properties": {"Codigo_de_la_remocion_en_masa": "RM-2008-04-008", "Tipo_de_remocion_en_masa": "Caída", "Detonante": "Evento Sísmico", "Año_del_evento": 0, "Region": "Metropolitana"}}, {"type": "Feature", "geometry": {"type": "Point", "coordinates": [-70.1199999999999, -33.66]}, "properties": {"Codigo_de_la_remocion_en_masa": "RM-2008-04-009", "Tipo_de_remocion_en_masa": "Caída", "Detonante": "Evento Sísmico", "Año_del_evento": 0, "Region": "Metropolitana"}}, {"type": "Feature", "geometry": {"type": "Point", "coordinates": [-70.44356714, -33.37000856]}, "properties": {"Codigo_de_la_remocion_en_masa": "RM-2009-04-001", "Tipo_de_remocion_en_masa": "Flujo", "Detonante": "Lluvias", "Año_del_evento": 2009, "Region": "Metropolitana"}}, {"type": "Feature", "geometry": {"type": "Point", "coordinates": [-70.4334219799999, -33.3700990899999]}, "properties": {"Codigo_de_la_remocion_en_masa": "RM-2009-04-002", "Tipo_de_remocion_en_masa": "Flujo", "Detonante": "Lluvias", "Año_del_evento": 2009, "Region": "Metropolitana"}}, {"type": "Feature", "geometry": {"type": "Point", "coordinates": [-70.4284346599999, -33.36878574]}, "properties": {"Codigo_de_la_remocion_en_masa": "RM-2009-04-003", "Tipo_de_remocion_en_masa": "Flujo", "Detonante": "Lluvias", "Año_del_evento": 2009, "Region": "Metropolitana"}}, {"type": "Feature", "geometry": {"type": "Point", "coordinates": [-70.4119863399999, -33.36925352]}, "properties": {"Codigo_de_la_remocion_en_masa": "RM-2009-04-004", "Tipo_de_remocion_en_masa": "Flujo", "Detonante": "Lluvias", "Año_del_evento": 2009, "Region": "Metropolitana"}}, {"type": "Feature", "geometry": {"type": "Point", "coordinates": [-70.39327373, -33.3659206]}, "properties": {"Codigo_de_la_remocion_en_masa": "RM-2009-04-005", "Tipo_de_remocion_en_masa": "Flujo", "Detonante": "Lluvias", "Año_del_evento": 2009, "Region": "Metropolitana"}}, {"type": "Feature", "geometry": {"type": "Point", "coordinates": [-70.38634503, -33.36413128]}, "properties": {"Codigo_de_la_remocion_en_masa": "RM-2009-04-006", "Tipo_de_remocion_en_masa": "Flujo", "Detonante": "Lluvias", "Año_del_evento": 2009, "Region": "Metropolitana"}}, {"type": "Feature", "geometry": {"type": "Point", "coordinates": [-70.38558052, -33.3633642]}, "properties": {"Codigo_de_la_remocion_en_masa": "RM-2009-04-007", "Tipo_de_remocion_en_masa": "Flujo", "Detonante": "Lluvias", "Año_del_evento": 2009, "Region": "Metropolitana"}}, {"type": "Feature", "geometry": {"type": "Point", "coordinates": [-70.3690812, -33.3543570799999]}, "properties": {"Codigo_de_la_remocion_en_masa": "RM-2009-04-008", "Tipo_de_remocion_en_masa": "Flujo", "Detonante": "Lluvias", "Año_del_evento": 2009, "Region": "Metropolitana"}}, {"type": "Feature", "geometry": {"type": "Point", "coordinates": [-70.36155382, -33.3464671999999]}, "properties": {"Codigo_de_la_remocion_en_masa": "RM-2009-04-009", "Tipo_de_remocion_en_masa": "Deslizamiento", "Detonante": "Lluvias", "Año_del_evento": 2009, "Region": "Metropolitana"}}, {"type": "Feature", "geometry": {"type": "Point", "coordinates": [-70.36020746, -33.3462655]}, "properties": {"Codigo_de_la_remocion_en_masa": "RM-2009-04-010", "Tipo_de_remocion_en_masa": "Deslizamiento", "Detonante": "Lluvias", "Año_del_evento": 2009, "Region": "Metropolitana"}}, {"type": "Feature", "geometry": {"type": "Point", "coordinates": [-70.34611961, -33.3441643099999]}, "properties": {"Codigo_de_la_remocion_en_masa": "RM-2009-04-011", "Tipo_de_remocion_en_masa": "Flujo", "Detonante": "Lluvias", "Año_del_evento": 2009, "Region": "Metropolitana"}}, {"type": "Feature", "geometry": {"type": "Point", "coordinates": [-70.33352758, -33.3449856199999]}, "properties": {"Codigo_de_la_remocion_en_masa": "RM-2009-04-012", "Tipo_de_remocion_en_masa": "Flujo", "Detonante": "Lluvias", "Año_del_evento": 2009, "Region": "Metropolitana"}}, {"type": "Feature", "geometry": {"type": "Point", "coordinates": [-70.33311745, -33.3469831999999]}, "properties": {"Codigo_de_la_remocion_en_masa": "RM-2009-04-013", "Tipo_de_remocion_en_masa": "Deslizamiento", "Detonante": "Lluvias", "Año_del_evento": 2009, "Region": "Metropolitana"}}, {"type": "Feature", "geometry": {"type": "Point", "coordinates": [-70.3329259, -33.34569555]}, "properties": {"Codigo_de_la_remocion_en_masa": "RM-2009-04-014", "Tipo_de_remocion_en_masa": "Flujo", "Detonante": "Lluvias", "Año_del_evento": 2009, "Region": "Metropolitana"}}, {"type": "Feature", "geometry": {"type": "Point", "coordinates": [-70.3312396599999, -33.34786916]}, "properties": {"Codigo_de_la_remocion_en_masa": "RM-2009-04-015", "Tipo_de_remocion_en_masa": "Deslizamiento", "Detonante": "Lluvias", "Año_del_evento": 2009, "Region": "Metropolitana"}}, {"type": "Feature", "geometry": {"type": "Point", "coordinates": [-70.32716133, -33.3496264099999]}, "properties": {"Codigo_de_la_remocion_en_masa": "RM-2009-04-016", "Tipo_de_remocion_en_masa": "Deslizamiento", "Detonante": "Lluvias", "Año_del_evento": 2009, "Region": "Metropolitana"}}, {"type": "Feature", "geometry": {"type": "Point", "coordinates": [-70.55263501, -33.3472009399999]}, "properties": {"Codigo_de_la_remocion_en_masa": "RM-2010-03-001", "Tipo_de_remocion_en_masa": "Caída", "Detonante": "Evento Sísmico", "Año_del_evento": 0, "Region": "Metropolitana"}}, {"type": "Feature", "geometry": {"type": "Point", "coordinates": [-70.5538390299999, -33.34783521]}, "properties": {"Codigo_de_la_remocion_en_masa": "RM-2010-04-001", "Tipo_de_remocion_en_masa": "Caída", "Detonante": "Evento Sísmico", "Año_del_evento": 2010, "Region": "Metropolitana"}}, {"type": "Feature", "geometry": {"type": "Point", "coordinates": [-70.55302126, -33.3477733]}, "properties": {"Codigo_de_la_remocion_en_masa": "RM-2010-04-002", "Tipo_de_remocion_en_masa": "Caída", "Detonante": "Evento Sísmico", "Año_del_evento": 2010, "Region": "Metropolitana"}}, {"type": "Feature", "geometry": {"type": "Point", "coordinates": [-70.64590194, -33.4194539699999]}, "properties": {"Codigo_de_la_remocion_en_masa": "RM-2010-08-001", "Tipo_de_remocion_en_masa": "Caída", "Detonante": "Evento Sísmico", "Año_del_evento": 2010, "Region": "Metropolitana"}}, {"type": "Feature", "geometry": {"type": "Point", "coordinates": [-70.63313764, -33.4252501399999]}, "properties": {"Codigo_de_la_remocion_en_masa": "RM-2010-08-002", "Tipo_de_remocion_en_masa": "Caída", "Detonante": "Evento Sísmico", "Año_del_evento": 2010, "Region": "Metropolitana"}}, {"type": "Feature", "geometry": {"type": "Point", "coordinates": [-70.34355325, -33.64689133]}, "properties": {"Codigo_de_la_remocion_en_masa": "RM-2010-09-001", "Tipo_de_remocion_en_masa": "Caída", "Detonante": "Evento Sísmico", "Año_del_evento": 2010, "Region": "Metropolitana"}}, {"type": "Feature", "geometry": {"type": "Point", "coordinates": [-70.16733515, -33.8188744999999]}, "properties": {"Codigo_de_la_remocion_en_masa": "RM-2010-19-001", "Tipo_de_remocion_en_masa": "Caída", "Detonante": "Evento Sísmico", "Año_del_evento": 2010, "Region": "Metropolitana"}}, {"type": "Feature", "geometry": {"type": "Point", "coordinates": [-70.4584826999999, -33.3736671299999]}, "properties": {"Codigo_de_la_remocion_en_masa": "RM-2012-01-001", "Tipo_de_remocion_en_masa": "Flujo", "Detonante": "Lluvias", "Año_del_evento": 2012, "Region": "Metropolitana"}}, {"type": "Feature", "geometry": {"type": "Point", "coordinates": [-70.41360094, -33.36939748]}, "properties": {"Codigo_de_la_remocion_en_masa": "RM-2012-01-002", "Tipo_de_remocion_en_masa": "Flujo", "Detonante": "Lluvias", "Año_del_evento": 2012, "Region": "Metropolitana"}}, {"type": "Feature", "geometry": {"type": "Point", "coordinates": [-70.4115569099999, -33.36928546]}, "properties": {"Codigo_de_la_remocion_en_masa": "RM-2012-01-003", "Tipo_de_remocion_en_masa": "Flujo", "Detonante": "Lluvias", "Año_del_evento": 2012, "Region": "Metropolitana"}}, {"type": "Feature", "geometry": {"type": "Point", "coordinates": [-70.27843791, -33.7583318699999]}, "properties": {"Codigo_de_la_remocion_en_masa": "RM-2012-07-001", "Tipo_de_remocion_en_masa": "Caída", "Detonante": "Lluvias", "Año_del_evento": 2012, "Region": "Metropolitana"}}, {"type": "Feature", "geometry": {"type": "Point", "coordinates": [-70.27816911, -33.75916516]}, "properties": {"Codigo_de_la_remocion_en_masa": "RM-2012-07-002", "Tipo_de_remocion_en_masa": "Caída", "Detonante": "Lluvias", "Año_del_evento": 2012, "Region": "Metropolitana"}}, {"type": "Feature", "geometry": {"type": "Point", "coordinates": [-70.3475653799999, -33.6501973]}, "properties": {"Codigo_de_la_remocion_en_masa": "RM-2012-08-001", "Tipo_de_remocion_en_masa": "Caída", "Detonante": "Lluvias", "Año_del_evento": 2012, "Region": "Metropolitana"}}, {"type": "Feature", "geometry": {"type": "Point", "coordinates": [-70.3475154, -33.65045036]}, "properties": {"Codigo_de_la_remocion_en_masa": "RM-2012-08-002", "Tipo_de_remocion_en_masa": "Caída", "Detonante": "Lluvias", "Año_del_evento": 2012, "Region": "Metropolitana"}}, {"type": "Feature", "geometry": {"type": "Point", "coordinates": [-70.3474717, -33.6476461]}, "properties": {"Codigo_de_la_remocion_en_masa": "RM-2012-08-003", "Tipo_de_remocion_en_masa": "Caída", "Detonante": "Lluvias", "Año_del_evento": 2012, "Region": "Metropolitana"}}, {"type": "Feature", "geometry": {"type": "Point", "coordinates": [-70.3473285699999, -33.6450036699999]}, "properties": {"Codigo_de_la_remocion_en_masa": "RM-2012-08-004", "Tipo_de_remocion_en_masa": "Caída", "Detonante": "Lluvias", "Año_del_evento": 2012, "Region": "Metropolitana"}}, {"type": "Feature", "geometry": {"type": "Point", "coordinates": [-70.34733066, -33.6468991]}, "properties": {"Codigo_de_la_remocion_en_masa": "RM-2012-08-005", "Tipo_de_remocion_en_masa": "Caída", "Detonante": "Lluvias", "Año_del_evento": 2012, "Region": "Metropolitana"}}, {"type": "Feature", "geometry": {"type": "Point", "coordinates": [-70.36027906, -33.32184159]}, "properties": {"Codigo_de_la_remocion_en_masa": "RM-2012-14-001", "Tipo_de_remocion_en_masa": "Flujo", "Detonante": "Lluvias", "Año_del_evento": 2012, "Region": "Metropolitana"}}, {"type": "Feature", "geometry": {"type": "Point", "coordinates": [-70.33246328, -33.3378991599999]}, "properties": {"Codigo_de_la_remocion_en_masa": "RM-2012-14-002", "Tipo_de_remocion_en_masa": "Flujo", "Detonante": "Lluvias", "Año_del_evento": 2012, "Region": "Metropolitana"}}, {"type": "Feature", "geometry": {"type": "Point", "coordinates": [-70.33097666, -33.33694106]}, "properties": {"Codigo_de_la_remocion_en_masa": "RM-2012-14-003", "Tipo_de_remocion_en_masa": "Flujo", "Detonante": "Lluvias", "Año_del_evento": 2012, "Region": "Metropolitana"}}, {"type": "Feature", "geometry": {"type": "Point", "coordinates": [-70.3316492399999, -33.33697652]}, "properties": {"Codigo_de_la_remocion_en_masa": "RM-2012-14-004", "Tipo_de_remocion_en_masa": "Flujo", "Detonante": "Lluvias", "Año_del_evento": 2012, "Region": "Metropolitana"}}, {"type": "Feature", "geometry": {"type": "Point", "coordinates": [-70.32892058, -33.32961265]}, "properties": {"Codigo_de_la_remocion_en_masa": "RM-2012-14-005", "Tipo_de_remocion_en_masa": "Flujo", "Detonante": "Lluvias", "Año_del_evento": 2012, "Region": "Metropolitana"}}, {"type": "Feature", "geometry": {"type": "Point", "coordinates": [-70.32859747, -33.3253140799999]}, "properties": {"Codigo_de_la_remocion_en_masa": "RM-2012-14-006", "Tipo_de_remocion_en_masa": "Flujo", "Detonante": "Lluvias", "Año_del_evento": 2012, "Region": "Metropolitana"}}, {"type": "Feature", "geometry": {"type": "Point", "coordinates": [-70.32849759, -33.32581119]}, "properties": {"Codigo_de_la_remocion_en_masa": "RM-2012-14-007", "Tipo_de_remocion_en_masa": "Flujo", "Detonante": "Lluvias", "Año_del_evento": 2012, "Region": "Metropolitana"}}, {"type": "Feature", "geometry": {"type": "Point", "coordinates": [-70.3280968, -33.3362142999999]}, "properties": {"Codigo_de_la_remocion_en_masa": "RM-2012-14-008", "Tipo_de_remocion_en_masa": "Flujo", "Detonante": "Lluvias", "Año_del_evento": 2012, "Region": "Metropolitana"}}, {"type": "Feature", "geometry": {"type": "Point", "coordinates": [-70.32793774, -33.32219156]}, "properties": {"Codigo_de_la_remocion_en_masa": "RM-2012-14-009", "Tipo_de_remocion_en_masa": "Flujo", "Detonante": "Lluvias", "Año_del_evento": 2012, "Region": "Metropolitana"}}, {"type": "Feature", "geometry": {"type": "Point", "coordinates": [-70.32755952, -33.33621103]}, "properties": {"Codigo_de_la_remocion_en_masa": "RM-2012-14-010", "Tipo_de_remocion_en_masa": "Flujo", "Detonante": "Lluvias", "Año_del_evento": 2012, "Region": "Metropolitana"}}, {"type": "Feature", "geometry": {"type": "Point", "coordinates": [-70.3275072599999, -33.3327663599999]}, "properties": {"Codigo_de_la_remocion_en_masa": "RM-2012-14-011", "Tipo_de_remocion_en_masa": "Flujo", "Detonante": "Lluvias", "Año_del_evento": 2012, "Region": "Metropolitana"}}, {"type": "Feature", "geometry": {"type": "Point", "coordinates": [-70.3274649099999, -33.3320994099999]}, "properties": {"Codigo_de_la_remocion_en_masa": "RM-2012-14-012", "Tipo_de_remocion_en_masa": "Flujo", "Detonante": "Lluvias", "Año_del_evento": 2012, "Region": "Metropolitana"}}, {"type": "Feature", "geometry": {"type": "Point", "coordinates": [-70.3273073999999, -33.3316321099999]}, "properties": {"Codigo_de_la_remocion_en_masa": "RM-2012-14-013", "Tipo_de_remocion_en_masa": "Flujo", "Detonante": "Lluvias", "Año_del_evento": 2012, "Region": "Metropolitana"}}, {"type": "Feature", "geometry": {"type": "Point", "coordinates": [-70.3272160499999, -33.32064802]}, "properties": {"Codigo_de_la_remocion_en_masa": "RM-2012-14-014", "Tipo_de_remocion_en_masa": "Flujo", "Detonante": "Lluvias", "Año_del_evento": 2012, "Region": "Metropolitana"}}, {"type": "Feature", "geometry": {"type": "Point", "coordinates": [-70.32719773, -33.3307764799999]}, "properties": {"Codigo_de_la_remocion_en_masa": "RM-2012-14-015", "Tipo_de_remocion_en_masa": "Flujo", "Detonante": "Lluvias", "Año_del_evento": 2012, "Region": "Metropolitana"}}, {"type": "Feature", "geometry": {"type": "Point", "coordinates": [-70.32651185, -33.3358524499999]}, "properties": {"Codigo_de_la_remocion_en_masa": "RM-2012-14-016", "Tipo_de_remocion_en_masa": "Flujo", "Detonante": "Lluvias", "Año_del_evento": 2012, "Region": "Metropolitana"}}, {"type": "Feature", "geometry": {"type": "Point", "coordinates": [-70.32647013, -33.33451809]}, "properties": {"Codigo_de_la_remocion_en_masa": "RM-2012-14-017", "Tipo_de_remocion_en_masa": "Flujo", "Detonante": "Lluvias", "Año_del_evento": 2012, "Region": "Metropolitana"}}, {"type": "Feature", "geometry": {"type": "Point", "coordinates": [-70.3263644899999, -33.3183302199999]}, "properties": {"Codigo_de_la_remocion_en_masa": "RM-2012-14-018", "Tipo_de_remocion_en_masa": "Flujo", "Detonante": "Lluvias", "Año_del_evento": 2012, "Region": "Metropolitana"}}, {"type": "Feature", "geometry": {"type": "Point", "coordinates": [-70.32608777, -33.3348107799999]}, "properties": {"Codigo_de_la_remocion_en_masa": "RM-2012-14-019", "Tipo_de_remocion_en_masa": "Flujo", "Detonante": "Lluvias", "Año_del_evento": 2012, "Region": "Metropolitana"}}, {"type": "Feature", "geometry": {"type": "Point", "coordinates": [-70.3260495, -33.33583033]}, "properties": {"Codigo_de_la_remocion_en_masa": "RM-2012-14-020", "Tipo_de_remocion_en_masa": "Flujo", "Detonante": "Lluvias", "Año_del_evento": 2012, "Region": "Metropolitana"}}, {"type": "Feature", "geometry": {"type": "Point", "coordinates": [-70.3252074599999, -33.3355687499999]}, "properties": {"Codigo_de_la_remocion_en_masa": "RM-2012-14-021", "Tipo_de_remocion_en_masa": "Flujo", "Detonante": "Lluvias", "Año_del_evento": 2012, "Region": "Metropolitana"}}, {"type": "Feature", "geometry": {"type": "Point", "coordinates": [-70.21025603, -33.5126661099999]}, "properties": {"Codigo_de_la_remocion_en_masa": "RM-2013-07-001", "Tipo_de_remocion_en_masa": "Flujo", "Detonante": "Lluvias", "Año_del_evento": 2013, "Region": "Metropolitana"}}, {"type": "Feature", "geometry": {"type": "Point", "coordinates": [-70.2023864499999, -33.51038883]}, "properties": {"Codigo_de_la_remocion_en_masa": "RM-2013-07-002", "Tipo_de_remocion_en_masa": "Flujo", "Detonante": "Lluvias", "Año_del_evento": 2013, "Region": "Metropolitana"}}, {"type": "Feature", "geometry": {"type": "Point", "coordinates": [-70.30057311, -33.73393749]}, "properties": {"Codigo_de_la_remocion_en_masa": "RM-2013-07-003", "Tipo_de_remocion_en_masa": "Flujo", "Detonante": "Lluvias", "Año_del_evento": 2013, "Region": "Metropolitana"}}, {"type": "Feature", "geometry": {"type": "Point", "coordinates": [-70.14571757, -33.8174809599999]}, "properties": {"Codigo_de_la_remocion_en_masa": "RM-2013-07-004", "Tipo_de_remocion_en_masa": "Flujo", "Detonante": "Lluvias", "Año_del_evento": 2013, "Region": "Metropolitana"}}, {"type": "Feature", "geometry": {"type": "Point", "coordinates": [-70.40806237, -33.5807394899999]}, "properties": {"Codigo_de_la_remocion_en_masa": "RM-2013-08-001", "Tipo_de_remocion_en_masa": "Flujo", "Detonante": "Lluvias", "Año_del_evento": 2013, "Region": "Metropolitana"}}, {"type": "Feature", "geometry": {"type": "Point", "coordinates": [-70.3011121, -33.73407975]}, "properties": {"Codigo_de_la_remocion_en_masa": "RM-2013-08-002", "Tipo_de_remocion_en_masa": "Flujo", "Detonante": "Lluvias", "Año_del_evento": 2013, "Region": "Metropolitana"}}, {"type": "Feature", "geometry": {"type": "Point", "coordinates": [-70.29919346, -33.7366188499999]}, "properties": {"Codigo_de_la_remocion_en_masa": "RM-2013-08-003", "Tipo_de_remocion_en_masa": "Flujo", "Detonante": "Lluvias", "Año_del_evento": 2013, "Region": "Metropolitana"}}, {"type": "Feature", "geometry": {"type": "Point", "coordinates": [-70.14895237, -33.8177935699999]}, "properties": {"Codigo_de_la_remocion_en_masa": "RM-2013-08-004", "Tipo_de_remocion_en_masa": "Flujo", "Detonante": "Lluvias", "Año_del_evento": 2013, "Region": "Metropolitana"}}, {"type": "Feature", "geometry": {"type": "Point", "coordinates": [-70.12902939, -33.8203404299999]}, "properties": {"Codigo_de_la_remocion_en_masa": "RM-2013-08-005", "Tipo_de_remocion_en_masa": "Flujo", "Detonante": "Lluvias", "Año_del_evento": 2013, "Region": "Metropolitana"}}, {"type": "Feature", "geometry": {"type": "Point", "coordinates": [-70.1120780799999, -33.8288365999999]}, "properties": {"Codigo_de_la_remocion_en_masa": "RM-2013-08-006", "Tipo_de_remocion_en_masa": "Flujo", "Detonante": "Lluvias", "Año_del_evento": 2013, "Region": "Metropolitana"}}, {"type": "Feature", "geometry": {"type": "Point", "coordinates": [-70.03292686, -33.8247361799999]}, "properties": {"Codigo_de_la_remocion_en_masa": "RM-2013-08-007", "Tipo_de_remocion_en_masa": "Flujo", "Detonante": "Lluvias", "Año_del_evento": 2013, "Region": "Metropolitana"}}, {"type": "Feature", "geometry": {"type": "Point", "coordinates": [-70.71615715, -33.39421572]}, "properties": {"Codigo_de_la_remocion_en_masa": "RM-2015-01-001", "Tipo_de_remocion_en_masa": "Deslizamiento", "Detonante": "Lluvias", "Año_del_evento": 1984, "Region": "Metropolitana"}}, {"type": "Feature", "geometry": {"type": "Point", "coordinates": [-70.3498289999999, -33.65671]}, "properties": {"Codigo_de_la_remocion_en_masa": "RM-2017-23-001", "Tipo_de_remocion_en_masa": "Flujo", "Detonante": "Lluvias", "Año_del_evento": 2017, "Region": "Metropolitana"}}, {"type": "Feature", "geometry": {"type": "Point", "coordinates": [-70.333286, -33.7069809999999]}, "properties": {"Codigo_de_la_remocion_en_masa": "RM-2017-23-002", "Tipo_de_remocion_en_masa": "Flujo", "Detonante": "Lluvias", "Año_del_evento": 2017, "Region": "Metropolitana"}}, {"type": "Feature", "geometry": {"type": "Point", "coordinates": [-70.3383929999999, -33.6813549999999]}, "properties": {"Codigo_de_la_remocion_en_masa": "RM-2017-23-003", "Tipo_de_remocion_en_masa": "Flujo", "Detonante": "Lluvias", "Año_del_evento": 2017, "Region": "Metropolitana"}}, {"type": "Feature", "geometry": {"type": "Point", "coordinates": [-70.338991, -33.679862]}, "properties": {"Codigo_de_la_remocion_en_masa": "RM-2017-23-004", "Tipo_de_remocion_en_masa": "Flujo", "Detonante": "Lluvias", "Año_del_evento": 2017, "Region": "Metropolitana"}}, {"type": "Feature", "geometry": {"type": "Point", "coordinates": [-70.340581, -33.6771709999999]}, "properties": {"Codigo_de_la_remocion_en_masa": "RM-2017-23-005", "Tipo_de_remocion_en_masa": "Flujo", "Detonante": "Lluvias", "Año_del_evento": 2017, "Region": "Metropolitana"}}, {"type": "Feature", "geometry": {"type": "Point", "coordinates": [-70.3421539999999, -33.676319]}, "properties": {"Codigo_de_la_remocion_en_masa": "RM-2017-23-006", "Tipo_de_remocion_en_masa": "Flujo", "Detonante": "Lluvias", "Año_del_evento": 2017, "Region": "Metropolitana"}}, {"type": "Feature", "geometry": {"type": "Point", "coordinates": [-70.344822, -33.6736069999999]}, "properties": {"Codigo_de_la_remocion_en_masa": "RM-2017-23-007", "Tipo_de_remocion_en_masa": "Flujo", "Detonante": "Lluvias", "Año_del_evento": 2017, "Region": "Metropolitana"}}, {"type": "Feature", "geometry": {"type": "Point", "coordinates": [-70.343988, -33.6743999999999]}, "properties": {"Codigo_de_la_remocion_en_masa": "RM-2017-23-008", "Tipo_de_remocion_en_masa": "Flujo", "Detonante": "Lluvias", "Año_del_evento": 2017, "Region": "Metropolitana"}}, {"type": "Feature", "geometry": {"type": "Point", "coordinates": [-70.300561, -33.7339059999999]}, "properties": {"Codigo_de_la_remocion_en_masa": "RM-2017-23-009", "Tipo_de_remocion_en_masa": "Flujo", "Detonante": "Lluvias", "Año_del_evento": 2017, "Region": "Metropolitana"}}, {"type": "Feature", "geometry": {"type": "Point", "coordinates": [-69.9848679999999, -33.8515119999999]}, "properties": {"Codigo_de_la_remocion_en_masa": "RM-2017-23-010", "Tipo_de_remocion_en_masa": "Flujo", "Detonante": "Lluvias", "Año_del_evento": 2017, "Region": "Metropolitana"}}, {"type": "Feature", "geometry": {"type": "Point", "coordinates": [-69.990419, -33.834414]}, "properties": {"Codigo_de_la_remocion_en_masa": "RM-2017-23-011", "Tipo_de_remocion_en_masa": "Flujo", "Detonante": "Lluvias", "Año_del_evento": 2017, "Region": "Metropolitana"}}, {"type": "Feature", "geometry": {"type": "Point", "coordinates": [-70.023315, -33.820307]}, "properties": {"Codigo_de_la_remocion_en_masa": "RM-2017-23-012", "Tipo_de_remocion_en_masa": "Flujo", "Detonante": "Lluvias", "Año_del_evento": 2017, "Region": "Metropolitana"}}, {"type": "Feature", "geometry": {"type": "Point", "coordinates": [-70.032303, -33.8243429999999]}, "properties": {"Codigo_de_la_remocion_en_masa": "RM-2017-23-013", "Tipo_de_remocion_en_masa": "Flujo", "Detonante": "Lluvias", "Año_del_evento": 2017, "Region": "Metropolitana"}}, {"type": "Feature", "geometry": {"type": "Point", "coordinates": [-70.064872, -33.8269999999999]}, "properties": {"Codigo_de_la_remocion_en_masa": "RM-2017-23-014", "Tipo_de_remocion_en_masa": "Flujo", "Detonante": "Lluvias", "Año_del_evento": 2017, "Region": "Metropolitana"}}, {"type": "Feature", "geometry": {"type": "Point", "coordinates": [-70.0752659999999, -33.829132]}, "properties": {"Codigo_de_la_remocion_en_masa": "RM-2017-23-015", "Tipo_de_remocion_en_masa": "Flujo", "Detonante": "Lluvias", "Año_del_evento": 2017, "Region": "Metropolitana"}}, {"type": "Feature", "geometry": {"type": "Point", "coordinates": [-70.161847, -33.816772]}, "properties": {"Codigo_de_la_remocion_en_masa": "RM-2017-23-016", "Tipo_de_remocion_en_masa": "Flujo", "Detonante": "Lluvias", "Año_del_evento": 2017, "Region": "Metropolitana"}}, {"type": "Feature", "geometry": {"type": "Point", "coordinates": [-70.178731, -33.815076]}, "properties": {"Codigo_de_la_remocion_en_masa": "RM-2017-23-017", "Tipo_de_remocion_en_masa": "Flujo", "Detonante": "Lluvias", "Año_del_evento": 2017, "Region": "Metropolitana"}}, {"type": "Feature", "geometry": {"type": "Point", "coordinates": [-70.33543528, -33.6921475]}, "properties": {"Codigo_de_la_remocion_en_masa": "RM-2016-01-001", "Tipo_de_remocion_en_masa": "Flujo", "Detonante": "Lluvias", "Año_del_evento": 2016, "Region": "Metropolitana"}}, {"type": "Feature", "geometry": {"type": "Point", "coordinates": [-70.20386324, -33.5105187899999]}, "properties": {"Codigo_de_la_remocion_en_masa": "RM-2016-01-002", "Tipo_de_remocion_en_masa": "Flujo", "Detonante": "Lluvias", "Año_del_evento": 2016, "Region": "Metropolitana"}}, {"type": "Feature", "geometry": {"type": "Point", "coordinates": [-70.1976275599999, -33.8580666]}, "properties": {"Codigo_de_la_remocion_en_masa": "RM-2016-01-003", "Tipo_de_remocion_en_masa": "Flujo", "Detonante": "Lluvias", "Año_del_evento": 2016, "Region": "Metropolitana"}}, {"type": "Feature", "geometry": {"type": "Point", "coordinates": [-70.1745422399999, -33.49267229]}, "properties": {"Codigo_de_la_remocion_en_masa": "RM-2016-01-004", "Tipo_de_remocion_en_masa": "Flujo", "Detonante": "Lluvias", "Año_del_evento": 2016, "Region": "Metropolitana"}}, {"type": "Feature", "geometry": {"type": "Point", "coordinates": [-70.1411376299999, -33.7361399499999]}, "properties": {"Codigo_de_la_remocion_en_masa": "RM-2016-01-005", "Tipo_de_remocion_en_masa": "Flujo", "Detonante": "Lluvias", "Año_del_evento": 2016, "Region": "Metropolitana"}}, {"type": "Feature", "geometry": {"type": "Point", "coordinates": [-70.12853415, -33.82212161]}, "properties": {"Codigo_de_la_remocion_en_masa": "RM-2016-01-006", "Tipo_de_remocion_en_masa": "Flujo", "Detonante": "Lluvias", "Año_del_evento": 2016, "Region": "Metropolitana"}}, {"type": "Feature", "geometry": {"type": "Point", "coordinates": [-70.1108105599999, -33.82942521]}, "properties": {"Codigo_de_la_remocion_en_masa": "RM-2016-01-007", "Tipo_de_remocion_en_masa": "Flujo", "Detonante": "Lluvias", "Año_del_evento": 2016, "Region": "Metropolitana"}}, {"type": "Feature", "geometry": {"type": "Point", "coordinates": [-70.1010753199999, -33.82952154]}, "properties": {"Codigo_de_la_remocion_en_masa": "RM-2016-01-008", "Tipo_de_remocion_en_masa": "Flujo", "Detonante": "Lluvias", "Año_del_evento": 2016, "Region": "Metropolitana"}}, {"type": "Feature", "geometry": {"type": "Point", "coordinates": [-70.07489601, -33.8290130199999]}, "properties": {"Codigo_de_la_remocion_en_masa": "RM-2016-01-009", "Tipo_de_remocion_en_masa": "Flujo", "Detonante": "Lluvias", "Año_del_evento": 2016, "Region": "Metropolitana"}}, {"type": "Feature", "geometry": {"type": "Point", "coordinates": [-70.26748801, -33.25912141]}, "properties": {"Codigo_de_la_remocion_en_masa": "RM-2018-11-001", "Tipo_de_remocion_en_masa": "Deslizamiento", "Detonante": "Sin información", "Año_del_evento": 2018, "Region": "Metropolitana"}}, {"type": "Feature", "geometry": {"type": "Point", "coordinates": [-70.08304968, -33.66545124]}, "properties": {"Codigo_de_la_remocion_en_masa": "RM-2019-01-001", "Tipo_de_remocion_en_masa": "Caída", "Detonante": "Deshielo", "Año_del_evento": 2019, "Region": "Metropolitana"}}, {"type": "Feature", "geometry": {"type": "Point", "coordinates": [-70.2673372099999, -33.25908687]}, "properties": {"Codigo_de_la_remocion_en_masa": "RM-2019-06-001", "Tipo_de_remocion_en_masa": "Deslizamiento", "Detonante": "Deshielo", "Año_del_evento": 2019, "Region": "Metropolitana"}}, {"type": "Feature", "geometry": {"type": "Point", "coordinates": [-70.16200221, -33.8168235599999]}, "properties": {"Codigo_de_la_remocion_en_masa": "RM-2019-11-001", "Tipo_de_remocion_en_masa": "Flujo", "Detonante": "Deshielo", "Año_del_evento": 2019, "Region": "Metropolitana"}}, {"type": "Feature", "geometry": {"type": "Point", "coordinates": [-71.62132881, -33.04730588]}, "properties": {"Codigo_de_la_remocion_en_masa": "RM-2019-38-001", "Tipo_de_remocion_en_masa": "Caída", "Detonante": "Sin información", "Año_del_evento": 2019, "Region": "Metropolitana"}}, {"type": "Feature", "geometry": {"type": "Point", "coordinates": [-70.2729365, -33.23277834]}, "properties": {"Codigo_de_la_remocion_en_masa": "RM-2019-39-001", "Tipo_de_remocion_en_masa": "Flujo", "Detonante": "Sin información", "Año_del_evento": 0, "Region": "Metropolitana"}}, {"type": "Feature", "geometry": {"type": "Point", "coordinates": [-70.26593057, -33.2619318599999]}, "properties": {"Codigo_de_la_remocion_en_masa": "RM-2019-39-002", "Tipo_de_remocion_en_masa": "Deslizamiento", "Detonante": "Sin información", "Año_del_evento": 0, "Region": "Metropolitana"}}, {"type": "Feature", "geometry": {"type": "Point", "coordinates": [-69.9863125099999, -33.48755949]}, "properties": {"Codigo_de_la_remocion_en_masa": "RM-2019-39-003", "Tipo_de_remocion_en_masa": "Propagación", "Detonante": "Sin información", "Año_del_evento": 0, "Region": "Metropolitana"}}, {"type": "Feature", "geometry": {"type": "Point", "coordinates": [-70.25063211, -33.70806049]}, "properties": {"Codigo_de_la_remocion_en_masa": "RM-2019-39-004", "Tipo_de_remocion_en_masa": "Deslizamiento", "Detonante": "Sin información", "Año_del_evento": 0, "Region": "Metropolitana"}}, {"type": "Feature", "geometry": {"type": "Point", "coordinates": [-70.2570841099999, -33.77426144]}, "properties": {"Codigo_de_la_remocion_en_masa": "RM-2019-39-005", "Tipo_de_remocion_en_masa": "Caída", "Detonante": "Sin información", "Año_del_evento": 0, "Region": "Metropolitana"}}, {"type": "Feature", "geometry": {"type": "Point", "coordinates": [-70.0711823899999, -33.82775436]}, "properties": {"Codigo_de_la_remocion_en_masa": "RM-2019-39-006", "Tipo_de_remocion_en_masa": "Deslizamiento", "Detonante": "Sin información", "Año_del_evento": 0, "Region": "Metropolitana"}}, {"type": "Feature", "geometry": {"type": "Point", "coordinates": [-70.0212897599999, -33.81567408]}, "properties": {"Codigo_de_la_remocion_en_masa": "RM-2019-39-007", "Tipo_de_remocion_en_masa": "Deslizamiento", "Detonante": "Sin información", "Año_del_evento": 0, "Region": "Metropolitana"}}, {"type": "Feature", "geometry": {"type": "Point", "coordinates": [-70.3449722, -33.64677668]}, "properties": {"Codigo_de_la_remocion_en_masa": "RM-2019-39-008", "Tipo_de_remocion_en_masa": "Deslizamiento", "Detonante": "Sin información", "Año_del_evento": 0, "Region": "Metropolitana"}}, {"type": "Feature", "geometry": {"type": "Point", "coordinates": [-70.15381748, -33.74073936]}, "properties": {"Codigo_de_la_remocion_en_masa": "RM-2019-39-009", "Tipo_de_remocion_en_masa": "Deslizamiento", "Detonante": "Sin información", "Año_del_evento": 0, "Region": "Metropolitana"}}, {"type": "Feature", "geometry": {"type": "Point", "coordinates": [-70.1636114, -33.77792807]}, "properties": {"Codigo_de_la_remocion_en_masa": "RM-2019-39-010", "Tipo_de_remocion_en_masa": "Deslizamiento", "Detonante": "Sin información", "Año_del_evento": 0, "Region": "Metropolitana"}}, {"type": "Feature", "geometry": {"type": "Point", "coordinates": [-70.18811955, -33.82424335]}, "properties": {"Codigo_de_la_remocion_en_masa": "RM-2019-39-011", "Tipo_de_remocion_en_masa": "Deslizamiento", "Detonante": "Sin información", "Año_del_evento": 0, "Region": "Metropolitana"}}, {"type": "Feature", "geometry": {"type": "Point", "coordinates": [-70.20281905, -33.7947051799999]}, "properties": {"Codigo_de_la_remocion_en_masa": "RM-2019-39-012", "Tipo_de_remocion_en_masa": "Deslizamiento", "Detonante": "Sin información", "Año_del_evento": 0, "Region": "Metropolitana"}}, {"type": "Feature", "geometry": {"type": "Point", "coordinates": [-70.14360809, -33.81848668]}, "properties": {"Codigo_de_la_remocion_en_masa": "RM-2019-39-013", "Tipo_de_remocion_en_masa": "Flujo", "Detonante": "Sin información", "Año_del_evento": 0, "Region": "Metropolitana"}}, {"type": "Feature", "geometry": {"type": "Point", "coordinates": [-70.0819565899999, -33.66405343]}, "properties": {"Codigo_de_la_remocion_en_masa": "RM-2019-40-001", "Tipo_de_remocion_en_masa": "Caída", "Detonante": "Deshielo", "Año_del_evento": 2019, "Region": "Metropolitana"}}, {"type": "Feature", "geometry": {"type": "Point", "coordinates": [-70.1821169199999, -33.78597485]}, "properties": {"Codigo_de_la_remocion_en_masa": "RM-2019-40-002", "Tipo_de_remocion_en_masa": "Caída", "Detonante": "Sin información", "Año_del_evento": 2019, "Region": "Metropolitana"}}, {"type": "Feature", "geometry": {"type": "Point", "coordinates": [-70.14855304, -33.7421894899999]}, "properties": {"Codigo_de_la_remocion_en_masa": "RM-2019-40-003", "Tipo_de_remocion_en_masa": "Caída", "Detonante": "Sin información", "Año_del_evento": 2019, "Region": "Metropolitana"}}, {"type": "Feature", "geometry": {"type": "Point", "coordinates": [-70.1768182599999, -33.7840586799999]}, "properties": {"Codigo_de_la_remocion_en_masa": "RM-2019-40-004", "Tipo_de_remocion_en_masa": "Caída", "Detonante": "Sin información", "Año_del_evento": 2019, "Region": "Metropolitana"}}, {"type": "Feature", "geometry": {"type": "Point", "coordinates": [-70.08154143, -33.65818158]}, "properties": {"Codigo_de_la_remocion_en_masa": "RM-2019-40-005", "Tipo_de_remocion_en_masa": "Caída", "Detonante": "Sin información", "Año_del_evento": 2019, "Region": "Metropolitana"}}, {"type": "Feature", "geometry": {"type": "Point", "coordinates": [-70.0818556099999, -33.6581181]}, "properties": {"Codigo_de_la_remocion_en_masa": "RM-2019-40-006", "Tipo_de_remocion_en_masa": "Caída", "Detonante": "Sin información", "Año_del_evento": 2019, "Region": "Metropolitana"}}, {"type": "Feature", "geometry": {"type": "Point", "coordinates": [-70.1880413499999, -33.78745746]}, "properties": {"Codigo_de_la_remocion_en_masa": "RM-2019-40-007", "Tipo_de_remocion_en_masa": "Caída", "Detonante": "Sin información", "Año_del_evento": 2019, "Region": "Metropolitana"}}, {"type": "Feature", "geometry": {"type": "Point", "coordinates": [-70.08163517, -33.66108917]}, "properties": {"Codigo_de_la_remocion_en_masa": "RM-2019-40-008", "Tipo_de_remocion_en_masa": "Caída", "Detonante": "Sin información", "Año_del_evento": 2019, "Region": "Metropolitana"}}, {"type": "Feature", "geometry": {"type": "Point", "coordinates": [-70.18995595, -33.7875824299999]}, "properties": {"Codigo_de_la_remocion_en_masa": "RM-2019-40-009", "Tipo_de_remocion_en_masa": "Caída", "Detonante": "Sin información", "Año_del_evento": 2019, "Region": "Metropolitana"}}, {"type": "Feature", "geometry": {"type": "Point", "coordinates": [-70.18902988, -33.78733439]}, "properties": {"Codigo_de_la_remocion_en_masa": "RM-2019-40-010", "Tipo_de_remocion_en_masa": "Caída", "Detonante": "Sin información", "Año_del_evento": 2019, "Region": "Metropolitana"}}, {"type": "Feature", "geometry": {"type": "Point", "coordinates": [-70.1801925899999, -33.78521732]}, "properties": {"Codigo_de_la_remocion_en_masa": "RM-2019-40-011", "Tipo_de_remocion_en_masa": "Caída", "Detonante": "Sin información", "Año_del_evento": 2019, "Region": "Metropolitana"}}, {"type": "Feature", "geometry": {"type": "Point", "coordinates": [-70.17857216, -33.78468029]}, "properties": {"Codigo_de_la_remocion_en_masa": "RM-2019-40-012", "Tipo_de_remocion_en_masa": "Caída", "Detonante": "Sin información", "Año_del_evento": 2019, "Region": "Metropolitana"}}, {"type": "Feature", "geometry": {"type": "Point", "coordinates": [-70.11265544, -33.69525411]}, "properties": {"Codigo_de_la_remocion_en_masa": "RM-2019-40-013", "Tipo_de_remocion_en_masa": "Caída", "Detonante": "Sin información", "Año_del_evento": 2019, "Region": "Metropolitana"}}, {"type": "Feature", "geometry": {"type": "Point", "coordinates": [-70.030678, -33.6427598]}, "properties": {"Codigo_de_la_remocion_en_masa": "RM-2019-40-014", "Tipo_de_remocion_en_masa": "Caída", "Detonante": "Sin información", "Año_del_evento": 2019, "Region": "Metropolitana"}}, {"type": "Feature", "geometry": {"type": "Point", "coordinates": [-70.0357727699999, -33.6456525]}, "properties": {"Codigo_de_la_remocion_en_masa": "RM-2019-40-015", "Tipo_de_remocion_en_masa": "Caída", "Detonante": "Sin información", "Año_del_evento": 2019, "Region": "Metropolitana"}}, {"type": "Feature", "geometry": {"type": "Point", "coordinates": [-70.0457920699999, -33.64852619]}, "properties": {"Codigo_de_la_remocion_en_masa": "RM-2019-40-016", "Tipo_de_remocion_en_masa": "Caída", "Detonante": "Sin información", "Año_del_evento": 2019, "Region": "Metropolitana"}}, {"type": "Feature", "geometry": {"type": "Point", "coordinates": [-70.06660025, -33.65213519]}, "properties": {"Codigo_de_la_remocion_en_masa": "RM-2019-40-017", "Tipo_de_remocion_en_masa": "Caída", "Detonante": "Sin información", "Año_del_evento": 2019, "Region": "Metropolitana"}}, {"type": "Feature", "geometry": {"type": "Point", "coordinates": [-70.06467997, -33.65190358]}, "properties": {"Codigo_de_la_remocion_en_masa": "RM-2019-40-018", "Tipo_de_remocion_en_masa": "Caída", "Detonante": "Sin información", "Año_del_evento": 2019, "Region": "Metropolitana"}}, {"type": "Feature", "geometry": {"type": "Point", "coordinates": [-70.06422114, -33.65171663]}, "properties": {"Codigo_de_la_remocion_en_masa": "RM-2019-40-019", "Tipo_de_remocion_en_masa": "Caída", "Detonante": "Sin información", "Año_del_evento": 2019, "Region": "Metropolitana"}}, {"type": "Feature", "geometry": {"type": "Point", "coordinates": [-70.0632576099999, -33.65132403]}, "properties": {"Codigo_de_la_remocion_en_masa": "RM-2019-40-020", "Tipo_de_remocion_en_masa": "Caída", "Detonante": "Sin información", "Año_del_evento": 2019, "Region": "Metropolitana"}}, {"type": "Feature", "geometry": {"type": "Point", "coordinates": [-70.08276577, -33.66524299]}, "properties": {"Codigo_de_la_remocion_en_masa": "RM-2019-40-021", "Tipo_de_remocion_en_masa": "Caída", "Detonante": "Deshielo", "Año_del_evento": 2019, "Region": "Metropolitana"}}, {"type": "Feature", "geometry": {"type": "Point", "coordinates": [-70.08342064, -33.66831071]}, "properties": {"Codigo_de_la_remocion_en_masa": "RM-2019-40-022", "Tipo_de_remocion_en_masa": "Caída", "Detonante": "Sin información", "Año_del_evento": 2019, "Region": "Metropolitana"}}, {"type": "Feature", "geometry": {"type": "Point", "coordinates": [-70.0824621799999, -33.65923236]}, "properties": {"Codigo_de_la_remocion_en_masa": "RM-2019-40-023", "Tipo_de_remocion_en_masa": "Caída", "Detonante": "Sin información", "Año_del_evento": 2019, "Region": "Metropolitana"}}, {"type": "Feature", "geometry": {"type": "Point", "coordinates": [-70.08219401, -33.65969286]}, "properties": {"Codigo_de_la_remocion_en_masa": "RM-2019-40-024", "Tipo_de_remocion_en_masa": "Caída", "Detonante": "Sin información", "Año_del_evento": 2019, "Region": "Metropolitana"}}, {"type": "Feature", "geometry": {"type": "Point", "coordinates": [-70.1931745799999, -33.7883133899999]}, "properties": {"Codigo_de_la_remocion_en_masa": "RM-2019-40-025", "Tipo_de_remocion_en_masa": "Caída", "Detonante": "Sin información", "Año_del_evento": 2019, "Region": "Metropolitana"}}, {"type": "Feature", "geometry": {"type": "Point", "coordinates": [-70.1909487199999, -33.78809868]}, "properties": {"Codigo_de_la_remocion_en_masa": "RM-2019-40-026", "Tipo_de_remocion_en_masa": "Caída", "Detonante": "Sin información", "Año_del_evento": 2019, "Region": "Metropolitana"}}, {"type": "Feature", "geometry": {"type": "Point", "coordinates": [-70.21162316, -33.79252057]}, "properties": {"Codigo_de_la_remocion_en_masa": "RM-2019-40-027", "Tipo_de_remocion_en_masa": "Caída", "Detonante": "Sin información", "Año_del_evento": 2019, "Region": "Metropolitana"}}, {"type": "Feature", "geometry": {"type": "Point", "coordinates": [-70.1091133899999, -33.6914008599999]}, "properties": {"Codigo_de_la_remocion_en_masa": "RM-2019-40-028", "Tipo_de_remocion_en_masa": "Deslizamiento", "Detonante": "Sin información", "Año_del_evento": 2019, "Region": "Metropolitana"}}, {"type": "Feature", "geometry": {"type": "Point", "coordinates": [-70.1107914299999, -33.69317438]}, "properties": {"Codigo_de_la_remocion_en_masa": "RM-2019-40-029", "Tipo_de_remocion_en_masa": "Caída", "Detonante": "Sin información", "Año_del_evento": 2019, "Region": "Metropolitana"}}, {"type": "Feature", "geometry": {"type": "Point", "coordinates": [-70.11647405, -33.69865765]}, "properties": {"Codigo_de_la_remocion_en_masa": "RM-2019-40-030", "Tipo_de_remocion_en_masa": "Caída", "Detonante": "Sin información", "Año_del_evento": 2019, "Region": "Metropolitana"}}, {"type": "Feature", "geometry": {"type": "Point", "coordinates": [-70.1401365199999, -33.732492]}, "properties": {"Codigo_de_la_remocion_en_masa": "RM-2019-40-031", "Tipo_de_remocion_en_masa": "Caída", "Detonante": "Sin información", "Año_del_evento": 2019, "Region": "Metropolitana"}}, {"type": "Feature", "geometry": {"type": "Point", "coordinates": [-70.08501151, -33.675315]}, "properties": {"Codigo_de_la_remocion_en_masa": "RM-2019-40-032", "Tipo_de_remocion_en_masa": "Caída", "Detonante": "Sin información", "Año_del_evento": 2019, "Region": "Metropolitana"}}, {"type": "Feature", "geometry": {"type": "Point", "coordinates": [-70.08640995, -33.6763458999999]}, "properties": {"Codigo_de_la_remocion_en_masa": "RM-2019-40-033", "Tipo_de_remocion_en_masa": "Caída", "Detonante": "Sin información", "Año_del_evento": 2019, "Region": "Metropolitana"}}, {"type": "Feature", "geometry": {"type": "Point", "coordinates": [-70.06246012, -33.6511973]}, "properties": {"Codigo_de_la_remocion_en_masa": "RM-2019-40-034", "Tipo_de_remocion_en_masa": "Caída", "Detonante": "Sin información", "Año_del_evento": 2019, "Region": "Metropolitana"}}, {"type": "Feature", "geometry": {"type": "Point", "coordinates": [-70.065328, -33.65189147]}, "properties": {"Codigo_de_la_remocion_en_masa": "RM-2019-40-035", "Tipo_de_remocion_en_masa": "Caída", "Detonante": "Sin información", "Año_del_evento": 2019, "Region": "Metropolitana"}}, {"type": "Feature", "geometry": {"type": "Point", "coordinates": [-70.0676512699999, -33.6525169299999]}, "properties": {"Codigo_de_la_remocion_en_masa": "RM-2019-40-036", "Tipo_de_remocion_en_masa": "Caída", "Detonante": "Sin información", "Año_del_evento": 2019, "Region": "Metropolitana"}}, {"type": "Feature", "geometry": {"type": "Point", "coordinates": [-70.07072325, -33.6541041099999]}, "properties": {"Codigo_de_la_remocion_en_masa": "RM-2019-40-037", "Tipo_de_remocion_en_masa": "Caída", "Detonante": "Sin información", "Año_del_evento": 2019, "Region": "Metropolitana"}}, {"type": "Feature", "geometry": {"type": "Point", "coordinates": [-70.07427788, -33.65640588]}, "properties": {"Codigo_de_la_remocion_en_masa": "RM-2019-40-038", "Tipo_de_remocion_en_masa": "Caída", "Detonante": "Sin información", "Año_del_evento": 2019, "Region": "Metropolitana"}}, {"type": "Feature", "geometry": {"type": "Point", "coordinates": [-70.07650869, -33.6566358699999]}, "properties": {"Codigo_de_la_remocion_en_masa": "RM-2019-40-039", "Tipo_de_remocion_en_masa": "Caída", "Detonante": "Sin información", "Año_del_evento": 2019, "Region": "Metropolitana"}}, {"type": "Feature", "geometry": {"type": "Point", "coordinates": [-70.08033526, -33.6582162299999]}, "properties": {"Codigo_de_la_remocion_en_masa": "RM-2019-40-040", "Tipo_de_remocion_en_masa": "Caída", "Detonante": "Sin información", "Año_del_evento": 2019, "Region": "Metropolitana"}}, {"type": "Feature", "geometry": {"type": "Point", "coordinates": [-70.08140184, -33.66213858]}, "properties": {"Codigo_de_la_remocion_en_masa": "RM-2019-40-041", "Tipo_de_remocion_en_masa": "Caída", "Detonante": "Sin información", "Año_del_evento": 2019, "Region": "Metropolitana"}}, {"type": "Feature", "geometry": {"type": "Point", "coordinates": [-70.0814444499999, -33.6627397]}, "properties": {"Codigo_de_la_remocion_en_masa": "RM-2019-40-042", "Tipo_de_remocion_en_masa": "Caída", "Detonante": "Sin información", "Año_del_evento": 2019, "Region": "Metropolitana"}}, {"type": "Feature", "geometry": {"type": "Point", "coordinates": [-70.0759976699999, -33.65644256]}, "properties": {"Codigo_de_la_remocion_en_masa": "RM-2019-40-043", "Tipo_de_remocion_en_masa": "Caída", "Detonante": "Sin información", "Año_del_evento": 2019, "Region": "Metropolitana"}}, {"type": "Feature", "geometry": {"type": "Point", "coordinates": [-70.06812633, -33.65279164]}, "properties": {"Codigo_de_la_remocion_en_masa": "RM-2019-40-044", "Tipo_de_remocion_en_masa": "Caída", "Detonante": "Sin información", "Año_del_evento": 2019, "Region": "Metropolitana"}}, {"type": "Feature", "geometry": {"type": "Point", "coordinates": [-70.07161368, -33.6556936599999]}, "properties": {"Codigo_de_la_remocion_en_masa": "RM-2019-40-045", "Tipo_de_remocion_en_masa": "Caída", "Detonante": "Sin información", "Año_del_evento": 2019, "Region": "Metropolitana"}}, {"type": "Feature", "geometry": {"type": "Point", "coordinates": [-70.0777303899999, -33.6570760399999]}, "properties": {"Codigo_de_la_remocion_en_masa": "RM-2019-40-046", "Tipo_de_remocion_en_masa": "Caída", "Detonante": "Sin información", "Año_del_evento": 2019, "Region": "Metropolitana"}}, {"type": "Feature", "geometry": {"type": "Point", "coordinates": [-70.0786141199999, -33.6576486599999]}, "properties": {"Codigo_de_la_remocion_en_masa": "RM-2019-40-047", "Tipo_de_remocion_en_masa": "Caída", "Detonante": "Sin información", "Año_del_evento": 2019, "Region": "Metropolitana"}}, {"type": "Feature", "geometry": {"type": "Point", "coordinates": [-70.9811073399999, -53.14487395]}, "properties": {"Codigo_de_la_remocion_en_masa": "RM-2017-23-001", "Tipo_de_remocion_en_masa": "Flujo", "Detonante": "Lluvias", "Año_del_evento": 2017, "Region": "Metropolitana"}}, {"type": "Feature", "geometry": {"type": "Point", "coordinates": [-70.6584586, -33.3155938099999]}, "properties": {"Codigo_de_la_remocion_en_masa": "RM-2015-19-001", "Tipo_de_remocion_en_masa": "Caída", "Detonante": "Sin información", "Año_del_evento": 0, "Region": "Metropolitana"}}, {"type": "Feature", "geometry": {"type": "Point", "coordinates": [-70.31594495, -33.72359648]}, "properties": {"Codigo_de_la_remocion_en_masa": "RM-2015-20-001", "Tipo_de_remocion_en_masa": "Flujo", "Detonante": " ", "Año_del_evento": 0, "Region": "Metropolitana"}}, {"type": "Feature", "geometry": {"type": "Point", "coordinates": [-70.31487494, -33.7235295]}, "properties": {"Codigo_de_la_remocion_en_masa": "RM-2015-20-002", "Tipo_de_remocion_en_masa": "Flujo", "Detonante": " ", "Año_del_evento": 0, "Region": "Metropolitana"}}, {"type": "Feature", "geometry": {"type": "Point", "coordinates": [-70.31430218, -33.7241550799999]}, "properties": {"Codigo_de_la_remocion_en_masa": "RM-2015-20-003", "Tipo_de_remocion_en_masa": "Flujo", "Detonante": " ", "Año_del_evento": 0, "Region": "Metropolitana"}}, {"type": "Feature", "geometry": {"type": "Point", "coordinates": [-70.31185212, -33.7248575199999]}, "properties": {"Codigo_de_la_remocion_en_masa": "RM-2015-20-004", "Tipo_de_remocion_en_masa": "Flujo", "Detonante": " ", "Año_del_evento": 0, "Region": "Metropolitana"}}, {"type": "Feature", "geometry": {"type": "Point", "coordinates": [-70.3101757599999, -33.72676016]}, "properties": {"Codigo_de_la_remocion_en_masa": "RM-2015-20-005", "Tipo_de_remocion_en_masa": "Flujo", "Detonante": " ", "Año_del_evento": 0, "Region": "Metropolitana"}}, {"type": "Feature", "geometry": {"type": "Point", "coordinates": [-70.30853387, -33.72809426]}, "properties": {"Codigo_de_la_remocion_en_masa": "RM-2015-20-006", "Tipo_de_remocion_en_masa": "Flujo", "Detonante": " ", "Año_del_evento": 0, "Region": "Metropolitana"}}, {"type": "Feature", "geometry": {"type": "Point", "coordinates": [-70.20199687, -33.81422169]}, "properties": {"Codigo_de_la_remocion_en_masa": "RM-2021-02-001", "Tipo_de_remocion_en_masa": "Flujo", "Detonante": "Lluvias", "Año_del_evento": 2021, "Region": "Metropolitana"}}, {"type": "Feature", "geometry": {"type": "Point", "coordinates": [-70.1994251799999, -33.81420164]}, "properties": {"Codigo_de_la_remocion_en_masa": "RM-2021-02-002", "Tipo_de_remocion_en_masa": "Flujo", "Detonante": "Lluvias", "Año_del_evento": 2021, "Region": "Metropolitana"}}, {"type": "Feature", "geometry": {"type": "Point", "coordinates": [-70.1966340399999, -33.81394016]}, "properties": {"Codigo_de_la_remocion_en_masa": "RM-2021-02-003", "Tipo_de_remocion_en_masa": "Flujo", "Detonante": "Lluvias", "Año_del_evento": 2021, "Region": "Metropolitana"}}, {"type": "Feature", "geometry": {"type": "Point", "coordinates": [-70.18680675, -33.8142695999999]}, "properties": {"Codigo_de_la_remocion_en_masa": "RM-2021-02-004", "Tipo_de_remocion_en_masa": "Flujo", "Detonante": "Lluvias", "Año_del_evento": 2021, "Region": "Metropolitana"}}, {"type": "Feature", "geometry": {"type": "Point", "coordinates": [-70.17508154, -33.8156625]}, "properties": {"Codigo_de_la_remocion_en_masa": "RM-2021-02-005", "Tipo_de_remocion_en_masa": "Flujo", "Detonante": "Lluvias", "Año_del_evento": 2021, "Region": "Metropolitana"}}, {"type": "Feature", "geometry": {"type": "Point", "coordinates": [-70.1658708799999, -33.8168682099999]}, "properties": {"Codigo_de_la_remocion_en_masa": "RM-2021-02-006", "Tipo_de_remocion_en_masa": "Flujo", "Detonante": "Lluvias", "Año_del_evento": 2021, "Region": "Metropolitana"}}, {"type": "Feature", "geometry": {"type": "Point", "coordinates": [-70.16203462, -33.81682325]}, "properties": {"Codigo_de_la_remocion_en_masa": "RM-2021-02-007", "Tipo_de_remocion_en_masa": "Flujo", "Detonante": "Lluvias", "Año_del_evento": 2021, "Region": "Metropolitana"}}, {"type": "Feature", "geometry": {"type": "Point", "coordinates": [-70.1286199899999, -33.8220757299999]}, "properties": {"Codigo_de_la_remocion_en_masa": "RM-2021-02-008", "Tipo_de_remocion_en_masa": "Flujo", "Detonante": "Lluvias", "Año_del_evento": 2021, "Region": "Metropolitana"}}, {"type": "Feature", "geometry": {"type": "Point", "coordinates": [-70.11168098, -33.8290476]}, "properties": {"Codigo_de_la_remocion_en_masa": "RM-2021-02-009", "Tipo_de_remocion_en_masa": "Flujo", "Detonante": "Lluvias", "Año_del_evento": 2021, "Region": "Metropolitana"}}, {"type": "Feature", "geometry": {"type": "Point", "coordinates": [-70.08425949, -33.83028382]}, "properties": {"Codigo_de_la_remocion_en_masa": "RM-2021-02-010", "Tipo_de_remocion_en_masa": "Flujo", "Detonante": "Lluvias", "Año_del_evento": 2021, "Region": "Metropolitana"}}, {"type": "Feature", "geometry": {"type": "Point", "coordinates": [-70.07472448, -33.8291227399999]}, "properties": {"Codigo_de_la_remocion_en_masa": "RM-2021-02-011", "Tipo_de_remocion_en_masa": "Flujo", "Detonante": "Lluvias", "Año_del_evento": 2021, "Region": "Metropolitana"}}, {"type": "Feature", "geometry": {"type": "Point", "coordinates": [-70.05730023, -33.82349246]}, "properties": {"Codigo_de_la_remocion_en_masa": "RM-2021-02-012", "Tipo_de_remocion_en_masa": "Flujo", "Detonante": "Lluvias", "Año_del_evento": 2021, "Region": "Metropolitana"}}, {"type": "Feature", "geometry": {"type": "Point", "coordinates": [-70.04884928, -33.8278394499999]}, "properties": {"Codigo_de_la_remocion_en_masa": "RM-2021-02-013", "Tipo_de_remocion_en_masa": "Flujo", "Detonante": "Lluvias", "Año_del_evento": 2021, "Region": "Metropolitana"}}, {"type": "Feature", "geometry": {"type": "Point", "coordinates": [-70.0415535399999, -33.8268190599999]}, "properties": {"Codigo_de_la_remocion_en_masa": "RM-2021-02-014", "Tipo_de_remocion_en_masa": "Flujo", "Detonante": "Lluvias", "Año_del_evento": 2021, "Region": "Metropolitana"}}, {"type": "Feature", "geometry": {"type": "Point", "coordinates": [-70.0325797, -33.82462184]}, "properties": {"Codigo_de_la_remocion_en_masa": "RM-2021-02-015", "Tipo_de_remocion_en_masa": "Flujo", "Detonante": "Lluvias", "Año_del_evento": 2021, "Region": "Metropolitana"}}, {"type": "Feature", "geometry": {"type": "Point", "coordinates": [-69.9902495699999, -33.83179616]}, "properties": {"Codigo_de_la_remocion_en_masa": "RM-2021-02-016", "Tipo_de_remocion_en_masa": "Flujo", "Detonante": "Lluvias", "Año_del_evento": 2021, "Region": "Metropolitana"}}, {"type": "Feature", "geometry": {"type": "Point", "coordinates": [-69.98699314, -33.84558472]}, "properties": {"Codigo_de_la_remocion_en_masa": "RM-2021-02-017", "Tipo_de_remocion_en_masa": "Flujo", "Detonante": "Lluvias", "Año_del_evento": 2021, "Region": "Metropolitana"}}, {"type": "Feature", "geometry": {"type": "Point", "coordinates": [-70.1936996599999, -33.80881005]}, "properties": {"Codigo_de_la_remocion_en_masa": "RM-2021-03-001", "Tipo_de_remocion_en_masa": "Flujo", "Detonante": "Lluvias", "Año_del_evento": 2021, "Region": "Metropolitana"}}, {"type": "Feature", "geometry": {"type": "Point", "coordinates": [-70.1930700199999, -33.81092646]}, "properties": {"Codigo_de_la_remocion_en_masa": "RM-2021-03-002", "Tipo_de_remocion_en_masa": "Flujo", "Detonante": "Lluvias", "Año_del_evento": 2021, "Region": "Metropolitana"}}, {"type": "Feature", "geometry": {"type": "Point", "coordinates": [-70.19150523, -33.8102742199999]}, "properties": {"Codigo_de_la_remocion_en_masa": "RM-2021-03-003", "Tipo_de_remocion_en_masa": "Flujo", "Detonante": "Lluvias", "Año_del_evento": 2021, "Region": "Metropolitana"}}, {"type": "Feature", "geometry": {"type": "Point", "coordinates": [-70.1910609399999, -33.8086191199999]}, "properties": {"Codigo_de_la_remocion_en_masa": "RM-2021-03-004", "Tipo_de_remocion_en_masa": "Flujo", "Detonante": "Lluvias", "Año_del_evento": 2021, "Region": "Metropolitana"}}, {"type": "Feature", "geometry": {"type": "Point", "coordinates": [-70.18880347, -33.80943452]}, "properties": {"Codigo_de_la_remocion_en_masa": "RM-2021-03-005", "Tipo_de_remocion_en_masa": "Flujo", "Detonante": "Lluvias", "Año_del_evento": 2021, "Region": "Metropolitana"}}, {"type": "Feature", "geometry": {"type": "Point", "coordinates": [-70.1870056, -33.8098937399999]}, "properties": {"Codigo_de_la_remocion_en_masa": "RM-2021-03-006", "Tipo_de_remocion_en_masa": "Flujo", "Detonante": "Lluvias", "Año_del_evento": 2021, "Region": "Metropolitana"}}, {"type": "Feature", "geometry": {"type": "Point", "coordinates": [-70.17888128, -33.81462519]}, "properties": {"Codigo_de_la_remocion_en_masa": "RM-2021-03-007", "Tipo_de_remocion_en_masa": "Flujo", "Detonante": "Lluvias", "Año_del_evento": 2021, "Region": "Metropolitana"}}, {"type": "Feature", "geometry": {"type": "Point", "coordinates": [-70.17062628, -33.81776109]}, "properties": {"Codigo_de_la_remocion_en_masa": "RM-2021-03-008", "Tipo_de_remocion_en_masa": "Flujo", "Detonante": "Lluvias", "Año_del_evento": 2021, "Region": "Metropolitana"}}, {"type": "Feature", "geometry": {"type": "Point", "coordinates": [-70.1697888899999, -33.81815683]}, "properties": {"Codigo_de_la_remocion_en_masa": "RM-2021-03-009", "Tipo_de_remocion_en_masa": "Flujo", "Detonante": "Lluvias", "Año_del_evento": 2021, "Region": "Metropolitana"}}, {"type": "Feature", "geometry": {"type": "Point", "coordinates": [-70.16618221, -33.8199044899999]}, "properties": {"Codigo_de_la_remocion_en_masa": "RM-2021-03-010", "Tipo_de_remocion_en_masa": "Flujo", "Detonante": "Lluvias", "Año_del_evento": 2021, "Region": "Metropolitana"}}, {"type": "Feature", "geometry": {"type": "Point", "coordinates": [-70.35532091, -33.6228136]}, "properties": {"Codigo_de_la_remocion_en_masa": "RM-2021-23-001", "Tipo_de_remocion_en_masa": "Flujo", "Detonante": "Lluvias", "Año_del_evento": 2021, "Region": "Metropolitana"}}, {"type": "Feature", "geometry": {"type": "Point", "coordinates": [-70.3553293799999, -33.62128938]}, "properties": {"Codigo_de_la_remocion_en_masa": "RM-2021-23-002", "Tipo_de_remocion_en_masa": "Flujo", "Detonante": "Lluvias", "Año_del_evento": 2021, "Region": "Metropolitana"}}, {"type": "Feature", "geometry": {"type": "Point", "coordinates": [-70.35438957, -33.61771934]}, "properties": {"Codigo_de_la_remocion_en_masa": "RM-2021-23-003", "Tipo_de_remocion_en_masa": "Flujo", "Detonante": "Lluvias", "Año_del_evento": 2021, "Region": "Metropolitana"}}, {"type": "Feature", "geometry": {"type": "Point", "coordinates": [-70.2142227099999, -33.79248475]}, "properties": {"Codigo_de_la_remocion_en_masa": "RM-2021-04-001", "Tipo_de_remocion_en_masa": "Flujo", "Detonante": "Lluvias", "Año_del_evento": 2021, "Region": "Metropolitana"}}, {"type": "Feature", "geometry": {"type": "Point", "coordinates": [-70.19251939, -33.78836759]}, "properties": {"Codigo_de_la_remocion_en_masa": "RM-2021-04-002", "Tipo_de_remocion_en_masa": "Flujo", "Detonante": "Lluvias", "Año_del_evento": 2021, "Region": "Metropolitana"}}, {"type": "Feature", "geometry": {"type": "Point", "coordinates": [-70.18403638, -33.7872768899999]}, "properties": {"Codigo_de_la_remocion_en_masa": "RM-2021-04-003", "Tipo_de_remocion_en_masa": "Flujo", "Detonante": "Lluvias", "Año_del_evento": 2021, "Region": "Metropolitana"}}, {"type": "Feature", "geometry": {"type": "Point", "coordinates": [-70.18179187, -33.7858554499999]}, "properties": {"Codigo_de_la_remocion_en_masa": "RM-2021-04-004", "Tipo_de_remocion_en_masa": "Flujo", "Detonante": "Lluvias", "Año_del_evento": 2021, "Region": "Metropolitana"}}, {"type": "Feature", "geometry": {"type": "Point", "coordinates": [-70.17861038, -33.78462329]}, "properties": {"Codigo_de_la_remocion_en_masa": "RM-2021-04-005", "Tipo_de_remocion_en_masa": "Caída", "Detonante": "Lluvias", "Año_del_evento": 2021, "Region": "Metropolitana"}}, {"type": "Feature", "geometry": {"type": "Point", "coordinates": [-70.1742324699999, -33.78277115]}, "properties": {"Codigo_de_la_remocion_en_masa": "RM-2021-04-006", "Tipo_de_remocion_en_masa": "Flujo", "Detonante": "Lluvias", "Año_del_evento": 2021, "Region": "Metropolitana"}}, {"type": "Feature", "geometry": {"type": "Point", "coordinates": [-70.1728639, -33.7806197199999]}, "properties": {"Codigo_de_la_remocion_en_masa": "RM-2021-04-007", "Tipo_de_remocion_en_masa": "Flujo", "Detonante": "Lluvias", "Año_del_evento": 2021, "Region": "Metropolitana"}}, {"type": "Feature", "geometry": {"type": "Point", "coordinates": [-70.1713609, -33.7781088199999]}, "properties": {"Codigo_de_la_remocion_en_masa": "RM-2021-04-008", "Tipo_de_remocion_en_masa": "Flujo", "Detonante": "Lluvias", "Año_del_evento": 2021, "Region": "Metropolitana"}}, {"type": "Feature", "geometry": {"type": "Point", "coordinates": [-70.16875526, -33.77073833]}, "properties": {"Codigo_de_la_remocion_en_masa": "RM-2021-04-009", "Tipo_de_remocion_en_masa": "Flujo", "Detonante": "Lluvias", "Año_del_evento": 2021, "Region": "Metropolitana"}}, {"type": "Feature", "geometry": {"type": "Point", "coordinates": [-70.15877854, -33.7564027299999]}, "properties": {"Codigo_de_la_remocion_en_masa": "RM-2021-04-010", "Tipo_de_remocion_en_masa": "Flujo", "Detonante": "Lluvias", "Año_del_evento": 2021, "Region": "Metropolitana"}}, {"type": "Feature", "geometry": {"type": "Point", "coordinates": [-70.1585494, -33.75622451]}, "properties": {"Codigo_de_la_remocion_en_masa": "RM-2021-04-011", "Tipo_de_remocion_en_masa": "Flujo", "Detonante": "Lluvias", "Año_del_evento": 2021, "Region": "Metropolitana"}}, {"type": "Feature", "geometry": {"type": "Point", "coordinates": [-70.1570892399999, -33.75362282]}, "properties": {"Codigo_de_la_remocion_en_masa": "RM-2021-04-012", "Tipo_de_remocion_en_masa": "Flujo", "Detonante": "Lluvias", "Año_del_evento": 2021, "Region": "Metropolitana"}}, {"type": "Feature", "geometry": {"type": "Point", "coordinates": [-70.1484561999999, -33.74261058]}, "properties": {"Codigo_de_la_remocion_en_masa": "RM-2021-04-013", "Tipo_de_remocion_en_masa": "Flujo", "Detonante": "Lluvias", "Año_del_evento": 2021, "Region": "Metropolitana"}}, {"type": "Feature", "geometry": {"type": "Point", "coordinates": [-70.14702175, -33.7386557299999]}, "properties": {"Codigo_de_la_remocion_en_masa": "RM-2021-04-014", "Tipo_de_remocion_en_masa": "Flujo", "Detonante": "Lluvias", "Año_del_evento": 2021, "Region": "Metropolitana"}}, {"type": "Feature", "geometry": {"type": "Point", "coordinates": [-70.14634776, -33.7383012399999]}, "properties": {"Codigo_de_la_remocion_en_masa": "RM-2021-04-015", "Tipo_de_remocion_en_masa": "Flujo", "Detonante": "Lluvias", "Año_del_evento": 2021, "Region": "Metropolitana"}}, {"type": "Feature", "geometry": {"type": "Point", "coordinates": [-70.1462686099999, -33.73803142]}, "properties": {"Codigo_de_la_remocion_en_masa": "RM-2021-04-016", "Tipo_de_remocion_en_masa": "Flujo", "Detonante": "Lluvias", "Año_del_evento": 2021, "Region": "Metropolitana"}}, {"type": "Feature", "geometry": {"type": "Point", "coordinates": [-70.14383893, -33.73634042]}, "properties": {"Codigo_de_la_remocion_en_masa": "RM-2021-04-017", "Tipo_de_remocion_en_masa": "Flujo", "Detonante": "Lluvias", "Año_del_evento": 2021, "Region": "Metropolitana"}}, {"type": "Feature", "geometry": {"type": "Point", "coordinates": [-70.14174632, -33.73482662]}, "properties": {"Codigo_de_la_remocion_en_masa": "RM-2021-04-018", "Tipo_de_remocion_en_masa": "Flujo", "Detonante": "Lluvias", "Año_del_evento": 2021, "Region": "Metropolitana"}}, {"type": "Feature", "geometry": {"type": "Point", "coordinates": [-70.14149688, -33.73473874]}, "properties": {"Codigo_de_la_remocion_en_masa": "RM-2021-04-019", "Tipo_de_remocion_en_masa": "Flujo", "Detonante": "Lluvias", "Año_del_evento": 2021, "Region": "Metropolitana"}}, {"type": "Feature", "geometry": {"type": "Point", "coordinates": [-70.14127023, -33.73474084]}, "properties": {"Codigo_de_la_remocion_en_masa": "RM-2021-04-020", "Tipo_de_remocion_en_masa": "Flujo", "Detonante": "Lluvias", "Año_del_evento": 2021, "Region": "Metropolitana"}}, {"type": "Feature", "geometry": {"type": "Point", "coordinates": [-70.14081334, -33.7344745]}, "properties": {"Codigo_de_la_remocion_en_masa": "RM-2021-04-021", "Tipo_de_remocion_en_masa": "Flujo", "Detonante": "Lluvias", "Año_del_evento": 2021, "Region": "Metropolitana"}}, {"type": "Feature", "geometry": {"type": "Point", "coordinates": [-70.14071382, -33.73429505]}, "properties": {"Codigo_de_la_remocion_en_masa": "RM-2021-04-022", "Tipo_de_remocion_en_masa": "Flujo", "Detonante": "Lluvias", "Año_del_evento": 2021, "Region": "Metropolitana"}}, {"type": "Feature", "geometry": {"type": "Point", "coordinates": [-70.14028102, -33.73258551]}, "properties": {"Codigo_de_la_remocion_en_masa": "RM-2021-04-023", "Tipo_de_remocion_en_masa": "Flujo", "Detonante": "Lluvias", "Año_del_evento": 2021, "Region": "Metropolitana"}}, {"type": "Feature", "geometry": {"type": "Point", "coordinates": [-70.13887684, -33.73169661]}, "properties": {"Codigo_de_la_remocion_en_masa": "RM-2021-04-024", "Tipo_de_remocion_en_masa": "Flujo", "Detonante": "Lluvias", "Año_del_evento": 2021, "Region": "Metropolitana"}}, {"type": "Feature", "geometry": {"type": "Point", "coordinates": [-70.11337551, -33.69612503]}, "properties": {"Codigo_de_la_remocion_en_masa": "RM-2021-04-025", "Tipo_de_remocion_en_masa": "Flujo", "Detonante": "Lluvias", "Año_del_evento": 2021, "Region": "Metropolitana"}}, {"type": "Feature", "geometry": {"type": "Point", "coordinates": [-70.0725727499999, -33.65644263]}, "properties": {"Codigo_de_la_remocion_en_masa": "RM-2021-04-026", "Tipo_de_remocion_en_masa": "Flujo", "Detonante": "Lluvias", "Año_del_evento": 2021, "Region": "Metropolitana"}}, {"type": "Feature", "geometry": {"type": "Point", "coordinates": [-70.0714497499999, -33.6554603]}, "properties": {"Codigo_de_la_remocion_en_masa": "RM-2021-04-027", "Tipo_de_remocion_en_masa": "Caída", "Detonante": "Lluvias", "Año_del_evento": 2021, "Region": "Metropolitana"}}, {"type": "Feature", "geometry": {"type": "Point", "coordinates": [-70.06272668, -33.6512065699999]}, "properties": {"Codigo_de_la_remocion_en_masa": "RM-2021-04-028", "Tipo_de_remocion_en_masa": "Caída", "Detonante": "Lluvias", "Año_del_evento": 2021, "Region": "Metropolitana"}}, {"type": "Feature", "geometry": {"type": "Point", "coordinates": [-70.00869865, -33.6253240199999]}, "properties": {"Codigo_de_la_remocion_en_masa": "RM-2021-04-029", "Tipo_de_remocion_en_masa": "Caída", "Detonante": "Lluvias", "Año_del_evento": 2021, "Region": "Metropolitana"}}, {"type": "Feature", "geometry": {"type": "Point", "coordinates": [-70.0300208099999, -33.62421932]}, "properties": {"Codigo_de_la_remocion_en_masa": "RM-2021-04-030", "Tipo_de_remocion_en_masa": "Flujo", "Detonante": "Lluvias", "Año_del_evento": 2021, "Region": "Metropolitana"}}, {"type": "Feature", "geometry": {"type": "Point", "coordinates": [-70.0293612199999, -33.62767905]}, "properties": {"Codigo_de_la_remocion_en_masa": "RM-2021-04-031", "Tipo_de_remocion_en_masa": "Flujo", "Detonante": "Lluvias", "Año_del_evento": 2021, "Region": "Metropolitana"}}, {"type": "Feature", "geometry": {"type": "Point", "coordinates": [-70.19171782, -33.7850835899999]}, "properties": {"Codigo_de_la_remocion_en_masa": "RM-2021-04-032", "Tipo_de_remocion_en_masa": "Flujo", "Detonante": "Lluvias", "Año_del_evento": 2021, "Region": "Metropolitana"}}, {"type": "Feature", "geometry": {"type": "Point", "coordinates": [-70.1978069099999, -33.7841317899999]}, "properties": {"Codigo_de_la_remocion_en_masa": "RM-2021-04-033", "Tipo_de_remocion_en_masa": "Flujo", "Detonante": "Lluvias", "Año_del_evento": 2021, "Region": "Metropolitana"}}, {"type": "Feature", "geometry": {"type": "Point", "coordinates": [-70.19959805, -33.7847817599999]}, "properties": {"Codigo_de_la_remocion_en_masa": "RM-2021-04-034", "Tipo_de_remocion_en_masa": "Flujo", "Detonante": "Lluvias", "Año_del_evento": 2021, "Region": "Metropolitana"}}, {"type": "Feature", "geometry": {"type": "Point", "coordinates": [-70.2011668, -33.78806725]}, "properties": {"Codigo_de_la_remocion_en_masa": "RM-2021-04-035", "Tipo_de_remocion_en_masa": "Flujo", "Detonante": "Lluvias", "Año_del_evento": 2021, "Region": "Metropolitana"}}, {"type": "Feature", "geometry": {"type": "Point", "coordinates": [-70.21164584, -33.7882172999999]}, "properties": {"Codigo_de_la_remocion_en_masa": "RM-2021-04-036", "Tipo_de_remocion_en_masa": "Flujo", "Detonante": "Lluvias", "Año_del_evento": 2021, "Region": "Metropolitana"}}, {"type": "Feature", "geometry": {"type": "Point", "coordinates": [-70.2132775599999, -33.7875068399999]}, "properties": {"Codigo_de_la_remocion_en_masa": "RM-2021-04-037", "Tipo_de_remocion_en_masa": "Flujo", "Detonante": "Lluvias", "Año_del_evento": 2021, "Region": "Metropolitana"}}, {"type": "Feature", "geometry": {"type": "Point", "coordinates": [-70.2145057399999, -33.78652077]}, "properties": {"Codigo_de_la_remocion_en_masa": "RM-2021-04-038", "Tipo_de_remocion_en_masa": "Flujo", "Detonante": "Lluvias", "Año_del_evento": 2021, "Region": "Metropolitana"}}, {"type": "Feature", "geometry": {"type": "Point", "coordinates": [-70.0448440499999, -33.48552731]}, "properties": {"Codigo_de_la_remocion_en_masa": "RM-2021-05-001", "Tipo_de_remocion_en_masa": "Flujo", "Detonante": "Deshielo", "Año_del_evento": 2021, "Region": "Metropolitana"}}, {"type": "Feature", "geometry": {"type": "Point", "coordinates": [-70.44398596, -33.3699856499999]}, "properties": {"Codigo_de_la_remocion_en_masa": "RM-2021-06-001", "Tipo_de_remocion_en_masa": "Flujo", "Detonante": "Lluvias", "Año_del_evento": 2021, "Region": "Metropolitana"}}, {"type": "Feature", "geometry": {"type": "Point", "coordinates": [-70.43587145, -33.37002568]}, "properties": {"Codigo_de_la_remocion_en_masa": "RM-2021-06-002", "Tipo_de_remocion_en_masa": "Flujo", "Detonante": "Lluvias", "Año_del_evento": 2021, "Region": "Metropolitana"}}, {"type": "Feature", "geometry": {"type": "Point", "coordinates": [-70.43297841, -33.3699238299999]}, "properties": {"Codigo_de_la_remocion_en_masa": "RM-2021-06-003", "Tipo_de_remocion_en_masa": "Flujo", "Detonante": "Lluvias", "Año_del_evento": 2021, "Region": "Metropolitana"}}, {"type": "Feature", "geometry": {"type": "Point", "coordinates": [-70.42892767, -33.36869889]}, "properties": {"Codigo_de_la_remocion_en_masa": "RM-2021-06-004", "Tipo_de_remocion_en_masa": "Flujo", "Detonante": "Lluvias", "Año_del_evento": 2021, "Region": "Metropolitana"}}, {"type": "Feature", "geometry": {"type": "Point", "coordinates": [-70.4162321699999, -33.36860089]}, "properties": {"Codigo_de_la_remocion_en_masa": "RM-2021-06-005", "Tipo_de_remocion_en_masa": "Flujo", "Detonante": "Lluvias", "Año_del_evento": 2021, "Region": "Metropolitana"}}, {"type": "Feature", "geometry": {"type": "Point", "coordinates": [-70.41382283, -33.3691604599999]}, "properties": {"Codigo_de_la_remocion_en_masa": "RM-2021-06-006", "Tipo_de_remocion_en_masa": "Flujo", "Detonante": "Lluvias", "Año_del_evento": 2021, "Region": "Metropolitana"}}, {"type": "Feature", "geometry": {"type": "Point", "coordinates": [-70.41151465, -33.36933103]}, "properties": {"Codigo_de_la_remocion_en_masa": "RM-2021-06-007", "Tipo_de_remocion_en_masa": "Flujo", "Detonante": "Lluvias", "Año_del_evento": 2021, "Region": "Metropolitana"}}, {"type": "Feature", "geometry": {"type": "Point", "coordinates": [-70.38640005, -33.3642118399999]}, "properties": {"Codigo_de_la_remocion_en_masa": "RM-2021-06-008", "Tipo_de_remocion_en_masa": "Flujo", "Detonante": "Lluvias", "Año_del_evento": 2021, "Region": "Metropolitana"}}, {"type": "Feature", "geometry": {"type": "Point", "coordinates": [-70.3855968399999, -33.3637157599999]}, "properties": {"Codigo_de_la_remocion_en_masa": "RM-2021-06-009", "Tipo_de_remocion_en_masa": "Flujo", "Detonante": "Lluvias", "Año_del_evento": 2021, "Region": "Metropolitana"}}, {"type": "Feature", "geometry": {"type": "Point", "coordinates": [-70.36342508, -33.33897905]}, "properties": {"Codigo_de_la_remocion_en_masa": "RM-2021-06-010", "Tipo_de_remocion_en_masa": "Flujo", "Detonante": "Lluvias", "Año_del_evento": 2021, "Region": "Metropolitana"}}, {"type": "Feature", "geometry": {"type": "Point", "coordinates": [-70.36439941, -33.3394463399999]}, "properties": {"Codigo_de_la_remocion_en_masa": "RM-2021-06-011", "Tipo_de_remocion_en_masa": "Flujo", "Detonante": "Lluvias", "Año_del_evento": 2021, "Region": "Metropolitana"}}, {"type": "Feature", "geometry": {"type": "Point", "coordinates": [-70.3651181499999, -33.3503873399999]}, "properties": {"Codigo_de_la_remocion_en_masa": "RM-2021-06-012", "Tipo_de_remocion_en_masa": "Flujo", "Detonante": "Lluvias", "Año_del_evento": 2021, "Region": "Metropolitana"}}, {"type": "Feature", "geometry": {"type": "Point", "coordinates": [-70.36593004, -33.35076622]}, "properties": {"Codigo_de_la_remocion_en_masa": "RM-2021-06-013", "Tipo_de_remocion_en_masa": "Flujo", "Detonante": "Lluvias", "Año_del_evento": 2021, "Region": "Metropolitana"}}, {"type": "Feature", "geometry": {"type": "Point", "coordinates": [-70.36609107, -33.3507554299999]}, "properties": {"Codigo_de_la_remocion_en_masa": "RM-2021-06-014", "Tipo_de_remocion_en_masa": "Flujo", "Detonante": "Lluvias", "Año_del_evento": 2021, "Region": "Metropolitana"}}, {"type": "Feature", "geometry": {"type": "Point", "coordinates": [-70.36903907, -33.35441166]}, "properties": {"Codigo_de_la_remocion_en_masa": "RM-2021-06-015", "Tipo_de_remocion_en_masa": "Flujo", "Detonante": "Lluvias", "Año_del_evento": 2021, "Region": "Metropolitana"}}, {"type": "Feature", "geometry": {"type": "Point", "coordinates": [-70.37871032, -33.3604915499999]}, "properties": {"Codigo_de_la_remocion_en_masa": "RM-2021-06-016", "Tipo_de_remocion_en_masa": "Flujo", "Detonante": "Lluvias", "Año_del_evento": 2021, "Region": "Metropolitana"}}, {"type": "Feature", "geometry": {"type": "Point", "coordinates": [-70.38272746, -33.36237689]}, "properties": {"Codigo_de_la_remocion_en_masa": "RM-2021-06-017", "Tipo_de_remocion_en_masa": "Flujo", "Detonante": "Lluvias", "Año_del_evento": 2021, "Region": "Metropolitana"}}, {"type": "Feature", "geometry": {"type": "Point", "coordinates": [-70.4613775399999, -33.34429528]}, "properties": {"Codigo_de_la_remocion_en_masa": "RM-2021-06-018", "Tipo_de_remocion_en_masa": "Flujo", "Detonante": "Lluvias", "Año_del_evento": 2021, "Region": "Metropolitana"}}, {"type": "Feature", "geometry": {"type": "Point", "coordinates": [-70.4707948399999, -33.34072091]}, "properties": {"Codigo_de_la_remocion_en_masa": "RM-2021-06-019", "Tipo_de_remocion_en_masa": "Flujo", "Detonante": "Lluvias", "Año_del_evento": 2021, "Region": "Metropolitana"}}, {"type": "Feature", "geometry": {"type": "Point", "coordinates": [-70.2906199999999, -33.742694]}, "properties": {"Codigo_de_la_remocion_en_masa": "RM-2021-17-001", "Tipo_de_remocion_en_masa": "Flujo", "Detonante": "Lluvias", "Año_del_evento": 2021, "Region": "Metropolitana"}}, {"type": "Feature", "geometry": {"type": "Point", "coordinates": [-70.318, -33.7261999999999]}, "properties": {"Codigo_de_la_remocion_en_masa": "RM-2021-27-001", "Tipo_de_remocion_en_masa": "Flujo", "Detonante": "Lluvias", "Año_del_evento": 2021, "Region": "Metropolitana"}}, {"type": "Feature", "geometry": {"type": "Point", "coordinates": [-70.3217, -33.7245]}, "properties": {"Codigo_de_la_remocion_en_masa": "RM-2021-27-002", "Tipo_de_remocion_en_masa": "Flujo", "Detonante": "Lluvias", "Año_del_evento": 2021, "Region": "Metropolitana"}}, {"type": "Feature", "geometry": {"type": "Point", "coordinates": [-70.3144, -33.7277]}, "properties": {"Codigo_de_la_remocion_en_masa": "RM-2021-27-003", "Tipo_de_remocion_en_masa": "Flujo", "Detonante": "Lluvias", "Año_del_evento": 2021, "Region": "Metropolitana"}}, {"type": "Feature", "geometry": {"type": "Point", "coordinates": [-70.3183, -33.7239]}, "properties": {"Codigo_de_la_remocion_en_masa": "RM-2021-27-004", "Tipo_de_remocion_en_masa": "Flujo", "Detonante": "Lluvias", "Año_del_evento": 2021, "Region": "Metropolitana"}}, {"type": "Feature", "geometry": {"type": "Point", "coordinates": [-70.3115, -33.7302]}, "properties": {"Codigo_de_la_remocion_en_masa": "RM-2021-27-005", "Tipo_de_remocion_en_masa": "Flujo", "Detonante": "Lluvias", "Año_del_evento": 2021, "Region": "Metropolitana"}}, {"type": "Feature", "geometry": {"type": "Point", "coordinates": [-70.3059, -33.7307999999999]}, "properties": {"Codigo_de_la_remocion_en_masa": "RM-2021-27-006", "Tipo_de_remocion_en_masa": "Flujo", "Detonante": "Lluvias", "Año_del_evento": 2021, "Region": "Metropolitana"}}, {"type": "Feature", "geometry": {"type": "Point", "coordinates": [-70.2972, -33.732]}, "properties": {"Codigo_de_la_remocion_en_masa": "RM-2021-27-007", "Tipo_de_remocion_en_masa": "Flujo", "Detonante": "Lluvias", "Año_del_evento": 2021, "Region": "Metropolitana"}}, {"type": "Feature", "geometry": {"type": "Point", "coordinates": [-70.2977, -33.7361]}, "properties": {"Codigo_de_la_remocion_en_masa": "RM-2021-27-008", "Tipo_de_remocion_en_masa": "Flujo", "Detonante": "Lluvias", "Año_del_evento": 2021, "Region": "Metropolitana"}}, {"type": "Feature", "geometry": {"type": "Point", "coordinates": [-70.3464999999999, -33.6453999999999]}, "properties": {"Codigo_de_la_remocion_en_masa": "RM-2021-27-009", "Tipo_de_remocion_en_masa": "Flujo", "Detonante": "Lluvias", "Año_del_evento": 2021, "Region": "Metropolitana"}}, {"type": "Feature", "geometry": {"type": "Point", "coordinates": [-70.3448, -33.6412999999999]}, "properties": {"Codigo_de_la_remocion_en_masa": "RM-2021-27-010", "Tipo_de_remocion_en_masa": "Flujo", "Detonante": "Lluvias", "Año_del_evento": 2021, "Region": "Metropolitana"}}, {"type": "Feature", "geometry": {"type": "Point", "coordinates": [-70.3448999999999, -33.6407999999999]}, "properties": {"Codigo_de_la_remocion_en_masa": "RM-2021-27-011", "Tipo_de_remocion_en_masa": "Flujo", "Detonante": "Lluvias", "Año_del_evento": 2021, "Region": "Metropolitana"}}, {"type": "Feature", "geometry": {"type": "Point", "coordinates": [-70.3453, -33.6433999999999]}, "properties": {"Codigo_de_la_remocion_en_masa": "RM-2021-27-012", "Tipo_de_remocion_en_masa": "Flujo", "Detonante": "Lluvias", "Año_del_evento": 2021, "Region": "Metropolitana"}}, {"type": "Feature", "geometry": {"type": "Point", "coordinates": [-70.3461, -33.6476]}, "properties": {"Codigo_de_la_remocion_en_masa": "RM-2021-27-013", "Tipo_de_remocion_en_masa": "Flujo", "Detonante": "Lluvias", "Año_del_evento": 2021, "Region": "Metropolitana"}}, {"type": "Feature", "geometry": {"type": "Point", "coordinates": [-70.3464999999999, -33.6425]}, "properties": {"Codigo_de_la_remocion_en_masa": "RM-2021-27-014", "Tipo_de_remocion_en_masa": "Flujo", "Detonante": "Lluvias", "Año_del_evento": 2021, "Region": "Metropolitana"}}, {"type": "Feature", "geometry": {"type": "Point", "coordinates": [-70.3436, -33.6426]}, "properties": {"Codigo_de_la_remocion_en_masa": "RM-2021-27-015", "Tipo_de_remocion_en_masa": "Flujo", "Detonante": "Lluvias", "Año_del_evento": 2021, "Region": "Metropolitana"}}]}