{"type": "FeatureCollection", "features": [{"type": "Feature", "geometry": {"type": "Polygon", "coordinates": [[[-70.8147598319999, -33.2345769321345], [-70.8148937519999, -33.2346550381345], [-70.8148560529999, -33.2346980461345], [-70.8149182759999, -33.2346901471345], [-70.8153361429999, -33.2349576121346], [-70.8162584159999, -33.2355479351345], [-70.8162659609999, -33.2355527641345], [-70.8163893109999, -33.2356181021345], [-70.8163897039999, -33.2356183101346], [-70.8164221659999, -33.2356355051345], [-70.8164228619999, -33.2356358931345], [-70.8164252739999, -33.2356372261345], [-70.8167414619999, -33.2358046561345], [-70.8171786599999, -33.2360361631345], [-70.8171803369999, -33.2360371481345], [-70.8173498729999, -33.2361471981345], [-70.8173505479999, -33.2361476551346], [-70.8173531929999, -33.2361498781345], [-70.8173553389999, -33.2361524531345], [-70.8173569189999, -33.2361553011345], [-70.8173578869999, -33.2361583381346], [-70.8173582129999, -33.2361614691346], [-70.8173578869999, -33.2361646001345], [-70.8173569189999, -33.2361676371345], [-70.8173553389999, -33.2361704851345], [-70.8173531929999, -33.2361730601345], [-70.8173505479999, -33.2361752831346], [-70.8173474839999, -33.2361770861345], [-70.8173440939999, -33.2361784141345], [-70.8173404809999, -33.2361792281345], [-70.8173367549999, -33.2361795021345], [-70.8173330289999, -33.2361792281345], [-70.817329416, -33.2361784141345], [-70.8173260259999, -33.2361770861345], [-70.8173236369999, -33.2361757401346], [-70.8171549109999, -33.2360662161345], [-70.8167592439999, -33.2358566561346], [-70.8164167549999, -33.2356752621345], [-70.8159084189999, -33.2362466251345], [-70.8159076709999, -33.2362474181345], [-70.8159050259999, -33.2362496411345], [-70.8159019619999, -33.2362514441345], [-70.8158985719999, -33.2362527721345], [-70.8158949589999, -33.2362535861345], [-70.8158912329999, -33.2362538601345], [-70.8158875069999, -33.2362535861345], [-70.8158838939999, -33.2362527721345], [-70.8158805039999, -33.2362514441345], [-70.81587744, -33.2362496411345], [-70.8158747949999, -33.2362474181345], [-70.8158726489999, -33.2362448431345], [-70.8158710689999, -33.2362419951345], [-70.8158701009999, -33.2362389581345], [-70.815869775, -33.2362358271345], [-70.8158701009999, -33.2362326961345], [-70.8158710689999, -33.2362296591345], [-70.8158726489999, -33.2362268111345], [-70.8158740469999, -33.2362250291346], [-70.8163803319999, -33.2356559711345], [-70.8162422689999, -33.2355828471345], [-70.816240708, -33.2355819371346], [-70.8161895089999, -33.2355491661345], [-70.8156774009999, -33.2352213841345], [-70.8156537279999, -33.2352089141346], [-70.8156398689999, -33.2352065371346], [-70.8156275959999, -33.2352067171345], [-70.8155789399999, -33.2352595771346], [-70.8154786199999, -33.2353742821346], [-70.8149659589999, -33.2359604531346], [-70.8145466689999, -33.2365414851345], [-70.8145053339999, -33.2366337781345], [-70.8144733829999, -33.2367595711345], [-70.8144373019999, -33.2369491741345], [-70.8143841629999, -33.2370868071345], [-70.8143201739999, -33.2371815241345], [-70.8142714889999, -33.2372490971345], [-70.8142586479999, -33.2372770501345], [-70.8142625409999, -33.2372892331345], [-70.8142635699999, -33.2372924531345], [-70.814352218, -33.2373412491345], [-70.8143674359999, -33.2373500761345], [-70.8145705549999, -33.2374678921345], [-70.8150062249999, -33.2377205971345], [-70.815006664, -33.2377208591345], [-70.815045413, -33.2377445641346], [-70.8151225319999, -33.2377944401345], [-70.8151286639999, -33.2377954921345], [-70.8151502519999, -33.2377991941345], [-70.8151686599999, -33.2377989251345], [-70.8151819449999, -33.2377872801345], [-70.8156387139999, -33.2372508541345], [-70.8158590669999, -33.2369941721345], [-70.8159714059999, -33.2368410511345], [-70.815986457, -33.2368202031345], [-70.8159870599999, -33.2368165891345], [-70.8159869849999, -33.2368129851345], [-70.8159855719999, -33.2368101591345], [-70.8159832559999, -33.2368073471346], [-70.8159724229999, -33.2368011871345], [-70.8159330199999, -33.2367825161345], [-70.8159320959999, -33.2367820521346], [-70.8159315449999, -33.2367817491345], [-70.8158445409999, -33.2367323291345], [-70.8158421199999, -33.2367307301345], [-70.8158395869999, -33.2367284231345], [-70.815839175, -33.2367279601345], [-70.8157948259999, -33.2366764021345], [-70.8157932199999, -33.2366742241345], [-70.8157923449999, -33.2366726411345], [-70.8157550729999, -33.2365956881345], [-70.8156658839999, -33.2365144751345], [-70.8155463489999, -33.2364521071345], [-70.8154303339999, -33.2364243951345], [-70.8152984739999, -33.2364268711345], [-70.8150814599999, -33.2364515661345], [-70.8150777269999, -33.2364517141345], [-70.8150757109999, -33.2364158791345], [-70.815293918, -33.2363910481345], [-70.8152963129999, -33.2363908901345], [-70.8154326059999, -33.2363883311345], [-70.8154339439999, -33.2363883411345], [-70.8154376479999, -33.2363887401345], [-70.8154389429999, -33.2363890131346], [-70.8155609559999, -33.2364181571345], [-70.8155632269999, -33.2364188171345], [-70.8155663999999, -33.2364201791345], [-70.8156910319999, -33.2364852081345], [-70.8156940769999, -33.2364871481345], [-70.8156954029999, -33.2364882551345], [-70.8157891999999, -33.2365736631345], [-70.815790407, -33.2365748631345], [-70.8157924249999, -33.2365775041346], [-70.8157932999999, -33.2365790871345], [-70.8158310659999, -33.2366570591345], [-70.8158716819999, -33.2367042781345], [-70.8159548239999, -33.2367515051345], [-70.8161239809999, -33.2368316601345], [-70.8163599399999, -33.2369246701345], [-70.8165518549999, -33.2369737221345], [-70.8165625729999, -33.2369799371345], [-70.8165663919999, -33.2369868151345], [-70.8165798299999, -33.2370110141345], [-70.8165315999999, -33.2370957271345], [-70.816282929, -33.2373763921345], [-70.8158750629999, -33.2378303641345], [-70.8157949689999, -33.2379190981345], [-70.8158930279999, -33.2379294911345], [-70.8160628249999, -33.2377378541345], [-70.8161073199999, -33.2376876351345], [-70.8162495829999, -33.2375270761345], [-70.8167196839999, -33.2369965061345], [-70.8169906629999, -33.2366906701345], [-70.8169906359999, -33.2366906551346], [-70.8176047499999, -33.2359975191346], [-70.8165809119999, -33.2353351481345], [-70.8165015879999, -33.2352838291346], [-70.8151483069999, -33.2344082941346], [-70.8150542879999, -33.2343474661345], [-70.8147598319999, -33.2345769321345]]]}, "properties": {"MANZENT": 13302031002010, "LOCALIDAD": "BATUCO", "ENTIDAD": "BATUCO", "CATEGORIA": "Ciudad", "n_per": 238, "n_hombres": 130, "n_mujeres": 108, "prom_edad": 26.4, "n_hog": 66, "n_vp": 83, "n_vp_ocupada": 80, "n_deficit_cuantitativo": 2, "n_viv_hacinadas": 13, "n_serv_hig_alc_dentro": 7, "n_fuente_agua_publica": 2, "n_fuente_agua_pozo": 53, "n_transporte_publico": 46, "n_transporte_auto": 21, "n_internet": 64}}, {"type": "Feature", "geometry": {"type": "Polygon", "coordinates": [[[-70.8176047719999, -33.2359975331345], [-70.817595906, -33.2360075501345], [-70.8175859439999, -33.2360187941346], [-70.8178007919999, -33.2360655041346], [-70.8183899229999, -33.2361935781345], [-70.8184277079999, -33.2361125051345], [-70.818428105, -33.2361117241345], [-70.8184980739999, -33.2359829601345], [-70.8184995109999, -33.2359807431345], [-70.8185978619999, -33.2358528551346], [-70.8185987879999, -33.2358517461345], [-70.8187178789999, -33.2357198251345], [-70.8183872239999, -33.2355404981345], [-70.8183988599999, -33.2355253461345], [-70.8184104959999, -33.2355101941345], [-70.8187438929999, -33.2356910081345], [-70.8189953749999, -33.2354124321345], [-70.8190266079999, -33.2353748271345], [-70.8187269359999, -33.2352158981345], [-70.8187239579999, -33.2352139931345], [-70.8187214249999, -33.2352116871346], [-70.8187194069999, -33.2352090461346], [-70.8187465059999, -33.2351840141345], [-70.8187498119999, -33.2351854461346], [-70.8190511609999, -33.2353452641345], [-70.8192355289999, -33.2351232791345], [-70.8192552979999, -33.2350961081345], [-70.8189504509999, -33.2349569741345], [-70.8189492289999, -33.2349563721345], [-70.8189462579999, -33.2349544701345], [-70.8189709029999, -33.2349253281345], [-70.8192776809999, -33.2350653431345], [-70.8194553669999, -33.2348211201346], [-70.8194562439999, -33.2348201441346], [-70.8194933879999, -33.2348374571345], [-70.8194918429999, -33.2348400191345], [-70.8193153429999, -33.2350826131345], [-70.8200088659999, -33.2354019781345], [-70.8201338039999, -33.2352415411345], [-70.8201337799999, -33.2352415211345], [-70.8201492199999, -33.2352216941346], [-70.8200901469999, -33.2351682441346], [-70.8200427359999, -33.2351322441345], [-70.8199951729999, -33.2350961291345], [-70.8200017569999, -33.2350877141345], [-70.8200071029999, -33.2350808821345], [-70.8200190329999, -33.2350656361346], [-70.8202106689999, -33.2352171841346], [-70.8203559389999, -33.2354269651345], [-70.8203988679999, -33.2354889571345], [-70.8206540879999, -33.2352641511346], [-70.8206696139999, -33.2352766001346], [-70.8206851399999, -33.2352890481345], [-70.8204213419999, -33.2355214111345], [-70.8204241259999, -33.2355254321345], [-70.8204531409999, -33.2355673301345], [-70.8205571119999, -33.2357196301345], [-70.8205891899999, -33.2357666181346], [-70.8210031599999, -33.2355195481346], [-70.8210155859999, -33.2355342511345], [-70.8210280119999, -33.2355489541346], [-70.8206106479999, -33.2357980501345], [-70.8206913539999, -33.2359162701345], [-70.8207456499999, -33.2359958031345], [-70.8207820149999, -33.2360525921345], [-70.8213991449999, -33.2356400561346], [-70.8214125039999, -33.2356541691345], [-70.8214258629999, -33.2356682821346], [-70.8208026799999, -33.2360848641346], [-70.8208119569999, -33.2360993511345], [-70.8208994069999, -33.2362359181345], [-70.8210160619999, -33.2363675651346], [-70.8211680369999, -33.2364917271345], [-70.8212481549999, -33.2365737941345], [-70.8213653339999, -33.2367196891345], [-70.8213315079999, -33.2367640121345], [-70.8212433559999, -33.2367297861345], [-70.8209261079999, -33.2365935431345], [-70.8209244599999, -33.2365927561345], [-70.8204840349999, -33.2363602321345], [-70.8203364659999, -33.2366754911345], [-70.8203302389999, -33.2367108891345], [-70.8210519779999, -33.2370473911345], [-70.8211124489999, -33.2370755851345], [-70.8211500549999, -33.2370931181345], [-70.8212083299999, -33.2371202881345], [-70.8212974469999, -33.2371618371345], [-70.8213399959999, -33.2371816751345], [-70.8213401899999, -33.2371817711345], [-70.8214194759999, -33.2370646391345], [-70.8214785529999, -33.2369773641345], [-70.821480903, -33.2369738921345], [-70.8215253509999, -33.2369082281345], [-70.8217552739999, -33.2365685551346], [-70.8218233019999, -33.2364680551345], [-70.8222953939999, -33.2357706151345], [-70.8202954229999, -33.2350409131345], [-70.8194361319999, -33.2347273961345], [-70.8189025679999, -33.2345327221345], [-70.8181615999999, -33.2353690411345], [-70.817919705, -33.2356420821345], [-70.8178252459999, -33.2357486981345], [-70.8176047719999, -33.2359975331345]]]}, "properties": {"MANZENT": 13302031002011, "LOCALIDAD": "BATUCO", "ENTIDAD": "BATUCO", "CATEGORIA": "Ciudad", "n_per": 233, "n_hombres": 125, "n_mujeres": 108, "prom_edad": 28.6, "n_hog": 78, "n_vp": 105, "n_vp_ocupada": 102, "n_deficit_cuantitativo": 7, "n_viv_hacinadas": 17, "n_serv_hig_alc_dentro": 12, "n_fuente_agua_publica": 1, "n_fuente_agua_pozo": 68, "n_transporte_publico": 60, "n_transporte_auto": 16, "n_internet": 76}}, {"type": "Feature", "geometry": {"type": "Polygon", "coordinates": [[[-70.8142307709999, -33.2372359751345], [-70.8142829139999, -33.2371636011346], [-70.8142833709999, -33.2371629461345], [-70.8143431489999, -33.2370744611345], [-70.8143456039999, -33.2370698041345], [-70.8143946759999, -33.2369427101345], [-70.8143958439999, -33.2369386331345], [-70.8144311799999, -33.2367529621346], [-70.8144638219999, -33.2366242511346], [-70.8144639779999, -33.2366237651345], [-70.8144642109999, -33.2366231561345], [-70.8145069109999, -33.2365277761345], [-70.8145071279999, -33.2365273541345], [-70.814507439, -33.2365268361345], [-70.8145619769999, -33.2364507141345], [-70.814929876, -33.2359408981346], [-70.8149306689999, -33.2359399031345], [-70.8154636489999, -33.2353305001345], [-70.8155828049999, -33.2351942581345], [-70.8155838449999, -33.2351930151345], [-70.8155848, -33.2351917061346], [-70.8155856659999, -33.2351903371345], [-70.8155864389999, -33.2351889121346], [-70.8155871139999, -33.2351874401346], [-70.8155876909999, -33.2351859251345], [-70.815588165, -33.2351843761345], [-70.8155885349999, -33.2351827981345], [-70.8155887989999, -33.2351811991346], [-70.8155889559999, -33.2351795861346], [-70.8155890049999, -33.2351779671345], [-70.8155889459999, -33.2351763471345], [-70.8155887789999, -33.2351747361345], [-70.8155885049999, -33.2351731381345], [-70.8155881259999, -33.2351715631345], [-70.8155876419999, -33.2351700161345], [-70.8155870569999, -33.2351685061345], [-70.8155863719999, -33.2351670371345], [-70.8155855909999, -33.2351656171346], [-70.8155847169999, -33.2351642531345], [-70.8155837539999, -33.2351629501346], [-70.8155827059999, -33.2351617141346], [-70.8155815779999, -33.2351605501345], [-70.8155803749999, -33.2351594641346], [-70.8155791029999, -33.2351584611345], [-70.8155777669999, -33.2351575441346], [-70.815576372, -33.2351567191345], [-70.8153559919999, -33.2350156581346], [-70.8149175629999, -33.2347350291345], [-70.8149155679999, -33.2347338741345], [-70.8149135039999, -33.2347328471345], [-70.8149113799999, -33.2347319501346], [-70.8149092039999, -33.2347311881346], [-70.8149069849999, -33.2347305631345], [-70.8149047309999, -33.2347300791345], [-70.8149024509999, -33.2347297361346], [-70.8149001539999, -33.2347295361345], [-70.8148978489999, -33.2347294801346], [-70.8148955459999, -33.2347295691346], [-70.8148932519999, -33.2347298011346], [-70.8148592269999, -33.2347341201345], [-70.8148569979999, -33.2347344541345], [-70.8148547959999, -33.2347349321345], [-70.8148526299999, -33.2347355521346], [-70.8148505079999, -33.2347363121346], [-70.8148484409999, -33.2347372081346], [-70.8148464359999, -33.2347382371345], [-70.8148445019999, -33.2347393951346], [-70.8148426479999, -33.2347406751346], [-70.814840881, -33.2347420741346], [-70.8147588329999, -33.2348134631346], [-70.8147569729999, -33.2348152311345], [-70.8147554719999, -33.2348169181345], [-70.8145638119999, -33.2350508941345], [-70.8143815179999, -33.2352701151345], [-70.8143810059999, -33.2352705051346], [-70.8143805599999, -33.2352708091345], [-70.8142076789999, -33.2353464931346], [-70.8142068859999, -33.2353467901345], [-70.814046474, -33.2353917181346], [-70.8140442429999, -33.2353924071345], [-70.8140420669999, -33.2353932521345], [-70.8140399549999, -33.2353942481345], [-70.8140379179999, -33.2353953901345], [-70.8140359679999, -33.2353966731346], [-70.8140341119999, -33.2353980911345], [-70.8140323609999, -33.2353996351346], [-70.8140057319999, -33.2354253841346], [-70.8140045149999, -33.2354266211345], [-70.8140033829999, -33.2354279371345], [-70.8140023399999, -33.2354293251345], [-70.8140013929999, -33.2354307791346], [-70.8140005429999, -33.2354322921345], [-70.8139997959999, -33.2354338591346], [-70.8139991549999, -33.2354354721345], [-70.8136769579999, -33.2363530371345], [-70.8136767499999, -33.2363536551345], [-70.8135362189999, -33.2367918921345], [-70.8135355069999, -33.2367946971345], [-70.8135351129999, -33.2367992921345], [-70.813535365, -33.2368151291345], [-70.8135359519999, -33.2368198731345], [-70.8135361419999, -33.2368206331345], [-70.8135390319999, -33.2368314631345], [-70.8135398359999, -33.2368339251345], [-70.8135468789999, -33.2368520871345], [-70.8135473999999, -33.2368533181345], [-70.8135479829999, -33.2368545201345], [-70.8135486279999, -33.2368556911345], [-70.8135493329999, -33.2368568261345], [-70.8135500949999, -33.2368579241345], [-70.8135509129999, -33.2368589811345], [-70.8135517839999, -33.2368599941345], [-70.8135683629999, -33.2368784681345], [-70.8135692699999, -33.2368794271345], [-70.8135702179999, -33.2368803471345], [-70.8135712039999, -33.2368812241345], [-70.8135722279999, -33.2368820571345], [-70.8135732869999, -33.2368828461345], [-70.8135743799999, -33.2368835871345], [-70.8135755029999, -33.2368842811345], [-70.8139223179999, -33.2370899641345], [-70.8140060899999, -33.2371396461345], [-70.8140684819999, -33.2371766121345], [-70.8140703389999, -33.2371777491345], [-70.8140731099999, -33.2371792781345], [-70.8141849499999, -33.2372442271345], [-70.81418672, -33.2372451771345], [-70.8141885409999, -33.2372460261345], [-70.8141904059999, -33.2372467721345], [-70.8141923109999, -33.2372474121345], [-70.8141942479999, -33.2372479451345], [-70.8141962119999, -33.2372483691345], [-70.8141981959999, -33.2372486821345], [-70.8142006209999, -33.2372489781346], [-70.8142030599999, -33.2372491021345], [-70.8142055029999, -33.2372490541345], [-70.8142079349999, -33.2372488341345], [-70.8142103469999, -33.2372484441345], [-70.8142127239999, -33.2372478851345], [-70.8142150569999, -33.2372471591345], [-70.8142173329999, -33.2372462721345], [-70.81421954, -33.2372452261345], [-70.8142216689999, -33.2372440271345], [-70.8142237069999, -33.2372426821345], [-70.8142256459999, -33.2372411961345], [-70.8142274759999, -33.2372395781345], [-70.8142291869999, -33.2372378341345], [-70.8142307709999, -33.2372359751345]]]}, "properties": {"MANZENT": 13302031002013, "LOCALIDAD": "BATUCO", "ENTIDAD": "BATUCO", "CATEGORIA": "Ciudad", "n_per": 72, "n_hombres": 33, "n_mujeres": 39, "prom_edad": 26.5, "n_hog": 17, "n_vp": 24, "n_vp_ocupada": 23, "n_deficit_cuantitativo": 4, "n_viv_hacinadas": 5, "n_serv_hig_alc_dentro": 5, "n_fuente_agua_publica": 1, "n_fuente_agua_pozo": 15, "n_transporte_publico": 13, "n_transporte_auto": 7, "n_internet": 15}}, {"type": "Feature", "geometry": {"type": "Polygon", "coordinates": [[[-70.8189612649999, -33.2355098021346], [-70.8191356919999, -33.2356083241345], [-70.8194716869999, -33.2351956741346], [-70.8192929639999, -33.2351133721345], [-70.819271667, -33.2351426441346], [-70.8192710409999, -33.2351434431345], [-70.8190302719999, -33.2354333371346], [-70.8190297719999, -33.2354339141345], [-70.8189612649999, -33.2355098021346]]]}, "properties": {"MANZENT": 13302031002018, "LOCALIDAD": "BATUCO", "ENTIDAD": "BATUCO", "CATEGORIA": "Ciudad", "n_per": 17, "n_hombres": 8, "n_mujeres": 9, "prom_edad": 30.6, "n_hog": 6, "n_vp": 6, "n_vp_ocupada": 6, "n_deficit_cuantitativo": 0, "n_viv_hacinadas": 1, "n_serv_hig_alc_dentro": 1, "n_fuente_agua_publica": 0, "n_fuente_agua_pozo": 4, "n_transporte_publico": 2, "n_transporte_auto": 3, "n_internet": 4}}, {"type": "Feature", "geometry": {"type": "Polygon", "coordinates": [[[-70.8191712589999, -33.2356284141346], [-70.8196305219999, -33.2358878191345], [-70.8199853279999, -33.2354322041346], [-70.8195094519999, -33.2352130651345], [-70.8191712589999, -33.2356284141346]]]}, "properties": {"MANZENT": 13302031002020, "LOCALIDAD": "BATUCO", "ENTIDAD": "BATUCO", "CATEGORIA": "Ciudad", "n_per": 20, "n_hombres": 8, "n_mujeres": 12, "prom_edad": 30.8, "n_hog": 7, "n_vp": 8, "n_vp_ocupada": 8, "n_deficit_cuantitativo": 1, "n_viv_hacinadas": 2, "n_serv_hig_alc_dentro": 3, "n_fuente_agua_publica": 0, "n_fuente_agua_pozo": 5, "n_transporte_publico": 5, "n_transporte_auto": 2, "n_internet": 7}}, {"type": "Feature", "geometry": {"type": "Polygon", "coordinates": [[[-70.8212588359999, -33.2366728221345], [-70.8212528119999, -33.2366460971345], [-70.821163785, -33.2365442371345], [-70.8209836859999, -33.2363914171345], [-70.8208631049999, -33.2362553381345], [-70.8205854229999, -33.2358300631345], [-70.8202526719999, -33.2353495471345], [-70.8201793109999, -33.2352489201346], [-70.8201603039999, -33.2352733271346], [-70.8201602859999, -33.2352733011346], [-70.8200340589999, -33.2354353911346], [-70.8196660909999, -33.2359079091345], [-70.8197470279999, -33.2359536241345], [-70.8204844129999, -33.2363179101346], [-70.8204849519999, -33.2363181861345], [-70.8204850019999, -33.2363182121346], [-70.8209464539999, -33.2365618381345], [-70.8212251619999, -33.2366815301345], [-70.8212588359999, -33.2366728221345]]]}, "properties": {"MANZENT": 13302031002021, "LOCALIDAD": "BATUCO", "ENTIDAD": "BATUCO", "CATEGORIA": "Ciudad", "n_per": 31, "n_hombres": 15, "n_mujeres": 16, "prom_edad": 28.2, "n_hog": 10, "n_vp": 15, "n_vp_ocupada": 15, "n_deficit_cuantitativo": 1, "n_viv_hacinadas": 2, "n_serv_hig_alc_dentro": 1, "n_fuente_agua_publica": 1, "n_fuente_agua_pozo": 5, "n_transporte_publico": 8, "n_transporte_auto": 1, "n_internet": 8}}, {"type": "Feature", "geometry": {"type": "Polygon", "coordinates": [[[-70.8186373849999, -33.2362473741345], [-70.8189444319999, -33.2357967761345], [-70.8189630539999, -33.2358057371346], [-70.8189816759999, -33.2358146981346], [-70.8186804619999, -33.2362567381345], [-70.8187610489999, -33.2362742571345], [-70.8187616049999, -33.2362743851345], [-70.818813712, -33.2362869781345], [-70.818899713, -33.2363077611345], [-70.8189480139999, -33.2363194331345], [-70.8192400329999, -33.2359104861346], [-70.8192584339999, -33.2359197651345], [-70.8192768349999, -33.2359290441345], [-70.8189907009999, -33.2363297491345], [-70.8191804289999, -33.2363755991345], [-70.8193601379999, -33.2364190271345], [-70.8194928059999, -33.2364510871345], [-70.8198194669999, -33.2360311861345], [-70.8197247529999, -33.2359843941345], [-70.8197241639999, -33.2359840921346], [-70.8197236599999, -33.2359838151345], [-70.8196857889999, -33.2359624241345], [-70.8196251219999, -33.2359281551345], [-70.8191299249999, -33.2356484541345], [-70.8189353219999, -33.2355385401345], [-70.8186334159999, -33.2358729721345], [-70.8185364079999, -33.2359991121345], [-70.8184673319999, -33.2361262321345], [-70.8184317109999, -33.2362026621345], [-70.8185892409999, -33.2362369081346], [-70.8186373849999, -33.2362473741345]]]}, "properties": {"MANZENT": 13302031002024, "LOCALIDAD": "BATUCO", "ENTIDAD": "BATUCO", "CATEGORIA": "Ciudad", "n_per": 127, "n_hombres": 71, "n_mujeres": 56, "prom_edad": 26.9, "n_hog": 43, "n_vp": 47, "n_vp_ocupada": 47, "n_deficit_cuantitativo": 2, "n_viv_hacinadas": 3, "n_serv_hig_alc_dentro": 8, "n_fuente_agua_publica": 0, "n_fuente_agua_pozo": 31, "n_transporte_publico": 33, "n_transporte_auto": 12, "n_internet": 43}}, {"type": "Feature", "geometry": {"type": "Polygon", "coordinates": [[[-70.8175593779999, -33.2360487781345], [-70.8173929389999, -33.2362366331345], [-70.8172817779999, -33.2363620971345], [-70.8169906629999, -33.2366906701345], [-70.8167196839999, -33.2369965061345], [-70.8162495829999, -33.2375270761345], [-70.8161073199999, -33.2376876351345], [-70.8160628249999, -33.2377378541345], [-70.8158930279999, -33.2379294911345], [-70.8158806289999, -33.2379434861345], [-70.8158589299999, -33.2379679751345], [-70.8158111539999, -33.2379553821345], [-70.8157020979999, -33.2379578061345], [-70.8156593479999, -33.2379623061345], [-70.8155143369999, -33.2379766171345], [-70.8153134439999, -33.2379866301345], [-70.8153119069999, -33.2379865551345], [-70.8152645679999, -33.2379845071345], [-70.8152339929999, -33.2379901111345], [-70.8151983109999, -33.2380152321345], [-70.815020951, -33.2381985451345], [-70.8148399379999, -33.2383931771345], [-70.8147734659999, -33.2384646511345], [-70.8147089939999, -33.2385364801345], [-70.8147060949999, -33.2385397101345], [-70.8147048369999, -33.2385409851345], [-70.8147020919999, -33.2385431131345], [-70.8146997379999, -33.2385443841345], [-70.8144768199999, -33.2387939331345], [-70.8141773799999, -33.2391207821345], [-70.8139990869999, -33.2393153921345], [-70.8136813199999, -33.2396946441345], [-70.8135411029999, -33.2398995991345], [-70.8135286099999, -33.2399234091344], [-70.813522454, -33.2399371161345], [-70.8135207379999, -33.2399476021345], [-70.813521594, -33.2399526401345], [-70.8135258969999, -33.2399583491345], [-70.8135362269999, -33.2399648721345], [-70.8135759109999, -33.2399795701345], [-70.8135837569999, -33.2399834931345], [-70.8138550149999, -33.2400858101345], [-70.813978689, -33.2401291281344], [-70.8139971999999, -33.2401356121345], [-70.8140673839999, -33.2401601951345], [-70.8146541599999, -33.2403595231345], [-70.8156741859999, -33.2406847091345], [-70.815689528, -33.2406810831344], [-70.8156953319999, -33.2406797111345], [-70.8157164749999, -33.2406693921345], [-70.8157311169999, -33.2406561021345], [-70.8157544109999, -33.2406304201345], [-70.8159990869999, -33.2400072061345], [-70.8160218069999, -33.2399486171345], [-70.8160376739999, -33.2398907591345], [-70.8160404119999, -33.2398830531345], [-70.816042207, -33.2398660731345], [-70.8160336089999, -33.2398498751345], [-70.8160065349999, -33.2398224951345], [-70.8159154589999, -33.2397308471345], [-70.8158044019999, -33.2396227171344], [-70.8157571559999, -33.2395643381345], [-70.8157010559999, -33.2394930111345], [-70.8156543189999, -33.2394281311345], [-70.8156452309999, -33.2394125621345], [-70.8156321019999, -33.2393900681345], [-70.8156162209999, -33.2393628601344], [-70.8156145999999, -33.2393600831345], [-70.8155901399999, -33.2393085851345], [-70.8155688079999, -33.2392474831345], [-70.8155364229999, -33.2391396471345], [-70.8155204809999, -33.2390641271345], [-70.8155593189999, -33.2390584191345], [-70.8155749129999, -33.2391326821345], [-70.815606725, -33.2392387231345], [-70.8156334239999, -33.2393102981345], [-70.8156498779999, -33.2393482951345], [-70.8156725659999, -33.2393867421345], [-70.8157088379999, -33.2394437491345], [-70.8158297289999, -33.2395967361345], [-70.8159454929999, -33.2397093961345], [-70.8160366829999, -33.2398013131345], [-70.8160441649999, -33.2398050811345], [-70.8160532409999, -33.2398080151345], [-70.8160661979999, -33.2398066531345], [-70.8160770279999, -33.2398009941345], [-70.8160956419999, -33.2397825951345], [-70.8161690729999, -33.2397008101345], [-70.8162274409999, -33.2396398041345], [-70.8163255569999, -33.2395247931345], [-70.8164169969999, -33.2393658041345], [-70.8164927739999, -33.2391792161345], [-70.8164265409999, -33.2390969721345], [-70.8163032759999, -33.2390375331345], [-70.8163024919999, -33.2390371361345], [-70.8162995209999, -33.2390352341345], [-70.8162977479999, -33.2390337081345], [-70.8161296339999, -33.2388706991345], [-70.8161287649999, -33.2388697981345], [-70.816077645, -33.2388122471345], [-70.8160694669999, -33.2388030401345], [-70.8160760509999, -33.2387921641345], [-70.8163014699999, -33.2384436431345], [-70.8165184879999, -33.2380707471345], [-70.8168549399999, -33.2374868321345], [-70.8170869029999, -33.2371146091345], [-70.817337946, -33.2367011451345], [-70.8173988629999, -33.2366865001345], [-70.8174057159999, -33.2366889761345], [-70.8176917549999, -33.2367910301345], [-70.8176932739999, -33.2367916321345], [-70.8178113789999, -33.2368432901346], [-70.8178119289999, -33.2368435391345], [-70.8178977829999, -33.2368838061345], [-70.8180410009999, -33.2366782151345], [-70.8180773429999, -33.2366329081345], [-70.8174996809999, -33.2362406731345], [-70.8175131679999, -33.2362266461345], [-70.8175266549999, -33.2362126191345], [-70.8181014229999, -33.2366028881345], [-70.8181169279999, -33.2365835581345], [-70.8182890049999, -33.2364126851345], [-70.8182883249999, -33.2364115661345], [-70.8183741809999, -33.2362273541345], [-70.8177900599999, -33.2361003681345], [-70.8175667629999, -33.2360518231346], [-70.8175639999999, -33.2360510511345], [-70.8175606809999, -33.2360496121345], [-70.8175593779999, -33.2360487781345]]]}, "properties": {"MANZENT": 13302031002028, "LOCALIDAD": "BATUCO", "ENTIDAD": "BATUCO", "CATEGORIA": "Ciudad", "n_per": 213, "n_hombres": 112, "n_mujeres": 101, "prom_edad": 30.6, "n_hog": 68, "n_vp": 95, "n_vp_ocupada": 88, "n_deficit_cuantitativo": 7, "n_viv_hacinadas": 13, "n_serv_hig_alc_dentro": 10, "n_fuente_agua_publica": 18, "n_fuente_agua_pozo": 40, "n_transporte_publico": 41, "n_transporte_auto": 22, "n_internet": 65}}, {"type": "Feature", "geometry": {"type": "Polygon", "coordinates": [[[-70.8195359689999, -33.2364615181345], [-70.8197150139999, -33.2365047851345], [-70.8198162649999, -33.2365292531345], [-70.8202704809999, -33.2366447021345], [-70.8202724059999, -33.2366452771345], [-70.8202757259999, -33.2366467161345], [-70.8202786969999, -33.2366486181345], [-70.8202812299999, -33.2366509241345], [-70.8202825679999, -33.2366525561346], [-70.8202943309999, -33.2366687531345], [-70.8202944309999, -33.2366681851345], [-70.8202946919999, -33.2366669841345], [-70.8202956879999, -33.2366642271345], [-70.8204469129999, -33.2363411591345], [-70.8199700179999, -33.2361055621345], [-70.8198565089999, -33.2360494851346], [-70.8195359689999, -33.2364615181345]]]}, "properties": {"MANZENT": 13302031002029, "LOCALIDAD": "BATUCO", "ENTIDAD": "BATUCO", "CATEGORIA": "Ciudad", "n_per": 33, "n_hombres": 17, "n_mujeres": 16, "prom_edad": 26.6, "n_hog": 10, "n_vp": 11, "n_vp_ocupada": 11, "n_deficit_cuantitativo": 0, "n_viv_hacinadas": 0, "n_serv_hig_alc_dentro": 3, "n_fuente_agua_publica": 0, "n_fuente_agua_pozo": 8, "n_transporte_publico": 10, "n_transporte_auto": 0, "n_internet": 10}}, {"type": "Feature", "geometry": {"type": "Polygon", "coordinates": [[[-70.8185595239999, -33.2370974231345], [-70.8185929999999, -33.2370564661345], [-70.8185935689999, -33.2370546791345], [-70.8186002929999, -33.2370159661345], [-70.8186103959999, -33.2369577971346], [-70.8186106619999, -33.2369565631345], [-70.8186117729999, -33.2369535661345], [-70.8186121649999, -33.2369528121345], [-70.8186897829999, -33.2368123861345], [-70.8186900629999, -33.2368118981345], [-70.8187632899999, -33.2366892031346], [-70.8187643269999, -33.2366876611345], [-70.8188211289999, -33.2366120841345], [-70.8189453869999, -33.2364473081345], [-70.8189911069999, -33.2363673191345], [-70.8187500379999, -33.2363090621345], [-70.8184159689999, -33.2362364381345], [-70.8183260719999, -33.2364293221345], [-70.8182910429999, -33.2365856411345], [-70.8182826229999, -33.2366885991345], [-70.8182398359999, -33.2366866431345], [-70.8182398689999, -33.2366861291345], [-70.8182483759999, -33.2365821151345], [-70.8182486959999, -33.2365800181345], [-70.8182566399999, -33.2365445681345], [-70.8182545469999, -33.2365385581345], [-70.8182375139999, -33.2365367661345], [-70.8182079879999, -33.2365489681346], [-70.8181189219999, -33.2366374111345], [-70.8179360279999, -33.2369014801345], [-70.8181351779999, -33.2369921591345], [-70.8185459889999, -33.2371139841345], [-70.8185543429999, -33.2371037621345], [-70.8185595239999, -33.2370974231345]]]}, "properties": {"MANZENT": 13302031002031, "LOCALIDAD": "BATUCO", "ENTIDAD": "BATUCO", "CATEGORIA": "Ciudad", "n_per": 66, "n_hombres": 39, "n_mujeres": 27, "prom_edad": 26.3, "n_hog": 27, "n_vp": 32, "n_vp_ocupada": 32, "n_deficit_cuantitativo": 5, "n_viv_hacinadas": 6, "n_serv_hig_alc_dentro": 5, "n_fuente_agua_publica": 0, "n_fuente_agua_pozo": 18, "n_transporte_publico": 19, "n_transporte_auto": 1, "n_internet": 27}}, {"type": "Feature", "geometry": {"type": "Polygon", "coordinates": [[[-70.8192375809999, -33.2371146951345], [-70.8192764309999, -33.2371129871345], [-70.8194258549999, -33.2371064161345], [-70.8196137449999, -33.2370714041345], [-70.8196155109999, -33.2370711391345], [-70.8196181969999, -33.2370709771345], [-70.8197636389999, -33.2370699131345], [-70.8197646839999, -33.2370699271345], [-70.8197683879999, -33.2370703261345], [-70.819770822, -33.2370708991345], [-70.8200083139999, -33.2371398371345], [-70.8200494399999, -33.2370758371345], [-70.8202821049999, -33.2367210481345], [-70.8202502479999, -33.2366771831345], [-70.8198041399999, -33.2365637941345], [-70.8190328779999, -33.2363774141345], [-70.8189834719999, -33.2364638511345], [-70.8189822639999, -33.2364656841345], [-70.8188573449999, -33.2366313361346], [-70.8188011229999, -33.2367061411345], [-70.8187285129999, -33.2368278021345], [-70.8186523489999, -33.2369655981345], [-70.8186367519999, -33.2370554011345], [-70.8187969419999, -33.2370582061345], [-70.818800215, -33.2370585011345], [-70.8190177609999, -33.2370925631345], [-70.8190474269999, -33.2370955501345], [-70.8191479429999, -33.2371056701345], [-70.8193266579999, -33.2367518951345], [-70.8193464109999, -33.2367589421345], [-70.8193661639999, -33.2367659891345], [-70.8191923119999, -33.2371101371345], [-70.8192375809999, -33.2371146951345]]]}, "properties": {"MANZENT": 13302031002034, "LOCALIDAD": "BATUCO", "ENTIDAD": "BATUCO", "CATEGORIA": "Ciudad", "n_per": 92, "n_hombres": 46, "n_mujeres": 46, "prom_edad": 28.7, "n_hog": 32, "n_vp": 32, "n_vp_ocupada": 32, "n_deficit_cuantitativo": 1, "n_viv_hacinadas": 4, "n_serv_hig_alc_dentro": 8, "n_fuente_agua_publica": 2, "n_fuente_agua_pozo": 20, "n_transporte_publico": 17, "n_transporte_auto": 9, "n_internet": 31}}, {"type": "Feature", "geometry": {"type": "Polygon", "coordinates": [[[-70.8168269399999, -33.2376088241345], [-70.8166711199999, -33.2378823791345], [-70.8164866559999, -33.2382126101345], [-70.8163073029999, -33.2385145861345], [-70.8162174709999, -33.2386596521345], [-70.8161202639999, -33.2388000261345], [-70.8161625309999, -33.2388476091345], [-70.8163277549999, -33.2390078161345], [-70.8164521719999, -33.2390678111345], [-70.8164529559999, -33.2390682081345], [-70.8164559269999, -33.2390701101345], [-70.8164584599999, -33.2390724171345], [-70.8164592529999, -33.2390733371345], [-70.8165158839999, -33.2391436561345], [-70.8167687429999, -33.2388073551345], [-70.8172279719999, -33.2381634371345], [-70.8173431449999, -33.2380019371345], [-70.8171463609999, -33.2378968431345], [-70.8171434339999, -33.2378949651345], [-70.8171409009999, -33.2378926581345], [-70.8171388829999, -33.2378900171345], [-70.8171374419999, -33.2378871221345], [-70.8171366199999, -33.2378840601345], [-70.8171364439999, -33.2378809251345], [-70.8171369179999, -33.2378778111345], [-70.8171380289999, -33.2378748151345], [-70.8171397409999, -33.2378720251345], [-70.8171402989999, -33.2378713211345], [-70.8174634889999, -33.2374832681345], [-70.8178188889999, -33.2370074441345], [-70.8178775279999, -33.2369155481345], [-70.8177913159999, -33.2368751131345], [-70.8176742339999, -33.2368239021345], [-70.8173961909999, -33.2367247001346], [-70.8173960669999, -33.2367246861345], [-70.8173680339999, -33.2367314251345], [-70.8173431549999, -33.2367738421345], [-70.8172350199999, -33.2369582031345], [-70.8171407129999, -33.2371085621345], [-70.8169846939999, -33.2373573111345], [-70.8168269399999, -33.2376088241345]]]}, "properties": {"MANZENT": 13302031002035, "LOCALIDAD": "BATUCO", "ENTIDAD": "BATUCO", "CATEGORIA": "Ciudad", "n_per": 169, "n_hombres": 81, "n_mujeres": 88, "prom_edad": 28.1, "n_hog": 51, "n_vp": 58, "n_vp_ocupada": 58, "n_deficit_cuantitativo": 5, "n_viv_hacinadas": 6, "n_serv_hig_alc_dentro": 5, "n_fuente_agua_publica": 2, "n_fuente_agua_pozo": 41, "n_transporte_publico": 32, "n_transporte_auto": 10, "n_internet": 50}}, {"type": "Feature", "geometry": {"type": "Polygon", "coordinates": [[[-70.8209987229999, -33.2376129541345], [-70.8210359689999, -33.2376308821345], [-70.8210899649999, -33.2375514351345], [-70.8213190029999, -33.2372130701345], [-70.8212766569999, -33.2371933271345], [-70.8203152679999, -33.2367450931346], [-70.8200870599999, -33.2370930831345], [-70.8200473019999, -33.2371549541345], [-70.8209987229999, -33.2376129541345]]]}, "properties": {"MANZENT": 13302031002036, "LOCALIDAD": "BATUCO", "ENTIDAD": "BATUCO", "CATEGORIA": "Ciudad", "n_per": 43, "n_hombres": 17, "n_mujeres": 26, "prom_edad": 36.2, "n_hog": 14, "n_vp": 16, "n_vp_ocupada": 16, "n_deficit_cuantitativo": 0, "n_viv_hacinadas": 3, "n_serv_hig_alc_dentro": 1, "n_fuente_agua_publica": 1, "n_fuente_agua_pozo": 9, "n_transporte_publico": 11, "n_transporte_auto": 4, "n_internet": 13}}, {"type": "Feature", "geometry": {"type": "Polygon", "coordinates": [[[-70.8156827809999, -33.2379149501345], [-70.8156868739999, -33.2379132051345], [-70.8156904489999, -33.2379111111345], [-70.8157706509999, -33.2378570041345], [-70.8157716149999, -33.2378563271345], [-70.8157756719999, -33.2378527681345], [-70.8161659489999, -33.2374344891345], [-70.8161667959999, -33.2374335391345], [-70.8164901779999, -33.2370537601345], [-70.8164921519999, -33.2370511351345], [-70.8164936859999, -33.2370484771345], [-70.8165029049999, -33.2370299971345], [-70.816503554, -33.2370283391345], [-70.8165040889999, -33.2370266401345], [-70.8165045069999, -33.2370249091345], [-70.8165048069999, -33.2370231541345], [-70.8165049869999, -33.2370213821345], [-70.8165050469999, -33.2370196021345], [-70.8165049859999, -33.2370178221345], [-70.8165048039999, -33.2370160511345], [-70.8165045019999, -33.2370142951345], [-70.8165040819999, -33.2370125651345], [-70.8165035449999, -33.2370108671345], [-70.8165028939999, -33.2370092091345], [-70.8165021329999, -33.2370075991345], [-70.8165012629999, -33.2370060451345], [-70.8165002909999, -33.2370045531345], [-70.8164992189999, -33.2370031311345], [-70.8164980539999, -33.2370017841345], [-70.8164967989999, -33.2370005201345], [-70.8164954619999, -33.2369993441346], [-70.8164940479999, -33.2369982611345], [-70.8164925639999, -33.2369972771345], [-70.8164910159999, -33.2369963961345], [-70.816489412, -33.2369956221345], [-70.8164877599999, -33.2369949581345], [-70.8164860659999, -33.2369944081345], [-70.8164843389999, -33.2369939741345], [-70.8164825859999, -33.2369936591345], [-70.8163459989999, -33.2369587451345], [-70.8163442729999, -33.2369582311345], [-70.8163437769999, -33.2369580601345], [-70.8163431599999, -33.2369578321345], [-70.8161051679999, -33.2368640231345], [-70.8161045859999, -33.2368637771345], [-70.8161036209999, -33.2368633511345], [-70.8160575899999, -33.2368415451345], [-70.8160552989999, -33.2368405411345], [-70.8160529439999, -33.2368396981345], [-70.8160505359999, -33.2368390221345], [-70.8160480869999, -33.2368385161345], [-70.8160456079999, -33.2368381821345], [-70.8160431119999, -33.2368380211345], [-70.8160406099999, -33.2368380351345], [-70.8160381159999, -33.2368382241345], [-70.8160356409999, -33.2368385861345], [-70.8160331979999, -33.2368391191345], [-70.8160307969999, -33.2368398221345], [-70.8160284519999, -33.2368406901345], [-70.8160261719999, -33.2368417201345], [-70.8160239699999, -33.2368429071345], [-70.816021857, -33.2368442441345], [-70.8160198409999, -33.2368457251345], [-70.8160179339999, -33.2368473441345], [-70.8160161439999, -33.2368490911345], [-70.8160144809999, -33.2368509591345], [-70.8158950679999, -33.2370137111345], [-70.8158943739999, -33.2370145861345], [-70.8156735159999, -33.2372718681345], [-70.8152191059999, -33.2378055251345], [-70.8152171309999, -33.2378081501345], [-70.8152148149999, -33.2378125401345], [-70.8152119889999, -33.2378195831345], [-70.8152114629999, -33.2378210781345], [-70.8152110369999, -33.2378226051345], [-70.8152107129999, -33.2378241561345], [-70.8152104919999, -33.2378257261345], [-70.8152103749999, -33.2378273071345], [-70.8152103619999, -33.2378288921345], [-70.8152104549999, -33.2378304741345], [-70.8152106509999, -33.2378320471345], [-70.8152109509999, -33.2378336031345], [-70.8152113539999, -33.2378351361345], [-70.8152118559999, -33.2378366391345], [-70.8152124569999, -33.2378381061345], [-70.8152131529999, -33.2378395301345], [-70.8152139419999, -33.2378409051345], [-70.8152148189999, -33.2378422251345], [-70.8152157819999, -33.2378434841345], [-70.8152168259999, -33.2378446761345], [-70.815217947, -33.2378457971345], [-70.8152191389999, -33.2378468421345], [-70.8152316919999, -33.2378579621345], [-70.8152347849999, -33.2378603661345], [-70.8152360999999, -33.2378612151345], [-70.8152634279999, -33.2378779371345], [-70.8152640799999, -33.2378783681345], [-70.8152647309999, -33.2378787771345], [-70.8152651529999, -33.2378790971345], [-70.8152656649999, -33.2378795231345], [-70.8152675169999, -33.2378811981345], [-70.8152679309999, -33.2378816341345], [-70.8152682349999, -33.2378819951345], [-70.8152694939999, -33.2378836411345], [-70.815269757, -33.2378840231345], [-70.8152700559999, -33.2378845211345], [-70.8152711229999, -33.2378866621345], [-70.8152713279999, -33.2378871871345], [-70.8152714719999, -33.2378876131345], [-70.8152719869999, -33.2378895291345], [-70.8152721199999, -33.2378902561345], [-70.8152722869999, -33.2378926131345], [-70.8152722859999, -33.2378930881345], [-70.8152722529999, -33.2378936711345], [-70.8152720889999, -33.2378966171345], [-70.8152723329999, -33.2379128201345], [-70.8152725169999, -33.2379146921345], [-70.8152728289999, -33.2379165461345], [-70.8152732689999, -33.2379183751345], [-70.8152738339999, -33.2379201691345], [-70.8152745219999, -33.2379219191345], [-70.8152753299999, -33.2379236181345], [-70.8152762529999, -33.2379252561345], [-70.8152772869999, -33.2379268281345], [-70.815278427, -33.2379283231345], [-70.8152796669999, -33.2379297371345], [-70.8152810029999, -33.2379310611345], [-70.8152824269999, -33.2379322901345], [-70.8152839319999, -33.2379334171345], [-70.8152855119999, -33.2379344381345], [-70.8152871579999, -33.2379353471345], [-70.8152888639999, -33.2379361401345], [-70.8152906199999, -33.2379368131345], [-70.8152915819999, -33.2379372001345], [-70.8152939639999, -33.2379380611345], [-70.8153273849999, -33.2379486791345], [-70.8153302289999, -33.2379496621345], [-70.8155603659999, -33.2379381921345], [-70.8156473349999, -33.2379274831345], [-70.8156827809999, -33.2379149501345]]]}, "properties": {"MANZENT": 13302031002038, "LOCALIDAD": "BATUCO", "ENTIDAD": "BATUCO", "CATEGORIA": "Ciudad", "n_per": 68, "n_hombres": 28, "n_mujeres": 40, "prom_edad": 28.7, "n_hog": 17, "n_vp": 20, "n_vp_ocupada": 20, "n_deficit_cuantitativo": 5, "n_viv_hacinadas": 6, "n_serv_hig_alc_dentro": 2, "n_fuente_agua_publica": 3, "n_fuente_agua_pozo": 10, "n_transporte_publico": 11, "n_transporte_auto": 3, "n_internet": 16}}, {"type": "Feature", "geometry": {"type": "Polygon", "coordinates": [[[-70.8172752989999, -33.2381671271345], [-70.817541102, -33.2383061141345], [-70.8180780049999, -33.2376609361345], [-70.818078296, -33.2376605951345], [-70.8184868319999, -33.2371932321345], [-70.8182471649999, -33.2370840511345], [-70.818243864, -33.2370825841345], [-70.8179150819999, -33.2369329001345], [-70.8178563099999, -33.2370250051345], [-70.817855575, -33.2370260691346], [-70.8174994819999, -33.2375028201345], [-70.8174989069999, -33.2375035481345], [-70.8171882549999, -33.2378765471345], [-70.817383747, -33.2379809511345], [-70.8173866739999, -33.2379828291345], [-70.8173892069999, -33.2379851361345], [-70.8173912249999, -33.2379877771345], [-70.8173926659999, -33.2379906721345], [-70.8173934879999, -33.2379937341345], [-70.817393664, -33.2379968691345], [-70.8173931899999, -33.2379999821345], [-70.8173920789999, -33.2380029791345], [-70.8173906329999, -33.2380054041345], [-70.8172752989999, -33.2381671271345]]]}, "properties": {"MANZENT": 13302031002042, "LOCALIDAD": "BATUCO", "ENTIDAD": "BATUCO", "CATEGORIA": "Ciudad", "n_per": 63, "n_hombres": 26, "n_mujeres": 37, "prom_edad": 24.7, "n_hog": 18, "n_vp": 18, "n_vp_ocupada": 18, "n_deficit_cuantitativo": 4, "n_viv_hacinadas": 5, "n_serv_hig_alc_dentro": 2, "n_fuente_agua_publica": 1, "n_fuente_agua_pozo": 14, "n_transporte_publico": 10, "n_transporte_auto": 6, "n_internet": 17}}, {"type": "Feature", "geometry": {"type": "Polygon", "coordinates": [[[-70.8192379809999, -33.2371507401345], [-70.8192360029999, -33.2371507501345], [-70.8192343119999, -33.2371506361345], [-70.8190119719999, -33.2371282501345], [-70.8190105959999, -33.2371280741345], [-70.8187940899999, -33.2370941751345], [-70.8186231609999, -33.2370911821345], [-70.8185493379999, -33.2371815061345], [-70.8188502369999, -33.2373299681345], [-70.8190681889999, -33.2374176461345], [-70.819329992, -33.2374928931345], [-70.8196294619999, -33.2375768601345], [-70.8196308089999, -33.2375772811345], [-70.8196330219999, -33.2375781711345], [-70.8196667889999, -33.2375938091345], [-70.8197286089999, -33.2375121611345], [-70.8197291019999, -33.2375115391345], [-70.8199090179999, -33.2372943591345], [-70.819987679, -33.2371719481345], [-70.8197603199999, -33.2371059521345], [-70.8196208229999, -33.2371069721345], [-70.8194333929999, -33.2371418981345], [-70.8194316269999, -33.2371421631345], [-70.8194298739999, -33.2371423011345], [-70.8192379809999, -33.2371507401345]]]}, "properties": {"MANZENT": 13302031002044, "LOCALIDAD": "BATUCO", "ENTIDAD": "BATUCO", "CATEGORIA": "Ciudad", "n_per": 43, "n_hombres": 20, "n_mujeres": 23, "prom_edad": 29.8, "n_hog": 12, "n_vp": 19, "n_vp_ocupada": 17, "n_deficit_cuantitativo": 4, "n_viv_hacinadas": 2, "n_serv_hig_alc_dentro": 2, "n_fuente_agua_publica": 0, "n_fuente_agua_pozo": 6, "n_transporte_publico": 15, "n_transporte_auto": 2, "n_internet": 12}}, {"type": "Feature", "geometry": {"type": "Polygon", "coordinates": [[[-70.820739752, -33.2380653321345], [-70.8207404629999, -33.2380656741345], [-70.8207900509999, -33.2379927131345], [-70.8210147129999, -33.2376621541345], [-70.8209774229999, -33.2376442021345], [-70.8200269339999, -33.2371866521345], [-70.8199461499999, -33.2373123671345], [-70.8199454089999, -33.2373134311345], [-70.8199448809999, -33.2373140991345], [-70.8197645259999, -33.2375318081345], [-70.8197043959999, -33.2376112251345], [-70.8197382769999, -33.2376269161345], [-70.8207040849999, -33.2380497181345], [-70.820739752, -33.2380653321345]]]}, "properties": {"MANZENT": 13302031002045, "LOCALIDAD": "BATUCO", "ENTIDAD": "BATUCO", "CATEGORIA": "Ciudad", "n_per": 25, "n_hombres": 12, "n_mujeres": 13, "prom_edad": 28.6, "n_hog": 9, "n_vp": 14, "n_vp_ocupada": 14, "n_deficit_cuantitativo": 6, "n_viv_hacinadas": 2, "n_serv_hig_alc_dentro": 0, "n_fuente_agua_publica": 0, "n_fuente_agua_pozo": 5, "n_transporte_publico": 7, "n_transporte_auto": 0, "n_internet": 8}}, {"type": "Feature", "geometry": {"type": "Polygon", "coordinates": [[[-70.8191400339999, -33.2379126321345], [-70.8193852229999, -33.2380300291345], [-70.8195761999999, -33.2377136111345], [-70.8195772149999, -33.2377121131345], [-70.8196437379999, -33.2376242531345], [-70.8196140469999, -33.2376105031345], [-70.8193162759999, -33.2375270111345], [-70.8190531339999, -33.2374513791345], [-70.8190519389999, -33.2374510021345], [-70.8190508159999, -33.2374505831345], [-70.8188309169999, -33.2373621221345], [-70.8188293199999, -33.2373614091345], [-70.8185244749999, -33.2372110001345], [-70.8182114529999, -33.2375690961345], [-70.8182934549999, -33.2375735241345], [-70.818295239, -33.2375736911345], [-70.8182985059999, -33.2375743751345], [-70.8182995729999, -33.2375747141345], [-70.8183842259999, -33.2376040181345], [-70.8183853529999, -33.2376044441345], [-70.8184931519999, -33.2376487331345], [-70.8186537349999, -33.2377170841345], [-70.8188504849999, -33.2378018531345], [-70.81913857, -33.2379120071345], [-70.8191400339999, -33.2379126321345]]]}, "properties": {"MANZENT": 13302031002046, "LOCALIDAD": "BATUCO", "ENTIDAD": "BATUCO", "CATEGORIA": "Ciudad", "n_per": 75, "n_hombres": 43, "n_mujeres": 32, "prom_edad": 28.1, "n_hog": 23, "n_vp": 27, "n_vp_ocupada": 27, "n_deficit_cuantitativo": 1, "n_viv_hacinadas": 3, "n_serv_hig_alc_dentro": 6, "n_fuente_agua_publica": 1, "n_fuente_agua_pozo": 14, "n_transporte_publico": 17, "n_transporte_auto": 5, "n_internet": 21}}, {"type": "Feature", "geometry": {"type": "Polygon", "coordinates": [[[-70.8104449439999, -33.2419070821345], [-70.8104786659999, -33.2419082141344], [-70.8107259609999, -33.2414046981345], [-70.8108432699999, -33.2411658461345], [-70.8113069529999, -33.2402896461345], [-70.8117576209999, -33.2394436651345], [-70.8117627669999, -33.2394122061345], [-70.8117648379999, -33.2393773661345], [-70.8108130299999, -33.2390230161345], [-70.8090785049999, -33.2383842511345], [-70.8085759709999, -33.2381972501345], [-70.8077819569999, -33.2379017841345], [-70.806669311, -33.2374934991345], [-70.8066326439999, -33.2374807991346], [-70.8065989349999, -33.2374691231345], [-70.8065894169999, -33.2374710261345], [-70.8065741889999, -33.2374729301345], [-70.8065665739999, -33.2374805441345], [-70.8065608639999, -33.2375014831345], [-70.8065589599999, -33.2375395551345], [-70.8065646709999, -33.2379202681345], [-70.8065608639999, -33.2392889341345], [-70.8065684779999, -33.2397115271345], [-70.8065684779999, -33.2398657161345], [-70.8065670099999, -33.2400003311345], [-70.8065656399999, -33.2401258811345], [-70.8065627669999, -33.2403891971345], [-70.8065722849999, -33.2404424971345], [-70.8065818029999, -33.2404672431345], [-70.8066647719999, -33.2405029231345], [-70.8066783039999, -33.2405087421344], [-70.8073178959999, -33.2407525181345], [-70.8076127259999, -33.2408634491345], [-70.8081745019999, -33.2410748201345], [-70.8089082769999, -33.2413472301344], [-70.8097439239999, -33.2416570211345], [-70.8104251769999, -33.2419008761345], [-70.8104449439999, -33.2419070821345]]]}, "properties": {"MANZENT": 13302031002048, "LOCALIDAD": "BATUCO", "ENTIDAD": "BATUCO", "CATEGORIA": "Ciudad", "n_per": 116, "n_hombres": 63, "n_mujeres": 53, "prom_edad": 36.4, "n_hog": 50, "n_vp": 50, "n_vp_ocupada": 49, "n_deficit_cuantitativo": 5, "n_viv_hacinadas": 4, "n_serv_hig_alc_dentro": 17, "n_fuente_agua_publica": 48, "n_fuente_agua_pozo": 1, "n_transporte_publico": 16, "n_transporte_auto": 18, "n_internet": 49}}, {"type": "Feature", "geometry": {"type": "Polygon", "coordinates": [[[-70.8111370749999, -33.2380318841345], [-70.8111241999999, -33.2380163801345], [-70.8111053879999, -33.2380044791345], [-70.8109976969999, -33.2379654661345], [-70.8096994599999, -33.2374897171345], [-70.8096830549999, -33.2374851761345], [-70.8096606619999, -33.2374869441345], [-70.8096495679999, -33.2374901721345], [-70.8096423179999, -33.2374976731345], [-70.8096326149999, -33.2375267621345], [-70.8093813559999, -33.2383480111345], [-70.8093779229999, -33.2383688931345], [-70.8093783319999, -33.2383939571345], [-70.8093796999999, -33.2383964401345], [-70.8093881419999, -33.2384117611345], [-70.8094045269999, -33.2384256811345], [-70.8107926449999, -33.2389452151345], [-70.8108144819999, -33.2389529241345], [-70.8108379369999, -33.2389558291345], [-70.8108564929999, -33.2389513601345], [-70.8108602559999, -33.2389504531345], [-70.8108726199999, -33.2389411651345], [-70.8108835569999, -33.2389199031345], [-70.8110563799999, -33.2383495991345], [-70.8111326989999, -33.2381006671345], [-70.8111404659999, -33.2380714251345], [-70.8111408969999, -33.2380506771345], [-70.8111370749999, -33.2380318841345]]]}, "properties": {"MANZENT": 13302031002049, "LOCALIDAD": "BATUCO", "ENTIDAD": "BATUCO", "CATEGORIA": "Ciudad", "n_per": 18, "n_hombres": 7, "n_mujeres": 11, "prom_edad": 27.6, "n_hog": 5, "n_vp": 6, "n_vp_ocupada": 6, "n_deficit_cuantitativo": 1, "n_viv_hacinadas": 2, "n_serv_hig_alc_dentro": 2, "n_fuente_agua_publica": 5, "n_fuente_agua_pozo": 0, "n_transporte_publico": 2, "n_transporte_auto": 4, "n_internet": 5}}, {"type": "Feature", "geometry": {"type": "Polygon", "coordinates": [[[-70.8181129819999, -33.2376817461345], [-70.8179542219999, -33.2378725231345], [-70.817962872, -33.2378722831345], [-70.8180389509999, -33.2378636311345], [-70.8180412049999, -33.2378634871345], [-70.8180435079999, -33.2378635691345], [-70.8181572859999, -33.2378733591345], [-70.8181583409999, -33.2378734751345], [-70.8181595569999, -33.2378736701345], [-70.8182439329999, -33.2378896161345], [-70.8182459839999, -33.2378901051345], [-70.8182491279999, -33.2378912881345], [-70.8183659559999, -33.2379467611345], [-70.8185233279999, -33.2380166221345], [-70.8187241859999, -33.2380917171345], [-70.8187246699999, -33.2380919051345], [-70.8188760359999, -33.2381527631345], [-70.8192214829999, -33.2382993471345], [-70.8193421209999, -33.2381014421345], [-70.81936773, -33.2380590121345], [-70.8191217729999, -33.2379412471345], [-70.8188340759999, -33.2378312421345], [-70.8188332629999, -33.2378309121345], [-70.8186361969999, -33.2377460061345], [-70.8184759419999, -33.2376777941345], [-70.8183689419999, -33.2376338341345], [-70.8182878029999, -33.2376057461345], [-70.8181843009999, -33.2376001581345], [-70.8181129819999, -33.2376817461345]]]}, "properties": {"MANZENT": 13302031002050, "LOCALIDAD": "BATUCO", "ENTIDAD": "BATUCO", "CATEGORIA": "Ciudad", "n_per": 21, "n_hombres": 10, "n_mujeres": 11, "prom_edad": 23.8, "n_hog": 6, "n_vp": 8, "n_vp_ocupada": 8, "n_deficit_cuantitativo": 0, "n_viv_hacinadas": 0, "n_serv_hig_alc_dentro": 1, "n_fuente_agua_publica": 0, "n_fuente_agua_pozo": 4, "n_transporte_publico": 6, "n_transporte_auto": 1, "n_internet": 6}}, {"type": "Feature", "geometry": {"type": "Polygon", "coordinates": [[[-70.8204353439999, -33.2385140641345], [-70.8204356269999, -33.2385142041345], [-70.8207192109999, -33.2380969441345], [-70.8206842849999, -33.2380816561345], [-70.8197182549999, -33.2376587571345], [-70.8197178129999, -33.2376585581345], [-70.8196813449999, -33.2376416691345], [-70.8196139479999, -33.2377306831345], [-70.8194235949999, -33.2380460651345], [-70.8203986229999, -33.2384970781345], [-70.8204353439999, -33.2385140641345]]]}, "properties": {"MANZENT": 13302031002051, "LOCALIDAD": "BATUCO", "ENTIDAD": "BATUCO", "CATEGORIA": "Ciudad", "n_per": 32, "n_hombres": 17, "n_mujeres": 15, "prom_edad": 27.7, "n_hog": 11, "n_vp": 14, "n_vp_ocupada": 14, "n_deficit_cuantitativo": 0, "n_viv_hacinadas": 4, "n_serv_hig_alc_dentro": 1, "n_fuente_agua_publica": 0, "n_fuente_agua_pozo": 9, "n_transporte_publico": 9, "n_transporte_auto": 0, "n_internet": 8}}, {"type": "Feature", "geometry": {"type": "Polygon", "coordinates": [[[-70.8187719029999, -33.2388914131345], [-70.8188158799999, -33.2389124261345], [-70.8191515279999, -33.2384141081345], [-70.8192038719999, -33.2383282381345], [-70.8188589929999, -33.2381818931345], [-70.8187082399999, -33.2381212841345], [-70.8185070309999, -33.2380460581345], [-70.8185058609999, -33.2380455801345], [-70.8183476719999, -33.2379753561345], [-70.8183472599999, -33.2379751681345], [-70.8182326759999, -33.2379207601345], [-70.8181522049999, -33.2379055521345], [-70.8180418569999, -33.2378960571345], [-70.8179670799999, -33.2379045611345], [-70.8179651289999, -33.2379046981345], [-70.8179265549999, -33.2379057701345], [-70.8175775409999, -33.2383251671345], [-70.8175936349999, -33.2383335831345], [-70.8177863059999, -33.2384326581345], [-70.8178907949999, -33.2384863861345], [-70.8187719029999, -33.2388914131345]]]}, "properties": {"MANZENT": 13302031002054, "LOCALIDAD": "BATUCO", "ENTIDAD": "BATUCO", "CATEGORIA": "Ciudad", "n_per": 27, "n_hombres": 13, "n_mujeres": 14, "prom_edad": 30.9, "n_hog": 10, "n_vp": 12, "n_vp_ocupada": 11, "n_deficit_cuantitativo": 0, "n_viv_hacinadas": 0, "n_serv_hig_alc_dentro": 0, "n_fuente_agua_publica": 0, "n_fuente_agua_pozo": 8, "n_transporte_publico": 2, "n_transporte_auto": 7, "n_internet": 9}}, {"type": "Feature", "geometry": {"type": "Polygon", "coordinates": [[[-70.8200882709999, -33.2389430881345], [-70.8201304159999, -33.2389632621345], [-70.8204042009999, -33.2385604501345], [-70.8204143759999, -33.2385454721345], [-70.8203779569999, -33.2385286261345], [-70.8194041989999, -33.2380782011345], [-70.8193803009999, -33.2381177961345], [-70.8191894659999, -33.2384308601345], [-70.8191890429999, -33.2384315211345], [-70.8191477259999, -33.2384928621345], [-70.8200882709999, -33.2389430881345]]]}, "properties": {"MANZENT": 13302031002056, "LOCALIDAD": "BATUCO", "ENTIDAD": "BATUCO", "CATEGORIA": "Ciudad", "n_per": 34, "n_hombres": 18, "n_mujeres": 16, "prom_edad": 28.9, "n_hog": 12, "n_vp": 13, "n_vp_ocupada": 13, "n_deficit_cuantitativo": 0, "n_viv_hacinadas": 2, "n_serv_hig_alc_dentro": 1, "n_fuente_agua_publica": 0, "n_fuente_agua_pozo": 10, "n_transporte_publico": 5, "n_transporte_auto": 5, "n_internet": 12}}, {"type": "Feature", "geometry": {"type": "Polygon", "coordinates": [[[-70.8171502269999, -33.2392876101345], [-70.817163117, -33.2392665021345], [-70.8171634149999, -33.2392660321345], [-70.8174066459999, -33.2388951691345], [-70.8174073479999, -33.2388941751345], [-70.8174310729999, -33.2388632211345], [-70.8174311209999, -33.2388631571345], [-70.817431171, -33.2388630931345], [-70.8177449699999, -33.2384536211345], [-70.8175711309999, -33.2383642311345], [-70.8175355759999, -33.2383456391345], [-70.8172532659999, -33.2381980211345], [-70.8168053719999, -33.2388260491345], [-70.8168051079999, -33.2388264111345], [-70.8165502079999, -33.2391654261345], [-70.816674685, -33.2392172551345], [-70.8167989519999, -33.2391931651345], [-70.8171266769999, -33.2393261771345], [-70.8171502269999, -33.2392876101345]]]}, "properties": {"MANZENT": 13302031002058, "LOCALIDAD": "BATUCO", "ENTIDAD": "BATUCO", "CATEGORIA": "Ciudad", "n_per": 33, "n_hombres": 17, "n_mujeres": 16, "prom_edad": 26, "n_hog": 12, "n_vp": 13, "n_vp_ocupada": 13, "n_deficit_cuantitativo": 0, "n_viv_hacinadas": 1, "n_serv_hig_alc_dentro": 2, "n_fuente_agua_publica": 0, "n_fuente_agua_pozo": 11, "n_transporte_publico": 9, "n_transporte_auto": 1, "n_internet": 11}}, {"type": "Feature", "geometry": {"type": "Polygon", "coordinates": [[[-70.8174794779999, -33.2388665681345], [-70.8185087049999, -33.2393565861345], [-70.81879455, -33.2389436601345], [-70.818751028, -33.2389228641345], [-70.8178697719999, -33.2385177701345], [-70.8178688709999, -33.2385173321345], [-70.8177815339999, -33.2384724221345], [-70.8174794779999, -33.2388665681345]]]}, "properties": {"MANZENT": 13302031002059, "LOCALIDAD": "BATUCO", "ENTIDAD": "BATUCO", "CATEGORIA": "Ciudad", "n_per": 20, "n_hombres": 15, "n_mujeres": 5, "prom_edad": 41, "n_hog": 11, "n_vp": 14, "n_vp_ocupada": 13, "n_deficit_cuantitativo": 2, "n_viv_hacinadas": 0, "n_serv_hig_alc_dentro": 0, "n_fuente_agua_publica": 1, "n_fuente_agua_pozo": 6, "n_transporte_publico": 4, "n_transporte_auto": 5, "n_internet": 10}}, {"type": "Feature", "geometry": {"type": "Polygon", "coordinates": [[[-70.8198342239999, -33.2393990201345], [-70.8198342519999, -33.2393990341345], [-70.8201091689999, -33.2389945371345], [-70.8200670589999, -33.2389743801345], [-70.8191266159999, -33.2385242031345], [-70.8188531329999, -33.2389302271345], [-70.8198052909999, -33.2393851951345], [-70.8198342239999, -33.2393990201345]]]}, "properties": {"MANZENT": 13302031002060, "LOCALIDAD": "BATUCO", "ENTIDAD": "BATUCO", "CATEGORIA": "Ciudad", "n_per": 36, "n_hombres": 18, "n_mujeres": 18, "prom_edad": 26.4, "n_hog": 11, "n_vp": 12, "n_vp_ocupada": 12, "n_deficit_cuantitativo": 2, "n_viv_hacinadas": 5, "n_serv_hig_alc_dentro": 0, "n_fuente_agua_publica": 0, "n_fuente_agua_pozo": 10, "n_transporte_publico": 11, "n_transporte_auto": 2, "n_internet": 11}}, {"type": "Feature", "geometry": {"type": "Polygon", "coordinates": [[[-70.8182252519999, -33.2397660501345], [-70.8184871539999, -33.2393877171345], [-70.8174562359999, -33.2388968951345], [-70.817443824, -33.2389130911345], [-70.8172010999999, -33.2392831811345], [-70.817189186, -33.2393026911345], [-70.8171649779999, -33.2393423351345], [-70.8182037779999, -33.2397970711345], [-70.8182252519999, -33.2397660501345]]]}, "properties": {"MANZENT": 13302031002062, "LOCALIDAD": "BATUCO", "ENTIDAD": "BATUCO", "CATEGORIA": "Ciudad", "n_per": 41, "n_hombres": 24, "n_mujeres": 17, "prom_edad": 29.4, "n_hog": 12, "n_vp": 14, "n_vp_ocupada": 14, "n_deficit_cuantitativo": 0, "n_viv_hacinadas": 3, "n_serv_hig_alc_dentro": 1, "n_fuente_agua_publica": 0, "n_fuente_agua_pozo": 11, "n_transporte_publico": 7, "n_transporte_auto": 3, "n_internet": 11}}, {"type": "Feature", "geometry": {"type": "Polygon", "coordinates": [[[-70.8195319299999, -33.2398437321345], [-70.8195319869999, -33.2398437591345], [-70.819561286, -33.2398006511345], [-70.8196390979999, -33.2396861641345], [-70.8197677629999, -33.2394968651345], [-70.8198129979999, -33.2394303051345], [-70.8197841069999, -33.2394165011345], [-70.8188318039999, -33.2389614621345], [-70.8185459929999, -33.2393743391345], [-70.8195038819999, -33.2398303791345], [-70.8195319299999, -33.2398437321345]]]}, "properties": {"MANZENT": 13302031002063, "LOCALIDAD": "BATUCO", "ENTIDAD": "BATUCO", "CATEGORIA": "Ciudad", "n_per": 34, "n_hombres": 18, "n_mujeres": 16, "prom_edad": 30.5, "n_hog": 12, "n_vp": 15, "n_vp_ocupada": 14, "n_deficit_cuantitativo": 0, "n_viv_hacinadas": 1, "n_serv_hig_alc_dentro": 1, "n_fuente_agua_publica": 0, "n_fuente_agua_pozo": 10, "n_transporte_publico": 9, "n_transporte_auto": 3, "n_internet": 11}}, {"type": "Feature", "geometry": {"type": "Polygon", "coordinates": [[[-70.8191224049999, -33.2402816551345], [-70.8186556039999, -33.2400873011345], [-70.8185581669999, -33.2400693221345], [-70.8184887419999, -33.2400422871345], [-70.8182975459999, -33.2399678321345], [-70.8181546199999, -33.2399121741345], [-70.8181524229999, -33.2399113241345], [-70.8178713049999, -33.2398024931345], [-70.8175460809999, -33.2396765861345], [-70.817091591, -33.2395006331345], [-70.8170543179999, -33.2394862031345], [-70.8170436259999, -33.2394820631345], [-70.8169180869999, -33.2394290401345], [-70.8166846159999, -33.2393304311345], [-70.8166502199999, -33.2392573841345], [-70.8165271259999, -33.2392061311345], [-70.816506467, -33.2392569981345], [-70.816457135, -33.2393784711345], [-70.8164566819999, -33.2393794861345], [-70.8164561489999, -33.2393804901345], [-70.816442735, -33.2394038141345], [-70.81636334, -33.2395418591345], [-70.8163621599999, -33.2395436451345], [-70.8163614619999, -33.2395445151345], [-70.8162550899999, -33.2396692041345], [-70.8162505889999, -33.2396894521345], [-70.8162270839999, -33.2397140311345], [-70.8162218609999, -33.2397313321345], [-70.8162259989999, -33.2397446191345], [-70.8162371379999, -33.2397539251345], [-70.8163139929999, -33.2397858091345], [-70.8169025329999, -33.2400092491345], [-70.8172409979999, -33.2401334571345], [-70.8175486669999, -33.2402463641344], [-70.8180893049999, -33.2404365911345], [-70.8186491409999, -33.2406338011345], [-70.8188276529999, -33.2406966851345], [-70.8188832459999, -33.2407162681344], [-70.8189284139999, -33.2407318171344], [-70.8191778709999, -33.2403647841345], [-70.8192096739999, -33.2403179901345], [-70.8191407329999, -33.2402892861345], [-70.8191224049999, -33.2402816551345]]]}, "properties": {"MANZENT": 13302031002064, "LOCALIDAD": "BATUCO", "ENTIDAD": "BATUCO", "CATEGORIA": "Ciudad", "n_per": 86, "n_hombres": 44, "n_mujeres": 42, "prom_edad": 23, "n_hog": 29, "n_vp": 36, "n_vp_ocupada": 35, "n_deficit_cuantitativo": 1, "n_viv_hacinadas": 7, "n_serv_hig_alc_dentro": 5, "n_fuente_agua_publica": 7, "n_fuente_agua_pozo": 16, "n_transporte_publico": 17, "n_transporte_auto": 8, "n_internet": 28}}, {"type": "Feature", "geometry": {"type": "Polygon", "coordinates": [[[-70.8192336369999, -33.2402827331345], [-70.8192444079999, -33.2402668841345], [-70.8195107339999, -33.2398750301345], [-70.8194827579999, -33.2398617131345], [-70.8185244429999, -33.2394054701345], [-70.8182415939999, -33.2398140621345], [-70.8186099489999, -33.2399834941345], [-70.8186939789999, -33.2400498191345], [-70.8187935009999, -33.2400927731345], [-70.8190969279999, -33.2402237311345], [-70.8191083389999, -33.2402286561345], [-70.8192336369999, -33.2402827331345]]]}, "properties": {"MANZENT": 13302031002067, "LOCALIDAD": "BATUCO", "ENTIDAD": "BATUCO", "CATEGORIA": "Ciudad", "n_per": 29, "n_hombres": 17, "n_mujeres": 12, "prom_edad": 27.3, "n_hog": 11, "n_vp": 13, "n_vp_ocupada": 13, "n_deficit_cuantitativo": 0, "n_viv_hacinadas": 1, "n_serv_hig_alc_dentro": 0, "n_fuente_agua_publica": 0, "n_fuente_agua_pozo": 10, "n_transporte_publico": 7, "n_transporte_auto": 2, "n_internet": 11}}, {"type": "Feature", "geometry": {"type": "Polygon", "coordinates": [[[-70.8065581509999, -33.2433629551345], [-70.8065626629999, -33.2433626011344], [-70.8065882679999, -33.2433605901345], [-70.8065928429999, -33.2433602311344], [-70.8065933529999, -33.2433601911345], [-70.8066011719999, -33.2433595771344], [-70.806609739, -33.2433589041344], [-70.8074934829999, -33.2432894751344], [-70.8109622139999, -33.2429941451345], [-70.8110802609999, -33.2429840941344], [-70.8110876989999, -33.2429834611344], [-70.8113467189999, -33.2429614081344], [-70.8113676439999, -33.2429596261345], [-70.8113846929999, -33.2429937341344], [-70.811390635, -33.2430056211345], [-70.8113967079999, -33.2430177691345], [-70.8113984109999, -33.2430187721344], [-70.8113989779999, -33.2430191061345], [-70.8114311339999, -33.2430380511344], [-70.8114311669999, -33.2430380681344], [-70.8114599299999, -33.2430496381345], [-70.811460597, -33.2430499061345], [-70.8114632799999, -33.2430509851345], [-70.8114686469999, -33.2430531431344], [-70.8115121399999, -33.2430603141344], [-70.8115957089999, -33.2430590971345], [-70.8116605459999, -33.2430503471344], [-70.8117495529999, -33.2430126281344], [-70.8119676969999, -33.2429314011345], [-70.8119980579999, -33.2429023411344], [-70.8120224969999, -33.2428863751345], [-70.81261459, -33.2428470411344], [-70.8131262759999, -33.2428130491345], [-70.8131842319999, -33.2428070321344], [-70.8134573719999, -33.2427786721344], [-70.8134680509999, -33.2427775631345], [-70.8135113419999, -33.2427730681345], [-70.813544481, -33.2426896071345], [-70.8135443289999, -33.2426880841345], [-70.8135415409999, -33.2426813141344], [-70.8135365789999, -33.2426692631344], [-70.8135337459999, -33.2426661331344], [-70.8135292249999, -33.2426498761344], [-70.8135319949999, -33.2426288091345], [-70.8135320999999, -33.2426280101344], [-70.8135328879999, -33.2426255861344], [-70.8135333309999, -33.2426242211344], [-70.8135403749999, -33.2426025481344], [-70.8135495049999, -33.2425801711344], [-70.8135645839999, -33.2425432161344], [-70.8135758479999, -33.2425159281345], [-70.8135940859999, -33.2424717461344], [-70.8136262649999, -33.2423937891345], [-70.8136430659999, -33.2423530861344], [-70.8136533869999, -33.2423280831345], [-70.8136689919999, -33.2422902791344], [-70.8136899179999, -33.2422395841345], [-70.8137194089999, -33.2421681401344], [-70.8137196309999, -33.2421676001345], [-70.8137305479999, -33.2421399511345], [-70.8137350309999, -33.2421285971344], [-70.8137373969999, -33.2421184621345], [-70.8137355419999, -33.2421065851344], [-70.813729711, -33.2420996361344], [-70.8137011309999, -33.2420876981344], [-70.8136633539999, -33.2420721071345], [-70.8136551839999, -33.2420690601345], [-70.8136513519999, -33.2420676311345], [-70.8135715069999, -33.2420378581345], [-70.8134468399999, -33.2419913711344], [-70.8133450999999, -33.2419534341344], [-70.8132698929999, -33.2419253901345], [-70.8131426309999, -33.2418779351345], [-70.8130960219999, -33.2418605551345], [-70.8130227879999, -33.2418332461345], [-70.8128721929999, -33.2417770911345], [-70.8128073199999, -33.2417529001345], [-70.8128191449999, -33.2417304751345], [-70.8128191819999, -33.2417304051345], [-70.8128192189999, -33.2417303361344], [-70.8128312809999, -33.2417074601344], [-70.8137369769999, -33.2420461431344], [-70.8137501029999, -33.2420477551344], [-70.8137610789999, -33.2420439881344], [-70.813768766, -33.2420368421345], [-70.8137747339999, -33.2420296301344], [-70.8138972949999, -33.2417224921345], [-70.813745148, -33.2416615271345], [-70.8137439789999, -33.2416610211344], [-70.8137408779999, -33.2416592631344], [-70.8137396459999, -33.2416583571345], [-70.8136599679999, -33.2415950961344], [-70.8136585089999, -33.2415938181345], [-70.8136568289999, -33.2415919641345], [-70.8135895529999, -33.2415068341345], [-70.8135491059999, -33.2414700711344], [-70.8135088519999, -33.2414479181345], [-70.8134475629999, -33.2414190621344], [-70.8134467429999, -33.2414185951344], [-70.8134675079999, -33.2413872041344], [-70.8134685009999, -33.2413875771345], [-70.813530479, -33.2414167571345], [-70.8135317469999, -33.2414174041345], [-70.8135748299999, -33.2414411141345], [-70.8135765789999, -33.2414421861344], [-70.8135788299999, -33.2414439581345], [-70.8136222369999, -33.2414834111345], [-70.8136226769999, -33.2414838231345], [-70.8136243569999, -33.2414856771345], [-70.8136912279999, -33.2415702951344], [-70.8137666699999, -33.2416301921345], [-70.8139110419999, -33.2416880421345], [-70.8139545249999, -33.2415790731345], [-70.8142657219999, -33.2408348591345], [-70.8144370949999, -33.2404238341345], [-70.8144438459999, -33.2404025421344], [-70.8144440599999, -33.2403869381344], [-70.8144422249999, -33.2403738271345], [-70.8144420449999, -33.2403725381345], [-70.8144286419999, -33.2403523521345], [-70.8139914719999, -33.2402038881345], [-70.8139326719999, -33.2401821091345], [-70.8137502849999, -33.2401145531345], [-70.8128044509999, -33.2397642131345], [-70.8125556439999, -33.2402802851345], [-70.8125401199999, -33.2402919001345], [-70.8125337449999, -33.2402897141344], [-70.8124957329999, -33.2402738171345], [-70.8124920729999, -33.2402511771345], [-70.8127392919999, -33.2397400781345], [-70.8126583639999, -33.2397101021345], [-70.8118636029999, -33.2394153361345], [-70.8118299659999, -33.2394390941345], [-70.8118023979999, -33.2394605081345], [-70.8113517279999, -33.2403063991345], [-70.8108883589999, -33.2411821431345], [-70.8107645929999, -33.2414342011345], [-70.8104787499999, -33.2420163411345], [-70.8100160779999, -33.2429371631345], [-70.8099708849999, -33.2429210471344], [-70.8104334559999, -33.2420004971344], [-70.810449521, -33.2419677081345], [-70.8104256919999, -33.2419466811345], [-70.8103882009999, -33.2419345121345], [-70.8097267789999, -33.2416895561344], [-70.8091722029999, -33.2414838941345], [-70.8091492409999, -33.2414841381344], [-70.8091464359999, -33.2414852241344], [-70.809131567, -33.2414909781345], [-70.8091131299999, -33.2415076601345], [-70.8084640719999, -33.2428370081344], [-70.8084309979999, -33.2428256751345], [-70.8090801629999, -33.2414963261345], [-70.8090809039999, -33.2414801721345], [-70.8090773619999, -33.2414645321345], [-70.8090749489999, -33.2414608571345], [-70.8090673899999, -33.2414493461345], [-70.8090453469999, -33.2414368611345], [-70.8088912379999, -33.2413796731345], [-70.8081572469999, -33.2411072661344], [-70.8075627629999, -33.2408835551345], [-70.8073005319999, -33.2407848751344], [-70.8066778119999, -33.2405475701345], [-70.8066184469999, -33.2405224471345], [-70.8066070249999, -33.2405224471345], [-70.8065963179999, -33.2405231611345], [-70.8065856099999, -33.2405245881344], [-70.8065749029999, -33.2405302991345], [-70.8065699059999, -33.2405352961345], [-70.8065677639999, -33.2405552831345], [-70.8065658459999, -33.2407347841345], [-70.8065647859999, -33.2408861271345], [-70.8065610869999, -33.2414141201345], [-70.8065622769999, -33.2421017841345], [-70.8065575179999, -33.2431451781345], [-70.8065729839999, -33.2431463681344], [-70.8066125859999, -33.2431411091345], [-70.8075739109999, -33.2430642441344], [-70.8075767549999, -33.2431010161345], [-70.8066037119999, -33.2431782861344], [-70.8065900389999, -33.2431797191345], [-70.8065563279999, -33.2431832491344], [-70.8065581509999, -33.2433629551345]]]}, "properties": {"MANZENT": 13302031002068, "LOCALIDAD": "BATUCO", "ENTIDAD": "BATUCO", "CATEGORIA": "Ciudad", "n_per": 248, "n_hombres": 135, "n_mujeres": 113, "prom_edad": 42.6, "n_hog": 80, "n_vp": 81, "n_vp_ocupada": 78, "n_deficit_cuantitativo": 3, "n_viv_hacinadas": 4, "n_serv_hig_alc_dentro": 12, "n_fuente_agua_publica": 71, "n_fuente_agua_pozo": 6, "n_transporte_publico": 36, "n_transporte_auto": 43, "n_internet": 73}}, {"type": "Feature", "geometry": {"type": "Polygon", "coordinates": [[[-70.8187707289999, -33.2416362371345], [-70.8194783259999, -33.2418554881345], [-70.8194811589999, -33.2418521021345], [-70.8194994809999, -33.2418301981345], [-70.8195123869999, -33.2418108001345], [-70.8195514789999, -33.2417241051345], [-70.8196530949999, -33.2414799381345], [-70.8197870839999, -33.2411511571345], [-70.8197909829999, -33.2411062801345], [-70.8195051439999, -33.2410055811345], [-70.818851418, -33.2407806721344], [-70.8185853069999, -33.2406869271345], [-70.8180572599999, -33.2405009081345], [-70.8175159729999, -33.2403104211345], [-70.8171847489999, -33.2401888751345], [-70.8168688649999, -33.2400729591345], [-70.8162798929999, -33.2398493441345], [-70.8162251139999, -33.2398263371345], [-70.8162026009999, -33.2398171061345], [-70.8161853079999, -33.2398112261345], [-70.8161681369999, -33.2398112071345], [-70.8161466359999, -33.2398145871345], [-70.8161314469999, -33.2398222041345], [-70.8161192109999, -33.2398324831345], [-70.8161096709999, -33.2398485841345], [-70.8160968649999, -33.2398832211345], [-70.8160742829999, -33.2399640831345], [-70.8160508239999, -33.2400232251345], [-70.8158066529999, -33.2406448981344], [-70.815803404, -33.2406746161344], [-70.8158027989999, -33.2406972601345], [-70.8158086209999, -33.2407141291345], [-70.8158230539999, -33.2407322261344], [-70.8162798119999, -33.2408778721345], [-70.8164373179999, -33.2409252581345], [-70.8168081059999, -33.2410368111345], [-70.8177736189999, -33.2413304011344], [-70.8178017669999, -33.2413390351345], [-70.8187707289999, -33.2416362371345]]]}, "properties": {"MANZENT": 13302031002069, "LOCALIDAD": "BATUCO", "ENTIDAD": "BATUCO", "CATEGORIA": "Ciudad", "n_per": 171, "n_hombres": 89, "n_mujeres": 82, "prom_edad": 36.9, "n_hog": 55, "n_vp": 60, "n_vp_ocupada": 59, "n_deficit_cuantitativo": 1, "n_viv_hacinadas": 6, "n_serv_hig_alc_dentro": 23, "n_fuente_agua_publica": 51, "n_fuente_agua_pozo": 2, "n_transporte_publico": 33, "n_transporte_auto": 20, "n_internet": 54}}, {"type": "Feature", "geometry": {"type": "Polygon", "coordinates": [[[-70.815653902, -33.2407365891345], [-70.8146265329999, -33.2404196261345], [-70.8145595259999, -33.2403968861345], [-70.8145459429999, -33.2403991591345], [-70.8145332099999, -33.2404037151345], [-70.8145301759999, -33.2404048001345], [-70.8145075879999, -33.2404230761345], [-70.8144943219999, -33.2404406741345], [-70.8143228419999, -33.2408517011345], [-70.8141446969999, -33.2412778861344], [-70.8141429889999, -33.2412938731345], [-70.8141473299999, -33.2413066161344], [-70.8141581419999, -33.2413208871344], [-70.8141744269999, -33.2413299381344], [-70.8141931049999, -33.2413353471345], [-70.8152420419999, -33.2416672401344], [-70.8152636889999, -33.2416708921345], [-70.8152779509999, -33.2416703231344], [-70.8152914249999, -33.2416628211344], [-70.8153011919999, -33.2416472571345], [-70.8156577869999, -33.2408206731344], [-70.8156629869999, -33.2407970591345], [-70.8156625859999, -33.2407673051345], [-70.815657756, -33.2407516841345], [-70.815653902, -33.2407365891345]]]}, "properties": {"MANZENT": 13302031002071, "LOCALIDAD": "BATUCO", "ENTIDAD": "BATUCO", "CATEGORIA": "Ciudad", "n_per": 45, "n_hombres": 26, "n_mujeres": 19, "prom_edad": 39.5, "n_hog": 15, "n_vp": 15, "n_vp_ocupada": 15, "n_deficit_cuantitativo": 0, "n_viv_hacinadas": 0, "n_serv_hig_alc_dentro": 0, "n_fuente_agua_publica": 15, "n_fuente_agua_pozo": 0, "n_transporte_publico": 4, "n_transporte_auto": 11, "n_internet": 15}}, {"type": "Feature", "geometry": {"type": "Polygon", "coordinates": [[[-70.8162572209999, -33.2420062901345], [-70.8162372639999, -33.2420532051345], [-70.8155132119999, -33.2418357051344], [-70.8153732249999, -33.2417936541344], [-70.8153522199999, -33.2417899021344], [-70.8153336839999, -33.2417913451345], [-70.8153204309999, -33.2417992041345], [-70.815314553, -33.2418107431344], [-70.8152596609999, -33.2419380701345], [-70.8151454739999, -33.2421980071345], [-70.8150247379999, -33.2424728521344], [-70.8150193019999, -33.2424902461344], [-70.815022429, -33.2425065231344], [-70.8150319369999, -33.2425147721344], [-70.8150495799999, -33.2425168591344], [-70.8163349499999, -33.2424019551345], [-70.8164530749999, -33.2423898591345], [-70.8165481249999, -33.2423823881345], [-70.8173381069999, -33.2423202921344], [-70.8181445439999, -33.2422439321344], [-70.8188990829999, -33.2421801411345], [-70.8197182619999, -33.2421076431345], [-70.8198539839999, -33.2420902351344], [-70.8199020449999, -33.2420789811345], [-70.8199244529999, -33.2420675601345], [-70.8199390029999, -33.2420498521344], [-70.8196120859999, -33.2419505661345], [-70.8187507459999, -33.2416818001344], [-70.8177563639999, -33.2413768221345], [-70.8177538509999, -33.2413760511344], [-70.8167884469999, -33.2410825501345], [-70.8163971929999, -33.2409647901345], [-70.8162603669999, -33.2409236081345], [-70.815804468, -33.2407829681345], [-70.8157998199999, -33.2407815341345], [-70.815780549, -33.2407941701345], [-70.8157548009999, -33.2408101481345], [-70.8157319839999, -33.2408433071344], [-70.8153622759999, -33.2417001141345], [-70.8153625189999, -33.2417118341345], [-70.8153640729999, -33.2417247081344], [-70.8153711409999, -33.2417343441345], [-70.8153931829999, -33.2417467381345], [-70.8155543679999, -33.2417951571345], [-70.8162572209999, -33.2420062901345]]]}, "properties": {"MANZENT": 13302031002072, "LOCALIDAD": "BATUCO", "ENTIDAD": "BATUCO", "CATEGORIA": "Ciudad", "n_per": 228, "n_hombres": 107, "n_mujeres": 121, "prom_edad": 38.6, "n_hog": 72, "n_vp": 74, "n_vp_ocupada": 70, "n_deficit_cuantitativo": 4, "n_viv_hacinadas": 3, "n_serv_hig_alc_dentro": 3, "n_fuente_agua_publica": 69, "n_fuente_agua_pozo": 1, "n_transporte_publico": 34, "n_transporte_auto": 33, "n_internet": 65}}, {"type": "Feature", "geometry": {"type": "Polygon", "coordinates": [[[-70.8136215219999, -33.2426551141344], [-70.8136586609999, -33.2426553831344], [-70.8148007179999, -33.2425376671345], [-70.8148633529999, -33.2425312111344], [-70.8148895919999, -33.2425285731345], [-70.8149043249999, -33.2425248411344], [-70.8149153139999, -33.2425164741345], [-70.8149330019999, -33.2424843811345], [-70.8149507489999, -33.2424499431344], [-70.8149972649999, -33.2423440261345], [-70.8151855679999, -33.2419152531345], [-70.8152530589999, -33.2417588841344], [-70.8152519319999, -33.2417459141344], [-70.8152452189999, -33.2417326651344], [-70.8152372099999, -33.2417242151344], [-70.8152196769999, -33.2417170761344], [-70.8141708469999, -33.2413851821345], [-70.8141414149999, -33.2413838981345], [-70.8141219439999, -33.2413868871345], [-70.8141079839999, -33.2413916901345], [-70.8140920259999, -33.2414036471344], [-70.8140117469999, -33.2415956431344], [-70.8137769589999, -33.2421840801345], [-70.8136215999999, -33.2425601511345], [-70.8136001819999, -33.2426091611345], [-70.8135946319999, -33.2426314271344], [-70.8135947999999, -33.2426395411345], [-70.8135977199999, -33.2426458111344], [-70.8136066459999, -33.2426519041345], [-70.8136215219999, -33.2426551141344]]]}, "properties": {"MANZENT": 13302031002074, "LOCALIDAD": "BATUCO", "ENTIDAD": "BATUCO", "CATEGORIA": "Ciudad", "n_per": 83, "n_hombres": 38, "n_mujeres": 45, "prom_edad": 35.4, "n_hog": 25, "n_vp": 25, "n_vp_ocupada": 25, "n_deficit_cuantitativo": 1, "n_viv_hacinadas": 1, "n_serv_hig_alc_dentro": 1, "n_fuente_agua_publica": 23, "n_fuente_agua_pozo": 2, "n_transporte_publico": 13, "n_transporte_auto": 11, "n_internet": 25}}, {"type": "Feature", "geometry": {"type": "Polygon", "coordinates": [[[-70.8222723419999, -33.2447962021344], [-70.8223858189999, -33.2448300741344], [-70.8225113979999, -33.2448675581344], [-70.8229973809999, -33.2450126201344], [-70.8230781919999, -33.2450348061344], [-70.8232106879999, -33.2450711821344], [-70.8234564599999, -33.2451321491344], [-70.8242305239999, -33.2453502381344], [-70.8243623109999, -33.2453873681344], [-70.824473527, -33.2454187031344], [-70.8245871439999, -33.2454507141344], [-70.8247722239999, -33.2455028601344], [-70.8248410109999, -33.2455222401344], [-70.8248785719999, -33.2454304861344], [-70.8249058599999, -33.2453638271344], [-70.8250705379999, -33.2449615541344], [-70.8250723449999, -33.2449574661344], [-70.8251737759999, -33.2447975351344], [-70.8252035559999, -33.2447505791344], [-70.8252056129999, -33.2447473351344], [-70.8252212159999, -33.2447043661344], [-70.8252522739999, -33.2447137011345], [-70.8253188709999, -33.2447337181344], [-70.8265554659999, -33.2451053971344], [-70.8271195489999, -33.2452749421344], [-70.8273595799999, -33.2453470881344], [-70.8273908509999, -33.2453564871344], [-70.8277069149999, -33.2454514851344], [-70.8281168149999, -33.2445432431344], [-70.8280910149999, -33.2445354411344], [-70.8280145429999, -33.2445123151344], [-70.8278020719999, -33.2444480621344], [-70.826995597, -33.2442033481344], [-70.826357776, -33.2440072841345], [-70.8262344409999, -33.2439702401344], [-70.8255270609999, -33.2437577761344], [-70.8249692649999, -33.2435802791345], [-70.8247897029999, -33.2435258751344], [-70.824676742, -33.2434944171344], [-70.8245962149999, -33.2434693371344], [-70.8243628519999, -33.2433966571345], [-70.8241031989999, -33.2433180231344], [-70.8236265749999, -33.2431735421345], [-70.8235724169999, -33.2431571251344], [-70.8235437619999, -33.2431489401344], [-70.8235202639999, -33.2431700171345], [-70.8235053359999, -33.2432005371344], [-70.8233256929999, -33.2436611151345], [-70.8232279009999, -33.2438874631345], [-70.8231170159999, -33.2440725191344], [-70.8231146789999, -33.2440788661344], [-70.8231157849999, -33.2440856131344], [-70.823118555, -33.2440898111344], [-70.8231243469999, -33.2440947771344], [-70.8231348489999, -33.2440994531344], [-70.8231357209999, -33.2440998411344], [-70.8233282989999, -33.2441567311344], [-70.8236269469999, -33.2442449551344], [-70.8240337969999, -33.2443631671344], [-70.8242251819999, -33.2444368341344], [-70.8242561609999, -33.2444505381345], [-70.8242897509999, -33.2444710571344], [-70.8243142389999, -33.2444926121344], [-70.8243281149999, -33.2445199141345], [-70.8243348649999, -33.2445503871344], [-70.8243376269999, -33.2445851561344], [-70.8243337839999, -33.2446946031344], [-70.82432739, -33.2447897491344], [-70.8243270549999, -33.2448459371344], [-70.8243375249999, -33.2448797821344], [-70.8243605419999, -33.2449080321344], [-70.8243283009999, -33.2449265411344], [-70.824301536, -33.2448935671344], [-70.8242879689999, -33.2448501181344], [-70.8242884089999, -33.2447886971344], [-70.8242947959999, -33.2446931911344], [-70.824298698, -33.2445813991344], [-70.8242950249999, -33.2445492581344], [-70.8242846539999, -33.2445201911344], [-70.8242658789999, -33.2444998151344], [-70.8242383499999, -33.2444817311344], [-70.8242166429999, -33.2444700561344], [-70.8240192979999, -33.2443936811344], [-70.8236140689999, -33.2442759861344], [-70.8232282449999, -33.2441617221344], [-70.8231251049999, -33.2441311761344], [-70.8231120499999, -33.2441260701344], [-70.8230988969999, -33.2441199501344], [-70.8230857879999, -33.2441088691344], [-70.8230778499999, -33.2440987051344], [-70.8230739719999, -33.2440876691344], [-70.8230737379999, -33.2440764001344], [-70.8230777139999, -33.2440663321344], [-70.8230932709999, -33.2440402211344], [-70.8231919999999, -33.2438744621344], [-70.8232887659999, -33.2436503841344], [-70.8234683129999, -33.2431903491344], [-70.8234778519999, -33.2431587351344], [-70.8234763239999, -33.2431264731345], [-70.8233969159999, -33.2431029471344], [-70.8233498719999, -33.2430890091345], [-70.8233323919999, -33.2430837721344], [-70.8233019779999, -33.2430746601344], [-70.8233001539999, -33.2430877761344], [-70.8232988649999, -33.2430970401345], [-70.8232987439999, -33.2430979091344], [-70.8232983799999, -33.2431005221345], [-70.8232980159999, -33.2431031381344], [-70.8232978099999, -33.2431043551344], [-70.8232977959999, -33.2431044401345], [-70.8232920309999, -33.2431385211344], [-70.8232919009999, -33.2431441041345], [-70.8232917709999, -33.2431496831345], [-70.8232893459999, -33.2432763561345], [-70.8232868419999, -33.2433140441344], [-70.8232833009999, -33.2433407931345], [-70.8232781919999, -33.2433679121345], [-70.8232663669999, -33.2434273001344], [-70.8232393829999, -33.2435403821344], [-70.8232303779999, -33.2435661491344], [-70.8231996219999, -33.2436480571344], [-70.823194972, -33.2436571541344], [-70.8231903219999, -33.2436662521344], [-70.8231678809999, -33.2437086801344], [-70.8231263489999, -33.2437827601344], [-70.8230923839999, -33.2438380531344], [-70.8230642389999, -33.2438943931344], [-70.8230596029999, -33.2439005661344], [-70.8230549739999, -33.2439067301344], [-70.8230034509999, -33.2439737201344], [-70.8229972219999, -33.2439794221344], [-70.8229909929999, -33.2439851261344], [-70.8229763949999, -33.2439942301344], [-70.8229691019999, -33.2439978311344], [-70.8229618159999, -33.2440014311344], [-70.822938528, -33.2440113631344], [-70.82290008, -33.2440268121345], [-70.8228917509999, -33.2440290391344], [-70.8228834209999, -33.2440312691344], [-70.8228517419999, -33.2440373581344], [-70.8228124369999, -33.2440433481344], [-70.8227998539999, -33.2440442541344], [-70.8227872699999, -33.2440451611344], [-70.8227532199999, -33.2440455671344], [-70.822740484, -33.2440450121344], [-70.8227277469999, -33.2440444591344], [-70.8226405039999, -33.2440404931344], [-70.8225389359999, -33.2440340301345], [-70.8225182449999, -33.2440348141344], [-70.8225062759999, -33.2440368771344], [-70.8224944799999, -33.2440405001344], [-70.822482637, -33.2440454951345], [-70.8224569529999, -33.2440585331344], [-70.8224005269999, -33.2440872521344], [-70.8223508759999, -33.2441160111344], [-70.8223356549999, -33.2441274261344], [-70.8223309989999, -33.2441316431344], [-70.822326357, -33.2441358481344], [-70.8223191769999, -33.2441432131344], [-70.8223191499999, -33.2441432421344], [-70.8222856679999, -33.2441775951344], [-70.822279266, -33.2441822811344], [-70.8222728649999, -33.2441869691344], [-70.8222723189999, -33.2441873391344], [-70.8222503269999, -33.2442022851344], [-70.8222459269999, -33.2442065601344], [-70.8222415289999, -33.2442108341344], [-70.8222339279999, -33.2442208261344], [-70.8222313039999, -33.2442256631344], [-70.8222286829999, -33.2442304971344], [-70.8222232689999, -33.2442464011344], [-70.822220151, -33.2442645561344], [-70.8222198329999, -33.2442711921344], [-70.8222195159999, -33.2442778301344], [-70.8222146809999, -33.2443694491344], [-70.8222147729999, -33.2443991861344], [-70.822216609, -33.2444417811344], [-70.8222226939999, -33.2445020811344], [-70.8222249799999, -33.2445117521344], [-70.8222272649999, -33.2445214151344], [-70.8222391919999, -33.2445665791344], [-70.8222428719999, -33.2445805131344], [-70.8222501549999, -33.2446236281344], [-70.8222511389999, -33.2446337791345], [-70.8222521239999, -33.2446439341344], [-70.8222575479999, -33.2447101321344], [-70.8222701579999, -33.2447867001344], [-70.8222723119999, -33.2447960701344], [-70.822272327, -33.2447961361344], [-70.8222723419999, -33.2447962021344]]]}, "properties": {"MANZENT": 13302031002078, "LOCALIDAD": "BATUCO", "ENTIDAD": "BATUCO", "CATEGORIA": "Ciudad", "n_per": 182, "n_hombres": 82, "n_mujeres": 100, "prom_edad": 35.4, "n_hog": 65, "n_vp": 69, "n_vp_ocupada": 67, "n_deficit_cuantitativo": 3, "n_viv_hacinadas": 2, "n_serv_hig_alc_dentro": 12, "n_fuente_agua_publica": 61, "n_fuente_agua_pozo": 2, "n_transporte_publico": 31, "n_transporte_auto": 31, "n_internet": 62}}]}