{
"type": "FeatureCollection",
"name": "cercos",
"crs": { "type": "name", "properties": { "name": "urn:ogc:def:crs:OGC:1.3:CRS84" } },
"features": [
{ "type": "Feature", "properties": { "fid": 244, "Area": 6343553.083 }, "geometry": { "type": "MultiPolygon", "coordinates": [ [ [ [ -70.771892522584224, -33.289579935047577 ], [ -70.771148760285726, -33.289252951550566 ], [ -70.771920102797807, -33.288367185736121 ], [ -70.772323633185295, -33.28790748523884 ], [ -70.772544380591015, -33.287654827072103 ], [ -70.772753751597705, -33.287417454769113 ], [ -70.77346986777998, -33.286625637794131 ], [ -70.773719639586091, -33.286333150790981 ], [ -70.774427473184332, -33.285525965354964 ], [ -70.776146200270219, -33.283564754171124 ], [ -70.777793224589303, -33.28168291001144 ], [ -70.779148434291528, -33.280129493798235 ], [ -70.780221913987361, -33.278904209542645 ], [ -70.780510795361465, -33.278572886358731 ], [ -70.780579980179127, -33.278493053584036 ], [ -70.780927076835681, -33.278097657440185 ], [ -70.781251160983018, -33.277722800914148 ], [ -70.781388429178349, -33.277570688624209 ], [ -70.781428071587655, -33.277524584354495 ], [ -70.781694431171161, -33.277224837312595 ], [ -70.782798970112836, -33.275983190116051 ], [ -70.784528520071646, -33.274007138066914 ], [ -70.784981020082569, -33.273470681090522 ], [ -70.785137030720676, -33.273286857420381 ], [ -70.785345228206353, -33.273051924557301 ], [ -70.78573808710189, -33.272607947871343 ], [ -70.785988555529357, -33.272322510365868 ], [ -70.786479324168141, -33.271758330882633 ], [ -70.786765279638871, -33.271436394320318 ], [ -70.786887454443004, -33.271291691566219 ], [ -70.78701939333807, -33.271140195579378 ], [ -70.787663994210519, -33.270408825582393 ], [ -70.788045470732598, -33.269983095460994 ], [ -70.788516046464252, -33.269440014659665 ], [ -70.78858351160666, -33.269358000374204 ], [ -70.789066389436769, -33.268804852435942 ], [ -70.789471893285537, -33.268348607750944 ], [ -70.791168828655415, -33.26639645992082 ], [ -70.79146725777133, -33.266057574482325 ], [ -70.791723140634502, -33.265766910959101 ], [ -70.791874247296022, -33.265594382160408 ], [ -70.792278550747881, -33.265132536169652 ], [ -70.792449112597296, -33.264935915001331 ], [ -70.792942941708517, -33.264373739281019 ], [ -70.793135803915646, -33.264160630604962 ], [ -70.793322607607024, -33.26394071171714 ], [ -70.793453875526239, -33.263789196307286 ], [ -70.793623171815355, -33.263599666581158 ], [ -70.793789578766905, -33.263409673138902 ], [ -70.794295551592867, -33.262826934661796 ], [ -70.79455399385229, -33.262533562832218 ], [ -70.794805211072287, -33.262243678669272 ], [ -70.795001433564479, -33.262017766147061 ], [ -70.795461701771188, -33.261492932356667 ], [ -70.795524038353804, -33.261420764338276 ], [ -70.795659152914965, -33.261277153812102 ], [ -70.795761473738125, -33.261151209207171 ], [ -70.795900296180889, -33.26099759844864 ], [ -70.796059143094624, -33.260789420570944 ], [ -70.796220345512026, -33.260600385071633 ], [ -70.796495032217877, -33.260287422251672 ], [ -70.796582449861944, -33.260192257696922 ], [ -70.796666171986232, -33.260098693830912 ], [ -70.796713375987039, -33.260042395905032 ], [ -70.79678313701443, -33.259954648368684 ], [ -70.796845059352833, -33.25988534634439 ], [ -70.796887906898064, -33.25983549224339 ], [ -70.796951636695724, -33.259759016823914 ], [ -70.797016594609346, -33.259687725614732 ], [ -70.797113905192461, -33.259577283271106 ], [ -70.797198919075271, -33.259477923665315 ], [ -70.79724698539971, -33.25942134782008 ], [ -70.797285752843493, -33.259379068206698 ], [ -70.797355669440833, -33.259300734755101 ], [ -70.797469616391822, -33.259175550858075 ], [ -70.797633903497029, -33.258986448671912 ], [ -70.797727428954218, -33.258878595285118 ], [ -70.797778626514983, -33.258815887772826 ], [ -70.797853600928434, -33.258731836815031 ], [ -70.79795986976481, -33.258608251919412 ], [ -70.798046031031689, -33.258513752952688 ], [ -70.79812019440142, -33.258429006217646 ], [ -70.798206228172475, -33.258326536525665 ], [ -70.798319729362618, -33.258199147847264 ], [ -70.798392091928207, -33.258120159516778 ], [ -70.798497335374137, -33.257999595265147 ], [ -70.798577525787408, -33.257905211800121 ], [ -70.798625266295218, -33.257850482222374 ], [ -70.798683753864495, -33.257776203856125 ], [ -70.79875076697823, -33.257708197757246 ], [ -70.798799113087682, -33.257654770903613 ], [ -70.798856403297464, -33.257589189600552 ], [ -70.798984823766048, -33.257435766051451 ], [ -70.799109848259889, -33.257298557494579 ], [ -70.799829974855911, -33.256469637323953 ], [ -70.799996572378177, -33.256271907287918 ], [ -70.800471264947362, -33.255741562293075 ], [ -70.800570971831192, -33.25562484908901 ], [ -70.800655815990112, -33.255528171715383 ], [ -70.800774162401481, -33.255393843478871 ], [ -70.800873712472495, -33.255280109091302 ], [ -70.800978328242266, -33.255157503534214 ], [ -70.801132083691584, -33.254983256525094 ], [ -70.801206040706958, -33.254899321517598 ], [ -70.801269167423399, -33.254832608288261 ], [ -70.801381151060411, -33.254696956980098 ], [ -70.80168450252981, -33.254355831417627 ], [ -70.801829581434177, -33.254185717657208 ], [ -70.801938759758855, -33.254061586279178 ], [ -70.802128127715662, -33.25384340809245 ], [ -70.802249674586562, -33.253706526901773 ], [ -70.802335943472201, -33.253607634585926 ], [ -70.802408715551024, -33.253521518273189 ], [ -70.802443998592096, -33.253481689181285 ], [ -70.802720154665991, -33.25316458961084 ], [ -70.802894514748061, -33.252965093185722 ], [ -70.803104601504842, -33.252722528718557 ], [ -70.803412312231828, -33.252372915182605 ], [ -70.803458859176857, -33.252319385623686 ], [ -70.803551203962101, -33.252214999052569 ], [ -70.803651375741254, -33.252096771943535 ], [ -70.803762177887137, -33.251973105091274 ], [ -70.803859474140864, -33.25186077534606 ], [ -70.803973819103916, -33.251731733448992 ], [ -70.804123238201086, -33.251559899004512 ], [ -70.804307141524504, -33.251355699222543 ], [ -70.804460546707745, -33.251175607604452 ], [ -70.80452833500442, -33.251097831552116 ], [ -70.805050896666287, -33.250499618012036 ], [ -70.805528442005595, -33.249956172906522 ], [ -70.805860909305338, -33.249572556506081 ], [ -70.80631412606003, -33.249054501289258 ], [ -70.806423591892923, -33.248934677565089 ], [ -70.806690197796541, -33.248624313827399 ], [ -70.806818497402702, -33.248477970553559 ], [ -70.807046376040077, -33.248218850773846 ], [ -70.807807200591441, -33.247351742762085 ], [ -70.808157422263278, -33.246949041465385 ], [ -70.808606117744191, -33.246436049556166 ], [ -70.808817330106407, -33.246198986858801 ], [ -70.809030170980776, -33.245951035949552 ], [ -70.809160062570683, -33.245802232036858 ], [ -70.80929309433283, -33.245650188168028 ], [ -70.809406216751029, -33.245522297011441 ], [ -70.809555151944252, -33.245350854358037 ], [ -70.809671706325361, -33.245217430489454 ], [ -70.809790122826797, -33.245086270105489 ], [ -70.809931551462313, -33.244923878929491 ], [ -70.810133207098602, -33.244693825277707 ], [ -70.810318540378901, -33.244480417574799 ], [ -70.810555500878678, -33.244207408338148 ], [ -70.810677385585919, -33.244068249146672 ], [ -70.810741446466949, -33.243998485367094 ], [ -70.810843802533981, -33.243877429213001 ], [ -70.81094586625899, -33.243759284742993 ], [ -70.811049922306353, -33.243645598548575 ], [ -70.811146834441786, -33.243536262941284 ], [ -70.811264562074626, -33.243399069220786 ], [ -70.811416455749267, -33.243234623089236 ], [ -70.811485624282099, -33.24315750200536 ], [ -70.811515783930702, -33.243123993158044 ], [ -70.811551502643567, -33.24311214541175 ], [ -70.811585607953688, -33.243103937201923 ], [ -70.811640778965838, -33.243097059249187 ], [ -70.811685371479612, -33.243090491328466 ], [ -70.811721502724652, -33.242899009536842 ], [ -70.811785429534538, -33.242894166230897 ], [ -70.81184974745176, -33.242889156684029 ], [ -70.81191306902754, -33.242881916789052 ], [ -70.811976698940256, -33.242876050453575 ], [ -70.81204081190856, -33.242870156409104 ], [ -70.812103806506613, -33.242863519652005 ], [ -70.812171124857954, -33.242856301632827 ], [ -70.812234183782522, -33.242852782333969 ], [ -70.81236160522721, -33.242842718534511 ], [ -70.812488452967656, -33.242830142975734 ], [ -70.812743693947112, -33.242804031108662 ], [ -70.812872735897031, -33.242792120238242 ], [ -70.813063668697055, -33.242775960548705 ], [ -70.813133280384577, -33.242769040230051 ], [ -70.813320939721379, -33.242752247366653 ], [ -70.81363015207674, -33.242724049359936 ], [ -70.813760783575887, -33.242711599313402 ], [ -70.813953979979658, -33.242694377146293 ], [ -70.81414226996506, -33.242677897636732 ], [ -70.81445871067946, -33.242645964671958 ], [ -70.814585709329279, -33.242635335733098 ], [ -70.814715889682049, -33.242623541225221 ], [ -70.814778582587849, -33.242618484153525 ], [ -70.814845688019673, -33.242611436731586 ], [ -70.814971994564843, -33.24259731899425 ], [ -70.815425771288929, -33.242560793193931 ], [ -70.815837696571606, -33.242524048113289 ], [ -70.816200220271213, -33.242495479828385 ], [ -70.816537992399034, -33.242453200210591 ], [ -70.817234247764475, -33.242401926447471 ], [ -70.817416864376796, -33.24238439557147 ], [ -70.81767451415817, -33.242362376350123 ], [ -70.818122794302383, -33.242326836724281 ], [ -70.818764970022698, -33.242263308836463 ], [ -70.818828083685943, -33.242256193201847 ], [ -70.819055911402387, -33.242229836993793 ], [ -70.819412987743235, -33.242202711002463 ], [ -70.819596095075823, -33.242186430318064 ], [ -70.819663200472974, -33.242177762660319 ], [ -70.820054785210473, -33.242151880195685 ], [ -70.820237973819559, -33.242182531637319 ], [ -70.820480923173989, -33.242254714109258 ], [ -70.821144502319981, -33.242451456976646 ], [ -70.821112926693047, -33.242499918683819 ], [ -70.821075247717019, -33.242555948509498 ], [ -70.820812377926245, -33.242832857619575 ], [ -70.8206073444927, -33.24306653064744 ], [ -70.820497809860385, -33.243194518334704 ], [ -70.819883948489363, -33.243888962008938 ], [ -70.819806591590279, -33.243976601131436 ], [ -70.819501979268992, -33.244322309578408 ], [ -70.819320577494508, -33.244521271036575 ], [ -70.819229016489231, -33.24462356996991 ], [ -70.818960133234441, -33.24492956681663 ], [ -70.818878826591572, -33.245010482585364 ], [ -70.818613409068263, -33.245318170088268 ], [ -70.818576574513969, -33.245364239441919 ], [ -70.818506838208961, -33.245460288581398 ], [ -70.817998394390258, -33.246012550825 ], [ -70.817882770482925, -33.246141308308317 ], [ -70.817487807386115, -33.246586823112452 ], [ -70.817989631831423, -33.246646550699026 ], [ -70.818883017362054, -33.246749791956688 ], [ -70.819453547203352, -33.246820999384816 ], [ -70.819853565804664, -33.246867227767225 ], [ -70.820221998154281, -33.246910664253427 ], [ -70.820347109935213, -33.246924518152774 ], [ -70.820533662591302, -33.246947506803245 ], [ -70.820793028558171, -33.246979084291816 ], [ -70.820857508853265, -33.246986830831283 ], [ -70.821052908218306, -33.247014119838546 ], [ -70.821274159667354, -33.24703587080473 ], [ -70.821498980375679, -33.247062692141881 ], [ -70.821981316269557, -33.247120730192243 ], [ -70.822454898208093, -33.247181603975619 ], [ -70.823674140499293, -33.247321628706707 ], [ -70.823921052138374, -33.247350421910959 ], [ -70.8244989557693, -33.247414231543928 ], [ -70.824979423423756, -33.247468242935625 ], [ -70.825292502906095, -33.247502581694633 ], [ -70.825853807509162, -33.247566273867285 ], [ -70.826276770161954, -33.247612852223533 ], [ -70.826586383682738, -33.247646909700194 ], [ -70.826754914591689, -33.247667741773768 ], [ -70.827068673395956, -33.247701761144377 ], [ -70.827933997174796, -33.247796856158956 ], [ -70.828817754257685, -33.24789436947102 ], [ -70.828915973935111, -33.247905817745071 ], [ -70.829145009389052, -33.247929510928358 ], [ -70.829232990744032, -33.247933382986616 ], [ -70.82931375654519, -33.247949671776134 ], [ -70.829398628646487, -33.247959001982956 ], [ -70.829432294386336, -33.247960952278447 ], [ -70.829733506009504, -33.247994561050021 ], [ -70.829966316468841, -33.248020333682966 ], [ -70.830205857881296, -33.248049124499261 ], [ -70.830327992419228, -33.248062128109439 ], [ -70.830328476109713, -33.248085324912502 ], [ -70.830209749803188, -33.250003181278693 ], [ -70.831234740057013, -33.250122644247682 ], [ -70.83123397249085, -33.250126681473688 ], [ -70.831203607078663, -33.250240221592982 ], [ -70.831158745521222, -33.250447722130595 ], [ -70.831151344205296, -33.250484401801167 ], [ -70.83113992453309, -33.250577986155058 ], [ -70.831137545923355, -33.250599694740295 ], [ -70.831129328401872, -33.250617226762486 ], [ -70.83113092888334, -33.250693941371352 ], [ -70.831128374376618, -33.250748362996823 ], [ -70.831129194954556, -33.250787694968913 ], [ -70.831146529037227, -33.250841371697391 ], [ -70.831172122183091, -33.250942055857621 ], [ -70.831199894797976, -33.251028163613675 ], [ -70.831216012914481, -33.251065981472344 ], [ -70.831231560997452, -33.251115500306099 ], [ -70.831245522749384, -33.251139618929571 ], [ -70.831258545523596, -33.251160802975548 ], [ -70.831280275598004, -33.251189867850208 ], [ -70.831296192124384, -33.251223539914101 ], [ -70.831325063968933, -33.251259571813968 ], [ -70.831430630722792, -33.251410524815668 ], [ -70.831456802532642, -33.251432956786878 ], [ -70.831490971726325, -33.251475520911804 ], [ -70.831502815206576, -33.251493377505184 ], [ -70.831517660980978, -33.251514153798887 ], [ -70.831540599014602, -33.251525296321283 ], [ -70.831607605382217, -33.251581516062302 ], [ -70.831628941763626, -33.2515955085751 ], [ -70.831848914017542, -33.251757771315461 ], [ -70.831995298187366, -33.251869321597056 ], [ -70.832130777774765, -33.251934264020846 ], [ -70.832152936348763, -33.25194395826756 ], [ -70.83224573031859, -33.25199397869109 ], [ -70.832354027243767, -33.252072777528504 ], [ -70.832676191390235, -33.252246720354655 ], [ -70.832724575926136, -33.252271486842531 ], [ -70.833033205347633, -33.25243939992626 ], [ -70.833126387543004, -33.252489633277335 ], [ -70.833168077034443, -33.252515001702882 ], [ -70.833239397542329, -33.25255267514828 ], [ -70.833536054707935, -33.252731042981146 ], [ -70.833608760574705, -33.252778636902846 ], [ -70.83375997991449, -33.252872127818556 ], [ -70.833853334367817, -33.252944221140375 ], [ -70.833943920249538, -33.253036183281083 ], [ -70.834061106278739, -33.253146373652925 ], [ -70.834170813711111, -33.253260656086908 ], [ -70.834259301029462, -33.253373088417071 ], [ -70.834285887333834, -33.253424911515332 ], [ -70.834356582482158, -33.253525407629624 ], [ -70.834421720250916, -33.253630730673144 ], [ -70.834478764434778, -33.253711823399151 ], [ -70.834532467443353, -33.253812771422595 ], [ -70.834602578262121, -33.253946575133952 ], [ -70.834621781896217, -33.2540372349291 ], [ -70.834634681015643, -33.254127956118303 ], [ -70.83463151746848, -33.254217351244897 ], [ -70.834631148075175, -33.254320161447708 ], [ -70.834625852871611, -33.254429009150513 ], [ -70.834608902192087, -33.254505592728741 ], [ -70.83457255441823, -33.254556584651787 ], [ -70.834571526508299, -33.254582053257195 ], [ -70.834556799466654, -33.254696213496217 ], [ -70.83454618779821, -33.254845929364912 ], [ -70.834540698835298, -33.254916940816152 ], [ -70.834529763138306, -33.255000599158684 ], [ -70.834503347709557, -33.255198603500467 ], [ -70.834492802487702, -33.255300632478765 ], [ -70.834482574813364, -33.255393727599156 ], [ -70.834467893775184, -33.255516677904005 ], [ -70.834454590908408, -33.255608123199472 ], [ -70.834446855681335, -33.255699485099257 ], [ -70.8344394761274, -33.255752371183355 ], [ -70.834421536249167, -33.255869308275862 ], [ -70.834418548180423, -33.255948222643582 ], [ -70.834378557753766, -33.256114616571367 ], [ -70.834362329982923, -33.256209307611364 ], [ -70.834342367153553, -33.25626222266623 ], [ -70.834315691348138, -33.256345290426943 ], [ -70.834260154729392, -33.25645113485735 ], [ -70.834129934389154, -33.256675162331241 ], [ -70.83404498791262, -33.256858883171006 ], [ -70.833870497189736, -33.257210614748701 ], [ -70.833795375767039, -33.257336743160813 ], [ -70.833748618717763, -33.257432823472236 ], [ -70.833705235273172, -33.257519560192264 ], [ -70.833671489072387, -33.257595365566026 ], [ -70.833619967753791, -33.257686402734933 ], [ -70.833593173121358, -33.257736307649871 ], [ -70.833503787406954, -33.257880799220757 ], [ -70.833473809988973, -33.25794337450931 ], [ -70.833376349164382, -33.258120451305288 ], [ -70.833307702957768, -33.258236999101797 ], [ -70.833289046676953, -33.258272880522178 ], [ -70.83311768346168, -33.258213855476733 ], [ -70.83298017123397, -33.258164703540153 ], [ -70.832842257130054, -33.258110361166949 ], [ -70.83270777978133, -33.25806176523367 ], [ -70.832598643469922, -33.258021561441893 ], [ -70.832589340163381, -33.258017544580262 ], [ -70.83253768074826, -33.258037625081116 ], [ -70.83251226435948, -33.258057215244499 ], [ -70.832488562056042, -33.258096270127261 ], [ -70.83239856488639, -33.258188010377332 ], [ -70.832336125652944, -33.258253012655786 ], [ -70.832258653111253, -33.258332986396795 ], [ -70.832206475654928, -33.258391015626636 ], [ -70.831985427214221, -33.258628413095131 ], [ -70.831886247526825, -33.258729147595446 ], [ -70.831823453972092, -33.258791957915037 ], [ -70.831742380206606, -33.258883961420963 ], [ -70.831660098856347, -33.258965669705375 ], [ -70.831606383268522, -33.259026580210715 ], [ -70.831538554109585, -33.25909643007266 ], [ -70.831469297348036, -33.259167887996526 ], [ -70.831408861221789, -33.259233458848009 ], [ -70.831343472024344, -33.25930323215637 ], [ -70.831191477530723, -33.259460938540528 ], [ -70.831092005222459, -33.259562536186387 ], [ -70.83099785394495, -33.259664609165434 ], [ -70.830920051518731, -33.259748446541707 ], [ -70.830865494319198, -33.25980727872669 ], [ -70.830860934674675, -33.259806836087847 ], [ -70.830858255341042, -33.259810504468106 ], [ -70.830825053581179, -33.259851811218226 ], [ -70.830804203611194, -33.259888953331334 ], [ -70.830760016813244, -33.25996423447166 ], [ -70.830750661089439, -33.259981101671883 ], [ -70.830703477916799, -33.260123395115095 ], [ -70.83069455209241, -33.260144208366931 ], [ -70.830624796991088, -33.260303007649568 ], [ -70.830566364639665, -33.260497575537876 ], [ -70.830477445042987, -33.260736260657126 ], [ -70.830358240106762, -33.261097784236419 ], [ -70.830248333452388, -33.261379021247762 ], [ -70.830095723198298, -33.261816263182602 ], [ -70.830088841703372, -33.26184344491449 ], [ -70.830063884072032, -33.261825344298032 ], [ -70.830012444957646, -33.261819642326188 ], [ -70.829909851948003, -33.261807627615049 ], [ -70.829664617677281, -33.261744299651042 ], [ -70.829374971543572, -33.261699102242865 ], [ -70.829113566964963, -33.261659220055478 ], [ -70.828983194643442, -33.261641406772647 ], [ -70.827691970374048, -33.261427885092907 ], [ -70.827195783221299, -33.261339917996509 ], [ -70.826261203212752, -33.261194586098085 ], [ -70.825690431912975, -33.261102897067381 ], [ -70.825010718742519, -33.260986280387613 ], [ -70.825006620248658, -33.260982610553683 ], [ -70.824971787122379, -33.260983839650898 ], [ -70.824932820471858, -33.260974940136983 ], [ -70.824868647714737, -33.260966966612976 ], [ -70.824757565198709, -33.26094660138456 ], [ -70.824692926179694, -33.260936501737135 ], [ -70.824644343119573, -33.260926024859501 ], [ -70.824589478538769, -33.260917934775215 ], [ -70.824532584146951, -33.260910137278387 ], [ -70.824275096679344, -33.260850667958159 ], [ -70.824221466684676, -33.260842246230226 ], [ -70.824192889596375, -33.260844636743407 ], [ -70.824141573467969, -33.260832865462966 ], [ -70.824104717273059, -33.260826350628477 ], [ -70.824056306218708, -33.260822946888283 ], [ -70.823936062738909, -33.260797529398147 ], [ -70.823840251487752, -33.260781855958534 ], [ -70.823533530587056, -33.26072052548917 ], [ -70.823236791681055, -33.260671019110241 ], [ -70.822921183236474, -33.260610658107453 ], [ -70.822668982284526, -33.260564739377003 ], [ -70.822311247778146, -33.260498700562458 ], [ -70.821533906190339, -33.260352188765189 ], [ -70.820984354497668, -33.260255800766686 ], [ -70.820624431424349, -33.260186291994351 ], [ -70.820530309356968, -33.26016874346962 ], [ -70.82030207427151, -33.260144522534546 ], [ -70.820110755860327, -33.260116969160258 ], [ -70.819927307044509, -33.26008150510453 ], [ -70.819593420916902, -33.260017602351823 ], [ -70.819375979979313, -33.259975991627542 ], [ -70.819005600944308, -33.259909927044447 ], [ -70.818594939248726, -33.259831850725575 ], [ -70.818386269630722, -33.259789831522575 ], [ -70.817735275325063, -33.259674024591625 ], [ -70.817354926501508, -33.259598076000671 ], [ -70.816448182202578, -33.259408461030844 ], [ -70.816288937921996, -33.259388020822641 ], [ -70.816186274670628, -33.259375597875966 ], [ -70.816080160317796, -33.259360424595599 ], [ -70.815986658386805, -33.259333813387137 ], [ -70.815910754070714, -33.259312281159573 ], [ -70.815706431164188, -33.25927566692063 ], [ -70.81532086231887, -33.259204352248993 ], [ -70.815251622276648, -33.259201147504726 ], [ -70.815087306595359, -33.259164879632998 ], [ -70.814833940659071, -33.259116282384333 ], [ -70.814728187039321, -33.259095967220979 ], [ -70.814656670710491, -33.259077102948368 ], [ -70.814619200479058, -33.259067030951584 ], [ -70.814556194747283, -33.259055068839821 ], [ -70.814504371797582, -33.259044348714937 ], [ -70.814421337327033, -33.259024451957892 ], [ -70.814402817557635, -33.259019101116778 ], [ -70.813989995983164, -33.258943504543076 ], [ -70.813870379103463, -33.258919369669073 ], [ -70.813829186355662, -33.258914337711751 ], [ -70.813754034440734, -33.258907897532048 ], [ -70.813591242659584, -33.258872676068322 ], [ -70.813516755322354, -33.258853782332089 ], [ -70.813468996858376, -33.258842349601039 ], [ -70.813310247079485, -33.258815096935741 ], [ -70.81329645154635, -33.258798895645597 ], [ -70.813288180294407, -33.258791724935804 ], [ -70.813268928099646, -33.258768249881356 ], [ -70.813251348185858, -33.258757922025509 ], [ -70.813226916527427, -33.258741343568353 ], [ -70.813203446447133, -33.258730631210298 ], [ -70.813180416649786, -33.258727674249094 ], [ -70.813151389094486, -33.258724038667083 ], [ -70.813131415896208, -33.258722999126192 ], [ -70.813100190489109, -33.258722085673845 ], [ -70.813076059099089, -33.258717874681523 ], [ -70.813053087251859, -33.258716726764924 ], [ -70.813026322520557, -33.258712402071289 ], [ -70.81299549778295, -33.258709657568318 ], [ -70.812970562727386, -33.258705458276268 ], [ -70.812943073674305, -33.258701448324928 ], [ -70.812914500486855, -33.258698024547101 ], [ -70.812900213501138, -33.258696293649116 ], [ -70.812877605395428, -33.25869506434605 ], [ -70.812849470578954, -33.258691634160208 ], [ -70.81283273404992, -33.258695148346298 ], [ -70.812821142453771, -33.25869653417368 ], [ -70.812793861504574, -33.258706133960111 ], [ -70.812780744259967, -33.258707960302466 ], [ -70.812748297971368, -33.258715163804339 ], [ -70.81273450115863, -33.258719471650402 ], [ -70.812723490931631, -33.258717160605123 ], [ -70.812709154443851, -33.25871657114493 ], [ -70.812670928540896, -33.258712869796504 ], [ -70.812625035956131, -33.258705972087228 ], [ -70.812577635823487, -33.258696852891063 ], [ -70.81247029497402, -33.258680052099628 ], [ -70.812359330979746, -33.258661212684238 ], [ -70.812225001634943, -33.258639861949241 ], [ -70.812113288230407, -33.258623656934496 ], [ -70.812077795530783, -33.258617824206368 ], [ -70.81204098297097, -33.258615318847689 ], [ -70.811999258886132, -33.258608550265237 ], [ -70.811960073835181, -33.258604406382013 ], [ -70.811941005719916, -33.258601186053866 ], [ -70.811907671119016, -33.258593686762524 ], [ -70.811836626961906, -33.258575633900037 ], [ -70.811801839790178, -33.25856857402178 ], [ -70.8117555263008, -33.25855898237571 ], [ -70.811732483860624, -33.258554413027873 ], [ -70.811678876832715, -33.25854553604362 ], [ -70.811637423856894, -33.25853773672285 ], [ -70.811602606033617, -33.25853273056368 ], [ -70.811571991225165, -33.25852599006199 ], [ -70.811519073244284, -33.258515087662389 ], [ -70.811346990005234, -33.258484551828893 ], [ -70.81120643132067, -33.258462340133988 ], [ -70.811080151864346, -33.258437942967007 ], [ -70.811034021413462, -33.258433671828001 ], [ -70.81098545327697, -33.258428143347423 ], [ -70.810955262789776, -33.258420712067348 ], [ -70.810936330765884, -33.258413458991669 ], [ -70.810908072923908, -33.258404060290317 ], [ -70.810897076998899, -33.258398897026851 ], [ -70.810837991342893, -33.258390137509757 ], [ -70.810789168074933, -33.258379327246551 ], [ -70.810733042747913, -33.258365277160259 ], [ -70.810680506729966, -33.258355167352406 ], [ -70.81060403271897, -33.258343124705 ], [ -70.810515655394624, -33.258327985257097 ], [ -70.810425385571747, -33.258313215528851 ], [ -70.810305510529275, -33.258294580085362 ], [ -70.81026742877188, -33.258287225528562 ], [ -70.810219895495194, -33.25827871575553 ], [ -70.810089822852902, -33.258254638978734 ], [ -70.810005215980823, -33.258234501061771 ], [ -70.809961587268603, -33.258223957057098 ], [ -70.809916020422079, -33.258215114338526 ], [ -70.809818927907543, -33.258199074613003 ], [ -70.809770738588355, -33.258194186556686 ], [ -70.809725259582507, -33.258189601246677 ], [ -70.809592606841875, -33.258157348184945 ], [ -70.809540323320931, -33.258145294957878 ], [ -70.809398893516359, -33.258123322024638 ], [ -70.80936355590805, -33.258117904526372 ], [ -70.809287752501575, -33.25810292340325 ], [ -70.80924336101819, -33.258094367525501 ], [ -70.809161673424882, -33.258081107022186 ], [ -70.809120382822996, -33.258070528690865 ], [ -70.809072039032529, -33.258061688047498 ], [ -70.809027268960548, -33.258052491182347 ], [ -70.808976466376905, -33.258041366779779 ], [ -70.808934844990603, -33.258032466283311 ], [ -70.808888846234339, -33.258023933665655 ], [ -70.808851467874277, -33.258015237572323 ], [ -70.808803604032377, -33.258008405145226 ], [ -70.808764705514719, -33.258000415587873 ], [ -70.80871210467906, -33.257990686127535 ], [ -70.80866564644235, -33.257981133446449 ], [ -70.808576356589512, -33.257957146140356 ], [ -70.808444833383618, -33.257926472438051 ], [ -70.808353388231524, -33.257911376064357 ], [ -70.808304774862194, -33.257907178046381 ], [ -70.808264464358672, -33.257905140713575 ], [ -70.808186682960581, -33.257893457801785 ], [ -70.808147419237827, -33.25788547336095 ], [ -70.808099521043928, -33.257876968075351 ], [ -70.808006023242626, -33.257861559077092 ], [ -70.807963234401413, -33.257856287571677 ], [ -70.807882323439969, -33.257841684060658 ], [ -70.807837026721927, -33.257828197635789 ], [ -70.807804418623434, -33.257820458516491 ], [ -70.807720684424282, -33.257803614476792 ], [ -70.807681021800391, -33.257794000627747 ], [ -70.807640960758732, -33.257786331816185 ], [ -70.807601699240706, -33.257781997534721 ], [ -70.807561523883351, -33.257768778761161 ], [ -70.807522638879192, -33.257761435032712 ], [ -70.807449087611857, -33.257745773609017 ], [ -70.807337354766659, -33.257721177426269 ], [ -70.806934514094465, -33.258185860636097 ], [ -70.806884826853079, -33.258243087482192 ], [ -70.806838438265132, -33.258290151807515 ], [ -70.80680640407607, -33.258317386764368 ], [ -70.806726643344405, -33.258401249631497 ], [ -70.806667395272243, -33.258455573377091 ], [ -70.806439116574012, -33.258687913300385 ], [ -70.806410078419034, -33.258715142646125 ], [ -70.806290593669388, -33.258836162195266 ], [ -70.806271083448223, -33.258861161708666 ], [ -70.806085573435453, -33.259048162569044 ], [ -70.805845265279075, -33.259292730028996 ], [ -70.805417971391151, -33.25971671344535 ], [ -70.805269784678885, -33.259870812078312 ], [ -70.805098512947552, -33.260057376595661 ], [ -70.804981859176394, -33.260177631354978 ], [ -70.804957572778093, -33.260201480999598 ], [ -70.80492273609039, -33.260234742474601 ], [ -70.804757815844013, -33.26039684895472 ], [ -70.80429158378125, -33.260864319878294 ], [ -70.804087808195305, -33.261071025815411 ], [ -70.80370103756259, -33.261453982356556 ], [ -70.803412092671408, -33.261764773425767 ], [ -70.803250019499146, -33.261907243560586 ], [ -70.803095634419392, -33.262063820672822 ], [ -70.803012144381171, -33.262156569265954 ], [ -70.80284078582018, -33.262335378385139 ], [ -70.802727797676638, -33.262474204850015 ], [ -70.802632791104955, -33.262578468271954 ], [ -70.802531592047927, -33.262698121598639 ], [ -70.802508260533301, -33.262726184706608 ], [ -70.802389117041102, -33.262842893389241 ], [ -70.80226166584896, -33.262967362968382 ], [ -70.8020969932208, -33.263090406648715 ], [ -70.80206999393782, -33.263107289251103 ], [ -70.802000102056269, -33.26315785178268 ], [ -70.801920418543162, -33.263235619899255 ], [ -70.801730255499791, -33.263444484896112 ], [ -70.80159144983611, -33.263603204082933 ], [ -70.801542486974014, -33.263655589580353 ], [ -70.801379535004102, -33.263830255111266 ], [ -70.800773425986492, -33.264465422125944 ], [ -70.800678085478779, -33.264559994766593 ], [ -70.800610813469149, -33.264631166905971 ], [ -70.800592344494291, -33.264644850853394 ], [ -70.800560694855662, -33.264677149815085 ], [ -70.800398028172339, -33.264838815249142 ], [ -70.800248889477899, -33.264984522245577 ], [ -70.799912185422954, -33.265318681472564 ], [ -70.799641336311709, -33.265589221038141 ], [ -70.799541460926349, -33.265691585579191 ], [ -70.799450683645617, -33.265779245126538 ], [ -70.799399726596462, -33.265828040175599 ], [ -70.799313488916781, -33.26590823366729 ], [ -70.799213829338356, -33.266016343856485 ], [ -70.799119275911423, -33.266115939969275 ], [ -70.799017023561404, -33.266223977579884 ], [ -70.79893061786035, -33.26630965191984 ], [ -70.798862161061024, -33.266378706749933 ], [ -70.798719491111754, -33.266526493466849 ], [ -70.798634443572112, -33.266614142259776 ], [ -70.798571683871018, -33.266675429541998 ], [ -70.798441649114878, -33.266802007137557 ], [ -70.798413076662712, -33.266832384254663 ], [ -70.798165805851596, -33.267079887634736 ], [ -70.797967103993173, -33.267281582216775 ], [ -70.797553477930634, -33.26771973833899 ], [ -70.797504868224721, -33.267757214880277 ], [ -70.797481229291961, -33.267777025211259 ], [ -70.797360073040792, -33.267909544843 ], [ -70.79722751483483, -33.268045389208773 ], [ -70.797136318274866, -33.268141886436752 ], [ -70.797045829991589, -33.268217351909769 ], [ -70.79694484066647, -33.268338866699459 ], [ -70.796889304635869, -33.268397834133765 ], [ -70.796822376220192, -33.268467801159154 ], [ -70.796760036114378, -33.268526746931144 ], [ -70.79668891026374, -33.268581595659334 ], [ -70.796636635999448, -33.268628858893841 ], [ -70.79658173222461, -33.268678121359017 ], [ -70.796455359316298, -33.268803410520292 ], [ -70.796330953071092, -33.268938391203662 ], [ -70.796221460567139, -33.269047927400578 ], [ -70.796107773811386, -33.269163636069131 ], [ -70.795954580462805, -33.269320003955045 ], [ -70.795936949278854, -33.26933748777639 ], [ -70.795860939315077, -33.26941174986797 ], [ -70.795636436788797, -33.269652221517717 ], [ -70.795501159129429, -33.269771292179783 ], [ -70.795359288423839, -33.269922749784335 ], [ -70.79519991707231, -33.270087456736746 ], [ -70.794594227614496, -33.270703286977536 ], [ -70.794370707099489, -33.270925625161972 ], [ -70.794127042006835, -33.27117095410496 ], [ -70.793852131026767, -33.27145341597101 ], [ -70.793655616248103, -33.271658804971182 ], [ -70.793548600769881, -33.271757203571504 ], [ -70.79337605692055, -33.271931446617316 ], [ -70.793202532718567, -33.272105297350826 ], [ -70.792931690629274, -33.272392886604194 ], [ -70.792918495502434, -33.272423465613727 ], [ -70.792432807019992, -33.272935958320794 ], [ -70.791983361575063, -33.27338314316119 ], [ -70.791605844953637, -33.27376748645365 ], [ -70.79112313793425, -33.2742572534858 ], [ -70.790646570405414, -33.274741342069845 ], [ -70.789997658356185, -33.27536048703297 ], [ -70.789299312906806, -33.276070049945773 ], [ -70.789194417072153, -33.276176598297099 ], [ -70.788817642699868, -33.276555073012865 ], [ -70.78858949072918, -33.276790427020721 ], [ -70.788224830334869, -33.277154786132158 ], [ -70.788068854764234, -33.277307442547595 ], [ -70.78795890236519, -33.277411042929685 ], [ -70.787878403550508, -33.277490077492487 ], [ -70.787770293711972, -33.277605079230881 ], [ -70.787676171376262, -33.277710213335837 ], [ -70.787480909614686, -33.277927476251513 ], [ -70.787213319897816, -33.277930378601013 ], [ -70.787082610925935, -33.277963954619956 ], [ -70.786879095900574, -33.278131178940122 ], [ -70.786542156024112, -33.278484810649644 ], [ -70.786359272883303, -33.278797129604911 ], [ -70.786321504128807, -33.278844507212739 ], [ -70.786169349310015, -33.27905325258596 ], [ -70.785945592930076, -33.279361675131369 ], [ -70.785663551299152, -33.279760654004065 ], [ -70.785468437004965, -33.280034488898188 ], [ -70.785273692460024, -33.280305945880407 ], [ -70.785204412508463, -33.280404407931819 ], [ -70.785102089405427, -33.280545036694924 ], [ -70.784986856631591, -33.280683144565508 ], [ -70.784880190529648, -33.280817086761132 ], [ -70.784774675124552, -33.280975059563985 ], [ -70.784672784728784, -33.281105415264847 ], [ -70.78460394098974, -33.281192783227205 ], [ -70.784463248363636, -33.281367536674239 ], [ -70.784283197420535, -33.28159684717447 ], [ -70.784112357267247, -33.281800784752392 ], [ -70.784019026309082, -33.281911900956487 ], [ -70.783854992005132, -33.282134411877379 ], [ -70.78360237184009, -33.282383800218298 ], [ -70.781655410522262, -33.28398163586666 ], [ -70.781541624651211, -33.284069741026386 ], [ -70.781403134581467, -33.284181308640498 ], [ -70.781183063496968, -33.284343502035775 ], [ -70.781064991112814, -33.284427188849563 ], [ -70.780579296129304, -33.284779049810467 ], [ -70.780203711890863, -33.28503933399552 ], [ -70.780097398937457, -33.285107852811578 ], [ -70.779952970793047, -33.285206971527465 ], [ -70.779896306545353, -33.285240421539029 ], [ -70.77981859604715, -33.285293212514709 ], [ -70.779691765593, -33.285369755902195 ], [ -70.779229282133045, -33.285662430171115 ], [ -70.778946157054733, -33.285841320987608 ], [ -70.778646295318197, -33.286026701599745 ], [ -70.778502095522512, -33.286120932872592 ], [ -70.778424911999096, -33.286166584960696 ], [ -70.778192287443702, -33.286310109344328 ], [ -70.777693292979009, -33.286626839518618 ], [ -70.777619156054342, -33.286671638483789 ], [ -70.777564517214344, -33.286703789253281 ], [ -70.777541448445163, -33.286720228031911 ], [ -70.777489401779633, -33.286753014176831 ], [ -70.777463637924612, -33.286769315022873 ], [ -70.777334491759405, -33.286844599325747 ], [ -70.77705693641002, -33.287027708092552 ], [ -70.776594453909325, -33.287298043832749 ], [ -70.776505038065807, -33.287352930464394 ], [ -70.776449936120585, -33.287378986380681 ], [ -70.776392474375783, -33.287405978723548 ], [ -70.776328441656915, -33.287439200451054 ], [ -70.776305924356009, -33.287458396553177 ], [ -70.776260422119492, -33.287494658506972 ], [ -70.77618703760659, -33.287562455479552 ], [ -70.776132730758135, -33.287603828945315 ], [ -70.776092228979422, -33.287631515380347 ], [ -70.775789171300517, -33.287850358073662 ], [ -70.775498915779863, -33.288052950584451 ], [ -70.775178579885051, -33.288279167393689 ], [ -70.774906683629666, -33.28846872613623 ], [ -70.774453048053203, -33.288818969176404 ], [ -70.773776225811858, -33.289346909147106 ], [ -70.77356722616102, -33.289415392702317 ], [ -70.773436640399879, -33.289457380373378 ], [ -70.773138062777676, -33.289558739392582 ], [ -70.772996722889033, -33.289606318422337 ], [ -70.772548094962843, -33.289754001616416 ], [ -70.772498897901428, -33.289764416135014 ], [ -70.772389982867296, -33.289738162042042 ], [ -70.771892522584224, -33.289579935047577 ], [ -70.771889265740953, -33.289578773211048 ], [ -70.771845812349184, -33.289631805794663 ], [ -70.771806660602664, -33.289696064179211 ], [ -70.771799799953868, -33.289709879906809 ], [ -70.771434354542777, -33.289542273325161 ], [ -70.771384790174608, -33.289514238163775 ], [ -70.771076855188255, -33.289340427270105 ], [ -70.77114876028574, -33.289252951550566 ], [ -70.771892522584224, -33.289579935047577 ] ] ] ] } }
]
}
