{
"type": "FeatureCollection",
"name": "div-calles",
"crs": { "type": "name", "properties": { "name": "urn:ogc:def:crs:OGC:1.3:CRS84" } },
"features": [
{ "type": "Feature", "properties": { "fid": 1, "Area": 472361.645 }, "geometry": { "type": "MultiPolygon", "coordinates": [ [ [ [ -70.785820747371403, -33.272509455155401 ], [ -70.802534618232229, -33.253473581305776 ], [ -70.810256194973789, -33.244698711439398 ], [ -70.810778671224782, -33.244104886215645 ], [ -70.815930696171307, -33.23824877193605 ], [ -70.816793533060704, -33.238784776082944 ], [ -70.811641537673751, -33.244640924757263 ], [ -70.811119064419657, -33.245234753469447 ], [ -70.803397929126291, -33.254009223597379 ], [ -70.786684551339022, -33.273044757474096 ], [ -70.785820747371403, -33.272509455155401 ] ] ] ] } },
{ "type": "Feature", "properties": { "fid": 2, "Area": 917704.986 }, "geometry": { "type": "MultiPolygon", "coordinates": [ [ [ [ -70.781951307030823, -33.278447621662778 ], [ -70.786587170582209, -33.278437470196046 ], [ -70.79529622877287, -33.278435738968668 ], [ -70.795281360388586, -33.277709587071058 ], [ -70.787673080019161, -33.277713705425782 ], [ -70.782589579553488, -33.277724899030027 ], [ -70.783653753030194, -33.276528613852484 ], [ -70.785391325043491, -33.274543373572861 ], [ -70.785848357067934, -33.274001537254151 ], [ -70.785997048859045, -33.273826335135688 ], [ -70.7861986492385, -33.27359884394896 ], [ -70.786593245682866, -33.273152898976981 ], [ -70.786684551339022, -33.273044757474096 ], [ -70.785820300392956, -33.272514256648513 ], [ -70.785730336366441, -33.272616661693341 ], [ -70.785337477388168, -33.273060638362935 ], [ -70.785129279861522, -33.273295571214092 ], [ -70.784973269192065, -33.273479394875309 ], [ -70.784528520071646, -33.274007138066906 ], [ -70.782791218789683, -33.275991903774866 ], [ -70.781686679629956, -33.277233550909358 ], [ -70.781243627874744, -33.277731514235427 ], [ -70.780712426765405, -33.277732121078934 ], [ -70.78547775527089, -33.272297549364183 ], [ -70.784959315596325, -33.271976543773491 ], [ -70.779913393389478, -33.277733029616037 ], [ -70.763410967014622, -33.277750644558843 ], [ -70.763411989272782, -33.278471053498052 ], [ -70.779283368648578, -33.278454148130038 ], [ -70.757264340154521, -33.30365253114126 ], [ -70.757782127027781, -33.303974492471305 ], [ -70.758762651711592, -33.302862586646597 ], [ -70.767260856630301, -33.293126640440931 ], [ -70.770723323377482, -33.289135451481791 ], [ -70.770798666599731, -33.289043998515105 ], [ -70.77157394943103, -33.288153712100438 ], [ -70.771977683079953, -33.287693782199099 ], [ -70.772198723562369, -33.287440789772681 ], [ -70.772410212053742, -33.287201017900053 ], [ -70.773124331508043, -33.286411412334232 ], [ -70.773372253565569, -33.286121092796954 ], [ -70.774081696215475, -33.285312076260816 ], [ -70.780082871850155, -33.278453242899836 ], [ -70.780615485898934, -33.278452636996988 ], [ -70.780214162154792, -33.278912923055124 ], [ -70.77914068224645, -33.280138207249273 ], [ -70.777785472276264, -33.281691623383907 ], [ -70.776138447630416, -33.283573467449848 ], [ -70.774419720203881, -33.28553467853569 ], [ -70.77371188646552, -33.28634186393117 ], [ -70.77346211460933, -33.286634350920018 ], [ -70.772745998287377, -33.28742616785393 ], [ -70.772536627239347, -33.287663540144926 ], [ -70.772315879789858, -33.287916198299023 ], [ -70.77191247358796, -33.288375757211377 ], [ -70.767599865537079, -33.293348150536566 ], [ -70.759100701625883, -33.303085238708164 ], [ -70.758123386679245, -33.304193509665332 ], [ -70.758986489991116, -33.304729890052265 ], [ -70.75996533643405, -33.303619869480407 ], [ -70.768466911094052, -33.293879905045543 ], [ -70.772875433444284, -33.288797574215437 ], [ -70.773188359215496, -33.288441086716063 ], [ -70.773409100586107, -33.288189341156837 ], [ -70.773612777552913, -33.287958015962644 ], [ -70.77433386357589, -33.287160697338628 ], [ -70.77458796401946, -33.286862623452897 ], [ -70.775292041751783, -33.28606022095672 ], [ -70.777011281476703, -33.284098817988109 ], [ -70.778659194352514, -33.282216019296634 ], [ -70.780014227331577, -33.280662861916753 ], [ -70.781087619199241, -33.279437522613982 ], [ -70.781378131123731, -33.279104326530543 ], [ -70.781446287612454, -33.279025679688786 ], [ -70.781793730761834, -33.278629885532304 ], [ -70.781951307030823, -33.278447621662778 ] ] ] ] } },
{ "type": "Feature", "properties": { "fid": 4, "Area": 632787.427 }, "geometry": { "type": "MultiPolygon", "coordinates": [ [ [ [ -70.757787806840511, -33.241271354874975 ], [ -70.778460125228165, -33.246460933008386 ], [ -70.807643698214193, -33.244111679530626 ], [ -70.807665931578882, -33.244110050371539 ], [ -70.807688195204989, -33.244108745237135 ], [ -70.807710482405128, -33.244107764519462 ], [ -70.807732786484735, -33.244107108513091 ], [ -70.807755100744245, -33.244106777415034 ], [ -70.807777418481038, -33.244106771324773 ], [ -70.807799732991384, -33.244107090244107 ], [ -70.807822037572578, -33.244107734077232 ], [ -70.807844325524911, -33.244108702630761 ], [ -70.807866590153623, -33.244109995613741 ], [ -70.80788882477097, -33.244111612637802 ], [ -70.807911022698249, -33.244113553217197 ], [ -70.807933177267756, -33.244115816769039 ], [ -70.807955281824817, -33.244118402613402 ], [ -70.807977329729752, -33.244121309973536 ], [ -70.807999314359947, -33.244124537976163 ], [ -70.808021229111745, -33.244128085651646 ], [ -70.808043067402508, -33.244131951934328 ], [ -70.808064822672549, -33.244136135662899 ], [ -70.808086488387104, -33.244140635580642 ], [ -70.808108058038357, -33.244145450335893 ], [ -70.808129525147265, -33.244150578482419 ], [ -70.80815088326564, -33.244156018479813 ], [ -70.808172125978032, -33.244161768694063 ], [ -70.808193246903627, -33.244167827397902 ], [ -70.808214239698188, -33.244174192771489 ], [ -70.808235098055974, -33.244180862902759 ], [ -70.808255815711618, -33.244187835788189 ], [ -70.808276386442031, -33.244195109333269 ], [ -70.809135133191234, -33.244506134516499 ], [ -70.827159841540976, -33.251032503636523 ], [ -70.827303981876284, -33.251089182326503 ], [ -70.827446942319213, -33.251147932945976 ], [ -70.827588680687413, -33.251208738160301 ], [ -70.827729155158792, -33.251271580028579 ], [ -70.827868324283983, -33.251336440008998 ], [ -70.828006146998476, -33.25140329896427 ], [ -70.82814258263474, -33.251472137167269 ], [ -70.828277590934249, -33.251542934306833 ], [ -70.828411132059344, -33.251615669493816 ], [ -70.828543166604987, -33.251690321267148 ], [ -70.828673655610316, -33.251766867600281 ], [ -70.828802560570267, -33.251845285907585 ], [ -70.828929843446815, -33.251925553051052 ], [ -70.829055466680245, -33.252007645347113 ], [ -70.829179393200235, -33.25209153857363 ], [ -70.82930158643677, -33.252177207976985 ], [ -70.829422010330958, -33.252264628279534 ], [ -70.829540629345658, -33.252353773686842 ], [ -70.829657408475953, -33.252444617895414 ], [ -70.829772313259468, -33.252537134100493 ], [ -70.82988530978659, -33.252631295003866 ], [ -70.829996364710397, -33.252727072821962 ], [ -70.830105445256606, -33.252824439294045 ], [ -70.830212519233143, -33.252923365690535 ], [ -70.83031755503967, -33.253023822821518 ], [ -70.830420521676956, -33.25312578104527 ], [ -70.830521388755983, -33.253229210277112 ], [ -70.830620126506929, -33.253334079998169 ], [ -70.83071670578795, -33.253440359264474 ], [ -70.83081109809379, -33.253548016716024 ], [ -70.830903275564197, -33.25365702058604 ], [ -70.830993210992148, -33.253767338710368 ], [ -70.831080877831894, -33.253878938536928 ], [ -70.831166250206763, -33.253991787135348 ], [ -70.831249302916859, -33.254105851206631 ], [ -70.831330011446425, -33.254221097093037 ], [ -70.831408351971163, -33.254337490787975 ], [ -70.831484301365251, -33.254454997946006 ], [ -70.831557837208123, -33.254573583893027 ], [ -70.83162893779118, -33.254693213636479 ], [ -70.831697582124107, -33.25481385187566 ], [ -70.831763749941175, -33.254935463012153 ], [ -70.83182742170716, -33.255058011160273 ], [ -70.831888578623136, -33.255181460157758 ], [ -70.831947202632051, -33.255305773576353 ], [ -70.832003276424032, -33.255430914732557 ], [ -70.832056783441558, -33.255556846698489 ], [ -70.832107707884276, -33.255683532312752 ], [ -70.832156034713762, -33.255810934191402 ], [ -70.832201749657912, -33.255939014738956 ], [ -70.832244839215207, -33.256067736159544 ], [ -70.832285290658632, -33.25619706046799 ], [ -70.83232309203953, -33.256326949501066 ], [ -70.83235823219114, -33.256457364928707 ], [ -70.832390700731835, -33.256588268265382 ], [ -70.832420275725596, -33.256706652155714 ], [ -70.832452222328499, -33.256824600262199 ], [ -70.832486531467254, -33.256942079051043 ], [ -70.832523193396796, -33.257059055121758 ], [ -70.832562197702956, -33.257175495216664 ], [ -70.832603533305502, -33.257291366230362 ], [ -70.832647188461223, -33.257406635219077 ], [ -70.832693150767298, -33.257521269410148 ], [ -70.832741407164733, -33.257635236211215 ], [ -70.832791943942198, -33.257748503219545 ], [ -70.832844746739781, -33.257861038231276 ], [ -70.83289980055315, -33.25797280925056 ], [ -70.832957089737803, -33.258083784498623 ], [ -70.833016598013444, -33.258193932422856 ], [ -70.833078308468643, -33.258303221705766 ], [ -70.8331422035657, -33.258411621273858 ], [ -70.833208265145544, -33.258519100306508 ], [ -70.83327647443285, -33.258625628244751 ], [ -70.833346812041498, -33.258731174799905 ], [ -70.833419257979983, -33.25883570996222 ], [ -70.833493791657133, -33.258939204009415 ], [ -70.833570391887946, -33.259041627515174 ], [ -70.833649036899601, -33.259142951357433 ], [ -70.833729704337614, -33.259243146726696 ], [ -70.833812371272316, -33.259342185134287 ], [ -70.833897014205164, -33.259440038420344 ], [ -70.83458729449265, -33.259011072061817 ], [ -70.834511176441296, -33.258923075214263 ], [ -70.834436834980153, -33.258834012810112 ], [ -70.834364291233243, -33.258743910162515 ], [ -70.834293565813439, -33.258652792880198 ], [ -70.834224678816625, -33.258560686860207 ], [ -70.834157649816021, -33.258467618280513 ], [ -70.834092497856503, -33.258373613592603 ], [ -70.834029241449358, -33.25827869951393 ], [ -70.833967898566939, -33.258182903020348 ], [ -70.83390848663754, -33.258086251338419 ], [ -70.833851022540529, -33.257988771937647 ], [ -70.833795522601449, -33.257890492522726 ], [ -70.833742002587485, -33.25779144102566 ], [ -70.833690477702973, -33.257691645597724 ], [ -70.833640962584994, -33.257591134601633 ], [ -70.833593471299324, -33.257489936603285 ], [ -70.833548017336412, -33.25738808036381 ], [ -70.833504613607502, -33.257285594831274 ], [ -70.833463272441094, -33.257182509132527 ], [ -70.833424005579289, -33.25707885256486 ], [ -70.833386824174568, -33.256974654587758 ], [ -70.833351738786604, -33.256869944814397 ], [ -70.833318759379281, -33.256764753003402 ], [ -70.83328789531781, -33.256659109050197 ], [ -70.833259155366164, -33.25655304297868 ], [ -70.833232547684503, -33.256446584932569 ], [ -70.833197021664361, -33.256303417026999 ], [ -70.833158570973637, -33.256160783492824 ], [ -70.833117206994686, -33.256018726500905 ], [ -70.833072941971039, -33.25587728805143 ], [ -70.833025789003742, -33.255736509961494 ], [ -70.832975762047454, -33.255596433852809 ], [ -70.832922875906362, -33.255457101139328 ], [ -70.832867146229702, -33.255318553015016 ], [ -70.832808589507195, -33.255180830441731 ], [ -70.832747223064118, -33.255043974137031 ], [ -70.832683065056187, -33.254908024562219 ], [ -70.832616134464175, -33.254773021910317 ], [ -70.832546451088277, -33.254639006094244 ], [ -70.832474035542205, -33.254506016734986 ], [ -70.832398909247203, -33.254374093149899 ], [ -70.832321094425538, -33.2542432743411 ], [ -70.832240614094076, -33.254113598983892 ], [ -70.832157492057348, -33.253985105415424 ], [ -70.832071752900546, -33.25385783162325 ], [ -70.831983421982272, -33.253731815234197 ], [ -70.831892525426994, -33.253607093503206 ], [ -70.831799090117329, -33.253483703302351 ], [ -70.831703143686056, -33.253361681109851 ], [ -70.831604714508018, -33.253241062999429 ], [ -70.831503831691634, -33.253121884629586 ], [ -70.831400525070322, -33.253004181232988 ], [ -70.831294825193709, -33.252887987606208 ], [ -70.831186763318541, -33.252773338099324 ], [ -70.831076371399448, -33.252660266605851 ], [ -70.830963682079528, -33.252548806552653 ], [ -70.830848728680635, -33.252438990890106 ], [ -70.830731545193586, -33.252330852082366 ], [ -70.830612166268054, -33.252224422097775 ], [ -70.830490627202352, -33.252119732399386 ], [ -70.830366963933017, -33.252016813935732 ], [ -70.830241213024095, -33.251915697131601 ], [ -70.83011341165647, -33.251816411879133 ], [ -70.829983597616746, -33.251718987528868 ], [ -70.829851809286112, -33.251623452881255 ], [ -70.829718085629068, -33.251529836177951 ], [ -70.82958246618179, -33.251438165093624 ], [ -70.829444991040546, -33.251348466727684 ], [ -70.829305700849758, -33.251260767596321 ], [ -70.829164636790068, -33.251175093624674 ], [ -70.829021840566128, -33.251091470139158 ], [ -70.828877354394251, -33.251009921859982 ], [ -70.828731220990008, -33.250930472893849 ], [ -70.828583483555505, -33.250853146726847 ], [ -70.828434185766724, -33.250777966217477 ], [ -70.828283371760534, -33.250704953589924 ], [ -70.828131086121701, -33.250634130427535 ], [ -70.827977373869672, -33.250565517666388 ], [ -70.827822280445318, -33.250499135589045 ], [ -70.827665851697475, -33.250435003818737 ], [ -70.827508133869401, -33.250373141313382 ], [ -70.809474927075229, -33.243843698934946 ], [ -70.808616185829749, -33.24353267588851 ], [ -70.80858190150164, -33.243520553396685 ], [ -70.80854737230527, -33.243508932000942 ], [ -70.808512608612219, -33.243497815191979 ], [ -70.808477620864451, -33.243487206308963 ], [ -70.808442419571264, -33.243477108538478 ], [ -70.808407015306059, -33.243467524913605 ], [ -70.808371418703217, -33.243458458312979 ], [ -70.808335640454885, -33.243449911459955 ], [ -70.808299691307695, -33.243441886921744 ], [ -70.808263582059695, -33.243434387108678 ], [ -70.808227323556963, -33.243427414273498 ], [ -70.808190926690415, -33.243420970510634 ], [ -70.808154402392503, -33.243415057755605 ], [ -70.808117761633994, -33.243409677784449 ], [ -70.808081015420555, -33.243404832213152 ], [ -70.8080441747896, -33.243400522497176 ], [ -70.808007250806867, -33.243396749931051 ], [ -70.807970254563116, -33.243393515647966 ], [ -70.807933197170826, -33.243390820619418 ], [ -70.807896089760817, -33.243388665654933 ], [ -70.807858943478976, -33.243387051401797 ], [ -70.807821769482814, -33.243385978344918 ], [ -70.807784578938183, -33.243385446806634 ], [ -70.807747383015936, -33.243385456946605 ], [ -70.807710192888507, -33.243386008761838 ], [ -70.807673019726593, -33.243387102086587 ], [ -70.807635874695805, -33.243388736592479 ], [ -70.807598768953326, -33.243390911788588 ], [ -70.807561713644489, -33.243393627021575 ], [ -70.778545204354302, -33.245729443778046 ], [ -70.758033620483999, -33.24058019785938 ], [ -70.757787806840511, -33.241271354874975 ] ] ] ] } },
{ "type": "Feature", "properties": { "fid": 5, "Area": 19562.897 }, "geometry": { "type": "MultiPolygon", "coordinates": [ [ [ [ -70.827862456267709, -33.250516061126248 ], [ -70.831114988009801, -33.251679176767993 ], [ -70.831246194599188, -33.251140711822721 ], [ -70.831258545523596, -33.251160802975548 ], [ -70.831280275598004, -33.251189867850208 ], [ -70.831296192124384, -33.251223539914101 ], [ -70.831325063968933, -33.251259571813968 ], [ -70.831430630722792, -33.251410524815668 ], [ -70.831456802532642, -33.251432956786878 ], [ -70.831490971726325, -33.251475520911804 ], [ -70.831502815206576, -33.251493377505184 ], [ -70.831517660980978, -33.251514153798887 ], [ -70.831540599014602, -33.251525296321283 ], [ -70.831607605382217, -33.251581516062302 ], [ -70.831628941763626, -33.2515955085751 ], [ -70.831848914017542, -33.251757771315461 ], [ -70.831918253255665, -33.251810610499618 ], [ -70.831706830780078, -33.252678297301955 ], [ -70.830721352553667, -33.252321620785374 ], [ -70.830603764086376, -33.252217067979451 ], [ -70.830484088133446, -33.252114200966403 ], [ -70.830362358929676, -33.252013049166926 ], [ -70.830238611296735, -33.251913641511095 ], [ -70.83011288063328, -33.251816006430076 ], [ -70.82998520290468, -33.251720171847964 ], [ -70.829855614632876, -33.251626165173832 ], [ -70.829724152885817, -33.25153401329392 ], [ -70.829590855266957, -33.2514437425639 ], [ -70.829455759904448, -33.251355378801378 ], [ -70.829318905440246, -33.251268947278533 ], [ -70.829180331019074, -33.251184472714833 ], [ -70.829040076277209, -33.251101979269997 ], [ -70.828898181331155, -33.251021490537106 ], [ -70.828754686766203, -33.25094302953589 ], [ -70.828609633624765, -33.250866618706048 ], [ -70.828463063394707, -33.250792279900928 ], [ -70.828315017997468, -33.250720034381267 ], [ -70.828165539776009, -33.250649902809052 ], [ -70.828014671482848, -33.250581905241702 ], [ -70.827862456267709, -33.250516061126248 ] ] ] ] } }
]
}
