{"type": "FeatureCollection", "name": "Cercos", "features": [{"type": "Feature", "properties": {"fid": 244, "Area": 6343553.083}, "geometry": {"type": "GeometryCollection", "geometries": [{"type": "Polygon", "coordinates": [[[-70.7713848, -33.2895142], [-70.7714344, -33.2895423], [-70.7717998, -33.2897099], [-70.7718067, -33.2896961], [-70.7718458, -33.2896318], [-70.7718893, -33.2895788], [-70.7718925, -33.2895799], [-70.77239, -33.2897382], [-70.7724989, -33.2897644], [-70.7725481, -33.289754], [-70.7729967, -33.2896063], [-70.7731381, -33.2895587], [-70.7734366, -33.2894574], [-70.7735672, -33.2894154], [-70.7737762, -33.2893469], [-70.774453, -33.288819], [-70.7749067, -33.2884687], [-70.7751786, -33.2882792], [-70.7754989, -33.288053], [-70.7757892, -33.2878504], [-70.7760922, -33.2876315], [-70.7761327, -33.2876038], [-70.776187, -33.2875625], [-70.7762604, -33.2874947], [-70.7763059, -33.2874584], [-70.7763284, -33.2874392], [-70.7763925, -33.287406], [-70.7764499, -33.287379], [-70.776505, -33.2873529], [-70.7765945, -33.287298], [-70.7770569, -33.2870277], [-70.7773345, -33.2868446], [-70.7774636, -33.2867693], [-70.7774894, -33.286753], [-70.7775414, -33.2867202], [-70.7775645, -33.2867038], [-70.7776192, -33.2866716], [-70.7776933, -33.2866268], [-70.7781923, -33.2863101], [-70.7784249, -33.2861666], [-70.7785021, -33.2861209], [-70.7786463, -33.2860267], [-70.7789462, -33.2858413], [-70.7792293, -33.2856624], [-70.7796918, -33.2853698], [-70.7798186, -33.2852932], [-70.7798963, -33.2852404], [-70.779953, -33.285207], [-70.7800974, -33.2851079], [-70.7802037, -33.2850393], [-70.7805793, -33.284779], [-70.781065, -33.2844272], [-70.7811831, -33.2843435], [-70.7814031, -33.2841813], [-70.7815416, -33.2840697], [-70.7816554, -33.2839816], [-70.7836024, -33.2823838], [-70.783855, -33.2821344], [-70.784019, -33.2819119], [-70.7841124, -33.2818008], [-70.7842832, -33.2815968], [-70.7844632, -33.2813675], [-70.7846039, -33.2811928], [-70.7846728, -33.2811054], [-70.7847747, -33.2809751], [-70.7848802, -33.2808171], [-70.7849869, -33.2806831], [-70.7851021, -33.280545], [-70.7852044, -33.2804044], [-70.7852737, -33.2803059], [-70.7854684, -33.2800345], [-70.7856636, -33.2797607], [-70.7859456, -33.2793617], [-70.7861693, -33.2790533], [-70.7863215, -33.2788445], [-70.7863593, -33.2787971], [-70.7865422, -33.2784848], [-70.7868791, -33.2781312], [-70.7870826, -33.277964], [-70.7872133, -33.2779304], [-70.7874809, -33.2779275], [-70.7876762, -33.2777102], [-70.7877703, -33.2776051], [-70.7878784, -33.2774901], [-70.7879589, -33.277411], [-70.7880689, -33.2773074], [-70.7882248, -33.2771548], [-70.7885895, -33.2767904], [-70.7888176, -33.2765551], [-70.7891944, -33.2761766], [-70.7892993, -33.27607], [-70.7899977, -33.2753605], [-70.7906466, -33.2747413], [-70.7911231, -33.2742573], [-70.7916058, -33.2737675], [-70.7919834, -33.2733831], [-70.7924328, -33.272936], [-70.7929185, -33.2724235], [-70.7929317, -33.2723929], [-70.7932025, -33.2721053], [-70.7933761, -33.2719314], [-70.7935486, -33.2717572], [-70.7936556, -33.2716588], [-70.7938521, -33.2714534], [-70.794127, -33.271171], [-70.7943707, -33.2709256], [-70.7945942, -33.2707033], [-70.7951999, -33.2700875], [-70.7953593, -33.2699227], [-70.7955012, -33.2697713], [-70.7956364, -33.2696522], [-70.7958609, -33.2694117], [-70.7959369, -33.2693375], [-70.7959546, -33.26932], [-70.7961078, -33.2691636], [-70.7962215, -33.2690479], [-70.796331, -33.2689384], [-70.7964554, -33.2688034], [-70.7965817, -33.2686781], [-70.7966366, -33.2686289], [-70.7966889, -33.2685816], [-70.79676, -33.2685267], [-70.7968224, -33.2684678], [-70.7968893, -33.2683978], [-70.7969448, -33.2683389], [-70.7970458, -33.2682174], [-70.7971363, -33.2681419], [-70.7972275, -33.2680454], [-70.7973601, -33.2679095], [-70.7974812, -33.267777], [-70.7975049, -33.2677572], [-70.7975535, -33.2677197], [-70.7979671, -33.2672816], [-70.7981658, -33.2670799], [-70.7984131, -33.2668324], [-70.7984416, -33.266802], [-70.7985717, -33.2666754], [-70.7986344, -33.2666141], [-70.7987195, -33.2665265], [-70.7988622, -33.2663787], [-70.7989306, -33.2663097], [-70.799017, -33.266224], [-70.7991193, -33.2661159], [-70.7992138, -33.2660163], [-70.7993135, -33.2659082], [-70.7993997, -33.265828], [-70.7994507, -33.2657792], [-70.7995415, -33.2656916], [-70.7996413, -33.2655892], [-70.7999122, -33.2653187], [-70.8002489, -33.2649845], [-70.800398, -33.2648388], [-70.8005607, -33.2646771], [-70.8005923, -33.2646449], [-70.8006108, -33.2646312], [-70.8006781, -33.26456], [-70.8007734, -33.2644654], [-70.8013795, -33.2638303], [-70.8015425, -33.2636556], [-70.8015914, -33.2636032], [-70.8017303, -33.2634445], [-70.8019204, -33.2632356], [-70.8020001, -33.2631579], [-70.80207, -33.2631073], [-70.802097, -33.2630904], [-70.8022617, -33.2629674], [-70.8023891, -33.2628429], [-70.8025083, -33.2627262], [-70.8025316, -33.2626981], [-70.8026328, -33.2625785], [-70.8027278, -33.2624742], [-70.8028408, -33.2623354], [-70.8030121, -33.2621566], [-70.8030956, -33.2620638], [-70.80325, -33.2619072], [-70.8034121, -33.2617648], [-70.803701, -33.261454], [-70.8040878, -33.261071], [-70.8042916, -33.2608643], [-70.8047578, -33.2603968], [-70.8049227, -33.2602347], [-70.8049576, -33.2602015], [-70.8049819, -33.2601776], [-70.8050985, -33.2600574], [-70.8052698, -33.2598708], [-70.805418, -33.2597167], [-70.8058453, -33.2592927], [-70.8060856, -33.2590482], [-70.8062711, -33.2588612], [-70.8062906, -33.2588362], [-70.8064101, -33.2587151], [-70.8064391, -33.2586879], [-70.8066674, -33.2584556], [-70.8067266, -33.2584012], [-70.8068064, -33.2583174], [-70.8068384, -33.2582902], [-70.8068848, -33.2582431], [-70.8069345, -33.2581859], [-70.8073374, -33.2577212], [-70.8074491, -33.2577458], [-70.8075226, -33.2577614], [-70.8075615, -33.2577688], [-70.8076017, -33.257782], [-70.807641, -33.2577863], [-70.807681, -33.257794], [-70.8077207, -33.2578036], [-70.8078044, -33.2578205], [-70.807837, -33.2578282], [-70.8078823, -33.2578417], [-70.8079632, -33.2578563], [-70.808006, -33.2578616], [-70.8080995, -33.257877], [-70.8081474, -33.2578855], [-70.8081867, -33.2578935], [-70.8082645, -33.2579051], [-70.8083048, -33.2579072], [-70.8083534, -33.2579114], [-70.8084448, -33.2579265], [-70.8085764, -33.2579571], [-70.8086656, -33.2579811], [-70.8087121, -33.2579907], [-70.8087647, -33.2580004], [-70.8088036, -33.2580084], [-70.8088515, -33.2580152], [-70.8088888, -33.2580239], [-70.8089348, -33.2580325], [-70.8089765, -33.2580414], [-70.8090273, -33.2580525], [-70.809072, -33.2580617], [-70.8091204, -33.2580705], [-70.8091617, -33.2580811], [-70.8092434, -33.2580944], [-70.8092878, -33.2581029], [-70.8093636, -33.2581179], [-70.8093989, -33.2581233], [-70.8095403, -33.2581453], [-70.8095926, -33.2581573], [-70.8097253, -33.2581896], [-70.8097707, -33.2581942], [-70.8098189, -33.2581991], [-70.809916, -33.2582151], [-70.8099616, -33.258224], [-70.8100052, -33.2582345], [-70.8100898, -33.2582546], [-70.8102199, -33.2582787], [-70.8102674, -33.2582872], [-70.8103055, -33.2582946], [-70.8104254, -33.2583132], [-70.8105157, -33.258328], [-70.810604, -33.2583431], [-70.8106805, -33.2583552], [-70.810733, -33.2583653], [-70.8107892, -33.2583793], [-70.810838, -33.2583901], [-70.8108971, -33.2583989], [-70.8109081, -33.2584041], [-70.8109363, -33.2584135], [-70.8109553, -33.2584207], [-70.8109855, -33.2584281], [-70.811034, -33.2584337], [-70.8110802, -33.2584379], [-70.8112064, -33.2584623], [-70.811347, -33.2584846], [-70.8115191, -33.2585151], [-70.811572, -33.258526], [-70.8116026, -33.2585327], [-70.8116374, -33.2585377], [-70.8116789, -33.2585455], [-70.8117325, -33.2585544], [-70.8117555, -33.258559], [-70.8118018, -33.2585686], [-70.8118366, -33.2585756], [-70.8119077, -33.2585937], [-70.811941, -33.2586012], [-70.8119601, -33.2586044], [-70.8119993, -33.2586086], [-70.812041, -33.2586153], [-70.8120778, -33.2586178], [-70.8121133, -33.2586237], [-70.812225, -33.2586399], [-70.8123593, -33.2586612], [-70.8124703, -33.2586801], [-70.8125776, -33.2586969], [-70.812625, -33.258706], [-70.8126709, -33.2587129], [-70.8127092, -33.2587166], [-70.8127235, -33.2587172], [-70.8127345, -33.2587195], [-70.8127483, -33.2587152], [-70.8127807, -33.258708], [-70.8127939, -33.2587061], [-70.8128211, -33.2586965], [-70.8128327, -33.2586951], [-70.8128495, -33.2586916], [-70.8128776, -33.2586951], [-70.8129002, -33.2586963], [-70.8129145, -33.258698], [-70.8129431, -33.2587014], [-70.8129706, -33.2587055], [-70.8129955, -33.2587097], [-70.8130263, -33.2587124], [-70.8130531, -33.2587167], [-70.8130761, -33.2587179], [-70.8131002, -33.2587221], [-70.8131314, -33.258723], [-70.8131514, -33.258724], [-70.8131804, -33.2587277], [-70.8132034, -33.2587306], [-70.8132269, -33.2587413], [-70.8132513, -33.2587579], [-70.8132689, -33.2587682], [-70.8132882, -33.2587917], [-70.8132965, -33.2587989], [-70.8133102, -33.2588151], [-70.813469, -33.2588423], [-70.8135168, -33.2588538], [-70.8135912, -33.2588727], [-70.813754, -33.2589079], [-70.8138292, -33.2589143], [-70.8138704, -33.2589194], [-70.81399, -33.2589435], [-70.8144028, -33.2590191], [-70.8144213, -33.2590245], [-70.8145044, -33.2590443], [-70.8145562, -33.2590551], [-70.8146192, -33.259067], [-70.8146567, -33.2590771], [-70.8147282, -33.259096], [-70.8148339, -33.2591163], [-70.8150873, -33.2591649], [-70.8152516, -33.2592011], [-70.8153209, -33.2592044], [-70.8157064, -33.2592757], [-70.8159108, -33.2593123], [-70.8159867, -33.2593338], [-70.8160802, -33.2593604], [-70.8161863, -33.2593756], [-70.8162889, -33.259388], [-70.8164482, -33.2594085], [-70.8173549, -33.2595981], [-70.8177353, -33.259674], [-70.8183863, -33.2597898], [-70.8185949, -33.2598319], [-70.8190056, -33.2599099], [-70.819376, -33.259976], [-70.8195934, -33.2600176], [-70.8199273, -33.2600815], [-70.8201108, -33.260117], [-70.8203021, -33.2601445], [-70.8205303, -33.2601687], [-70.8206244, -33.2601863], [-70.8209844, -33.2602558], [-70.8215339, -33.2603522], [-70.8223112, -33.2604987], [-70.822669, -33.2605647], [-70.8229212, -33.2606107], [-70.8232368, -33.260671], [-70.8235335, -33.2607205], [-70.8238403, -33.2607819], [-70.8239361, -33.2607975], [-70.8240563, -33.2608229], [-70.8241047, -33.2608264], [-70.8241416, -33.2608329], [-70.8241929, -33.2608446], [-70.8242215, -33.2608422], [-70.8242751, -33.2608507], [-70.8245326, -33.2609101], [-70.8245895, -33.2609179], [-70.8246443, -33.260926], [-70.8246929, -33.2609365], [-70.8247576, -33.2609466], [-70.8248686, -33.260967], [-70.8249328, -33.2609749], [-70.8249718, -33.2609838], [-70.8250066, -33.2609826], [-70.8250107, -33.2609863], [-70.8256904, -33.2611029], [-70.8262612, -33.2611946], [-70.8271958, -33.2613399], [-70.827692, -33.2614279], [-70.8289832, -33.2616414], [-70.8291136, -33.2616592], [-70.829375, -33.2616991], [-70.8296646, -33.2617443], [-70.8299099, -33.2618076], [-70.8300124, -33.2618196], [-70.8300639, -33.2618253], [-70.8300888, -33.2618434], [-70.8300957, -33.2618163], [-70.8302483, -33.261379], [-70.8303582, -33.2610978], [-70.8304774, -33.2607363], [-70.8305664, -33.2604976], [-70.8306248, -33.260303], [-70.8306946, -33.2601442], [-70.8307035, -33.2601234], [-70.8307507, -33.2599811], [-70.83076, -33.2599642], [-70.8308042, -33.259889], [-70.8308251, -33.2598518], [-70.8308583, -33.2598105], [-70.8308609, -33.2598068], [-70.8308655, -33.2598073], [-70.8309201, -33.2597484], [-70.8309979, -33.2596646], [-70.831092, -33.2595625], [-70.8311915, -33.2594609], [-70.8313435, -33.2593032], [-70.8314089, -33.2592335], [-70.8314693, -33.2591679], [-70.8315386, -33.2590964], [-70.8316064, -33.2590266], [-70.8316601, -33.2589657], [-70.8317424, -33.258884], [-70.8318235, -33.258792], [-70.8318862, -33.2587291], [-70.8319854, -33.2586284], [-70.8322065, -33.258391], [-70.8322587, -33.258333], [-70.8323361, -33.258253], [-70.8323986, -33.258188], [-70.8324886, -33.2580963], [-70.8325123, -33.2580572], [-70.8325377, -33.2580376], [-70.8325893, -33.2580175], [-70.8325986, -33.2580216], [-70.8327078, -33.2580618], [-70.8328423, -33.2581104], [-70.8329802, -33.2581647], [-70.8331177, -33.2582139], [-70.833289, -33.2582729], [-70.8333077, -33.258237], [-70.8333763, -33.2581205], [-70.8334738, -33.2579434], [-70.8335038, -33.2578808], [-70.8335932, -33.2577363], [-70.83362, -33.2576864], [-70.8336715, -33.2575954], [-70.8337052, -33.2575196], [-70.8337486, -33.2574328], [-70.8337954, -33.2573367], [-70.8338705, -33.2572106], [-70.834045, -33.2568589], [-70.8341299, -33.2566752], [-70.8342602, -33.2564511], [-70.8343157, -33.2563453], [-70.8343424, -33.2562622], [-70.8343623, -33.2562093], [-70.8343786, -33.2561146], [-70.8344185, -33.2559482], [-70.8344215, -33.2558693], [-70.8344395, -33.2557524], [-70.8344469, -33.2556995], [-70.8344546, -33.2556081], [-70.8344679, -33.2555167], [-70.8344826, -33.2553937], [-70.8344928, -33.2553006], [-70.8345033, -33.2551986], [-70.8345298, -33.2550006], [-70.8345407, -33.2549169], [-70.8345462, -33.2548459], [-70.8345568, -33.2546962], [-70.8345715, -33.2545821], [-70.8345726, -33.2545566], [-70.8346089, -33.2545056], [-70.8346259, -33.254429], [-70.8346311, -33.2543202], [-70.8346315, -33.2542174], [-70.8346347, -33.254128], [-70.8346218, -33.2540372], [-70.8346026, -33.2539466], [-70.8345325, -33.2538128], [-70.8344788, -33.2537118], [-70.8344217, -33.2536307], [-70.8343566, -33.2535254], [-70.8342859, -33.2534249], [-70.8342593, -33.2533731], [-70.8341708, -33.2532607], [-70.8340611, -33.2531464], [-70.8339439, -33.2530362], [-70.8338533, -33.2529442], [-70.83376, -33.2528721], [-70.8336088, -33.2527786], [-70.8335361, -33.252731], [-70.8332394, -33.2525527], [-70.8331681, -33.252515], [-70.8331264, -33.2524896], [-70.8330332, -33.2524394], [-70.8327246, -33.2522715], [-70.8326762, -33.2522467], [-70.832354, -33.2520728], [-70.8322457, -33.251994], [-70.8321529, -33.251944], [-70.8321308, -33.2519343], [-70.8319953, -33.2518693], [-70.8318489, -33.2517578], [-70.8316289, -33.2515955], [-70.8316076, -33.2515815], [-70.8315406, -33.2515253], [-70.8315177, -33.2515142], [-70.8315028, -33.2514934], [-70.831491, -33.2514755], [-70.8314568, -33.251433], [-70.8314306, -33.2514105], [-70.8313251, -33.2512596], [-70.8312962, -33.2512235], [-70.8312803, -33.2511899], [-70.8312585, -33.2511608], [-70.8312455, -33.2511396], [-70.8312316, -33.2511155], [-70.831216, -33.251066], [-70.8311999, -33.2510282], [-70.8311721, -33.2509421], [-70.8311465, -33.2508414], [-70.8311292, -33.2507877], [-70.8311284, -33.2507484], [-70.8311309, -33.2506939], [-70.8311293, -33.2506172], [-70.8311375, -33.2505997], [-70.8311399, -33.250578], [-70.8311513, -33.2504844], [-70.8311587, -33.2504477], [-70.8312036, -33.2502402], [-70.831234, -33.2501267], [-70.8312347, -33.2501226], [-70.8302097, -33.2500032], [-70.8303285, -33.2480853], [-70.830328, -33.2480621], [-70.8302059, -33.2480491], [-70.8299663, -33.2480203], [-70.8297335, -33.2479946], [-70.8294323, -33.247961], [-70.8293986, -33.247959], [-70.8293138, -33.2479497], [-70.829233, -33.2479334], [-70.829145, -33.2479295], [-70.828916, -33.2479058], [-70.8288178, -33.2478944], [-70.827934, -33.2477969], [-70.8270687, -33.2477018], [-70.8267549, -33.2476677], [-70.8265864, -33.2476469], [-70.8262768, -33.2476129], [-70.8258538, -33.2475663], [-70.8252925, -33.2475026], [-70.8249794, -33.2474682], [-70.824499, -33.2474142], [-70.8239211, -33.2473504], [-70.8236741, -33.2473216], [-70.8224549, -33.2471816], [-70.8219813, -33.2471207], [-70.821499, -33.2470627], [-70.8212742, -33.2470359], [-70.8210529, -33.2470141], [-70.8208575, -33.2469868], [-70.820793, -33.2469791], [-70.8205337, -33.2469475], [-70.8203471, -33.2469245], [-70.820222, -33.2469107], [-70.8198536, -33.2468672], [-70.8194535, -33.246821], [-70.818883, -33.2467498], [-70.8179896, -33.2466466], [-70.8174878, -33.2465868], [-70.8178828, -33.2461413], [-70.8179984, -33.2460126], [-70.8185068, -33.2454603], [-70.8185766, -33.2453642], [-70.8186134, -33.2453182], [-70.8188788, -33.2450105], [-70.8189601, -33.2449296], [-70.819229, -33.2446236], [-70.8193206, -33.2445213], [-70.819502, -33.2443223], [-70.8198066, -33.2439766], [-70.8198839, -33.243889], [-70.8204978, -33.2431945], [-70.8206073, -33.2430665], [-70.8208124, -33.2428329], [-70.8210752, -33.2425559], [-70.8211129, -33.2424999], [-70.8211445, -33.2424515], [-70.8204809, -33.2422547], [-70.820238, -33.2421825], [-70.8200548, -33.2421519], [-70.8196632, -33.2421778], [-70.8195961, -33.2421864], [-70.819413, -33.2422027], [-70.8190559, -33.2422298], [-70.8188281, -33.2422562], [-70.818765, -33.2422633], [-70.8181228, -33.2423268], [-70.8176745, -33.2423624], [-70.8174169, -33.2423844], [-70.8172342, -33.2424019], [-70.816538, -33.2424532], [-70.8162002, -33.2424955], [-70.8158377, -33.242524], [-70.8154258, -33.2425608], [-70.814972, -33.2425973], [-70.8148457, -33.2426114], [-70.8147786, -33.2426185], [-70.8147159, -33.2426235], [-70.8145857, -33.2426353], [-70.8144587, -33.242646], [-70.8141423, -33.2426779], [-70.813954, -33.2426944], [-70.8137608, -33.2427116], [-70.8136302, -33.242724], [-70.8133209, -33.2427522], [-70.8131333, -33.242769], [-70.8130637, -33.242776], [-70.8128727, -33.2427921], [-70.8127437, -33.242804], [-70.8124885, -33.2428301], [-70.8123616, -33.2428427], [-70.8122342, -33.2428528], [-70.8121711, -33.2428563], [-70.8121038, -33.2428635], [-70.8120408, -33.2428702], [-70.8119767, -33.2428761], [-70.8119131, -33.2428819], [-70.8118497, -33.2428892], [-70.8117854, -33.2428942], [-70.8117215, -33.242899], [-70.8116854, -33.2430905], [-70.8116408, -33.2430971], [-70.8115856, -33.2431039], [-70.8115515, -33.2431121], [-70.8115158, -33.243124], [-70.8114856, -33.2431575], [-70.8114165, -33.2432346], [-70.8112646, -33.2433991], [-70.8111468, -33.2435363], [-70.8110499, -33.2436456], [-70.8109459, -33.2437593], [-70.8108438, -33.2438774], [-70.8107414, -33.2439985], [-70.8106774, -33.2440682], [-70.8105555, -33.2442074], [-70.8103185, -33.2444804], [-70.8101332, -33.2446938], [-70.8099316, -33.2449239], [-70.8097901, -33.2450863], [-70.8096717, -33.2452174], [-70.8095552, -33.2453509], [-70.8094062, -33.2455223], [-70.8092931, -33.2456502], [-70.8091601, -33.2458022], [-70.8090302, -33.245951], [-70.8088173, -33.246199], [-70.8086061, -33.246436], [-70.8081574, -33.246949], [-70.8078072, -33.2473517], [-70.8070464, -33.2482189], [-70.8068185, -33.248478], [-70.8066902, -33.2486243], [-70.8064236, -33.2489347], [-70.8063141, -33.2490545], [-70.8058609, -33.2495726], [-70.8055284, -33.2499562], [-70.8050509, -33.2504996], [-70.8045283, -33.2510978], [-70.8044605, -33.2511756], [-70.8043071, -33.2513557], [-70.8041232, -33.2515599], [-70.8039738, -33.2517317], [-70.8038595, -33.2518608], [-70.8037622, -33.2519731], [-70.8036514, -33.2520968], [-70.8035512, -33.252215], [-70.8034589, -33.2523194], [-70.8034123, -33.2523729], [-70.8031046, -33.2527225], [-70.8028945, -33.2529651], [-70.8027202, -33.2531646], [-70.802444, -33.2534817], [-70.8024087, -33.2535215], [-70.8023359, -33.2536076], [-70.8022497, -33.2537065], [-70.8021281, -33.2538434], [-70.8019388, -33.2540616], [-70.8018296, -33.2541857], [-70.8016845, -33.2543558], [-70.8013812, -33.254697], [-70.8012692, -33.2548326], [-70.801206, -33.2548993], [-70.8011321, -33.2549833], [-70.8009783, -33.2551575], [-70.8008737, -33.2552801], [-70.8007742, -33.2553938], [-70.8006558, -33.2555282], [-70.800571, -33.2556248], [-70.8004713, -33.2557416], [-70.7999966, -33.2562719], [-70.79983, -33.2564696], [-70.7991098, -33.2572986], [-70.7989848, -33.2574358], [-70.7988564, -33.2575892], [-70.7987991, -33.2576548], [-70.7987508, -33.2577082], [-70.7986838, -33.2577762], [-70.7986253, -33.2578505], [-70.7985775, -33.2579052], [-70.7984973, -33.2579996], [-70.7983921, -33.2581202], [-70.7983197, -33.2581991], [-70.7982062, -33.2583265], [-70.7981202, -33.258429], [-70.798046, -33.2585138], [-70.7979599, -33.2586083], [-70.7978536, -33.2587318], [-70.7977786, -33.2588159], [-70.7977274, -33.2588786], [-70.7976339, -33.2589864], [-70.7974696, -33.2591756], [-70.7973557, -33.2593007], [-70.7972858, -33.2593791], [-70.797247, -33.2594213], [-70.7971989, -33.2594779], [-70.7971139, -33.2595773], [-70.7970166, -33.2596877], [-70.7969516, -33.259759], [-70.7968879, -33.2598355], [-70.7968451, -33.2598853], [-70.7967831, -33.2599546], [-70.7967134, -33.2600424], [-70.7966662, -33.2600987], [-70.7965824, -33.2601923], [-70.796495, -33.2602874], [-70.7962203, -33.2606004], [-70.7960591, -33.2607894], [-70.7959003, -33.2609976], [-70.7957615, -33.2611512], [-70.7956592, -33.2612772], [-70.795524, -33.2614208], [-70.7954617, -33.2614929], [-70.7950014, -33.2620178], [-70.7948052, -33.2622437], [-70.794554, -33.2625336], [-70.7942956, -33.2628269], [-70.7937896, -33.2634097], [-70.7936232, -33.2635997], [-70.7934539, -33.2637892], [-70.7933226, -33.2639407], [-70.7931358, -33.2641606], [-70.7929429, -33.2643737], [-70.7924491, -33.2649359], [-70.7922786, -33.2651325], [-70.7918742, -33.2655944], [-70.7917231, -33.2657669], [-70.7914673, -33.2660576], [-70.7911688, -33.2663965], [-70.7894719, -33.2683486], [-70.7890664, -33.2688049], [-70.7885835, -33.269358], [-70.788516, -33.26944], [-70.7880455, -33.2699831], [-70.787664, -33.2704088], [-70.7870194, -33.2711402], [-70.7868875, -33.2712917], [-70.7867653, -33.2714364], [-70.7864793, -33.2717583], [-70.7859886, -33.2723225], [-70.7857381, -33.2726079], [-70.7853452, -33.2730519], [-70.785137, -33.2732869], [-70.784981, -33.2734707], [-70.7845285, -33.2740071], [-70.782799, -33.2759832], [-70.7816944, -33.2772248], [-70.7814281, -33.2775246], [-70.7813884, -33.2775707], [-70.7812512, -33.2777228], [-70.7809271, -33.2780977], [-70.78058, -33.2784931], [-70.7805108, -33.2785729], [-70.7802219, -33.2789042], [-70.7791484, -33.2801295], [-70.7777932, -33.2816829], [-70.7761462, -33.2835648], [-70.7744275, -33.285526], [-70.7737196, -33.2863332], [-70.7734699, -33.2866256], [-70.7727538, -33.2874175], [-70.7725444, -33.2876548], [-70.7723236, -33.2879075], [-70.7719201, -33.2883672], [-70.7711488, -33.289253], [-70.7710769, -33.2893404], [-70.7713848, -33.2895142]]]}, {"type": "LineString", "coordinates": [[-70.7718925, -33.2895799], [-70.7711488, -33.289253]]}]}}]}