{"type": "FeatureCollection", "features": [{"type": "Feature", "geometry": {"type": "Polygon", "coordinates": [[[-70.8036827279999, -33.2287432591346], [-70.8036281609999, -33.2290194521346], [-70.8035547599999, -33.2289965461347], [-70.8034963179999, -33.2289783081347], [-70.803032975, -33.2288337161346], [-70.8026823319999, -33.2287309181346], [-70.8026247999999, -33.2287140511346], [-70.8023292869999, -33.2286274141347], [-70.8022517559999, -33.2286046851346], [-70.8020661299999, -33.2285511751346], [-70.8019740739999, -33.2285246381346], [-70.8016466509999, -33.2284302531346], [-70.8016350339999, -33.2284273871346], [-70.8016300919999, -33.2284261671346], [-70.8016251499999, -33.2284249481347], [-70.8014780739999, -33.2283886601346], [-70.8014764919999, -33.2283881921347], [-70.8014749099999, -33.2283877241346], [-70.8012547749999, -33.2283225951346], [-70.8012291319999, -33.2283150081346], [-70.8009339629999, -33.2282276791346], [-70.8008688729999, -33.2282084221347], [-70.8008102679999, -33.2281910831346], [-70.8004177939999, -33.2280749661346], [-70.8003139769999, -33.2280442511346], [-70.8001464089999, -33.2279946741346], [-70.7999593279999, -33.2291956511346], [-70.7997672249999, -33.2304288601346], [-70.7996931829999, -33.2309041691346], [-70.7996482229999, -33.2311927911346], [-70.7999226309999, -33.2312332611346], [-70.799955683, -33.2312381361346], [-70.8000933719999, -33.2312584421346], [-70.8006020179999, -33.2313334581346], [-70.8009029549999, -33.2313778411346], [-70.800937169, -33.2313828871346], [-70.8009741729999, -33.2313883441346], [-70.8010533559999, -33.2314000221346], [-70.8031230119999, -33.2317052581346], [-70.8032230199999, -33.2317200071346], [-70.8032193949999, -33.2317422201346], [-70.8032175389999, -33.2317535901346], [-70.8032175319999, -33.2317536321346], [-70.8032161879999, -33.2317618651346], [-70.8031388749999, -33.2322354621346], [-70.8031247299999, -33.2323221121346], [-70.8031223909999, -33.2323364371346], [-70.8030686099999, -33.2326658861346], [-70.8030649129999, -33.2326885221346], [-70.8030567989999, -33.2327382301346], [-70.8029904029999, -33.2331449421346], [-70.8029047859999, -33.2336693961345], [-70.8028323139999, -33.2341133311346], [-70.8028028829999, -33.2342936101346], [-70.8027073139999, -33.2348882341345], [-70.8026884199999, -33.2350057911345], [-70.8025902909999, -33.2356163421345], [-70.8025611739999, -33.2357975061345], [-70.8025600539999, -33.2358044731345], [-70.8025439859999, -33.2359044981346], [-70.8025388729999, -33.2359363201345], [-70.8025581139999, -33.2359434141346], [-70.8025629429999, -33.2359451941345], [-70.8039129569999, -33.2364429251345], [-70.8045888329999, -33.2366921031345], [-70.8060744059999, -33.2372397761346], [-70.8061504649999, -33.2372678481345], [-70.8065154139999, -33.2374025391345], [-70.8065152139999, -33.2374368951345], [-70.8065134439999, -33.2377408561345], [-70.8065120429999, -33.2379815071345], [-70.8065090269999, -33.2384993851345], [-70.8064479889999, -33.2384765041345], [-70.8058360069999, -33.2382470881345], [-70.8048114359999, -33.2378630041345], [-70.8044551859999, -33.2385579921345], [-70.8042752009999, -33.2389091081345], [-70.8042485309999, -33.2389611361345], [-70.8045986319999, -33.2390896961345], [-70.8046545399999, -33.2391102261345], [-70.8051227969999, -33.2392821721345], [-70.8058438309999, -33.2395469391345], [-70.8064447539999, -33.2397675931345], [-70.8065175819999, -33.2397943351345], [-70.8065246809999, -33.2398215471345], [-70.8065300809999, -33.2400892011345], [-70.8065306829999, -33.2401190541345], [-70.8065320199999, -33.2401853361345], [-70.8065328189999, -33.2402249231345], [-70.8065378289999, -33.2404732921345], [-70.8065380059999, -33.2404820851345], [-70.8065368999999, -33.2408538891345], [-70.8065367989999, -33.2408876881345], [-70.8065366789999, -33.2409279451345], [-70.8065361029999, -33.2411216841345], [-70.8065361029999, -33.2412279501345], [-70.8065361029999, -33.2414602891344], [-70.8065361029999, -33.2420472421345], [-70.8065361029999, -33.2431630241345], [-70.8065361029999, -33.2431677831344], [-70.806534913, -33.2432938941344], [-70.8065334129999, -33.2433648991344], [-70.8065416459999, -33.2433642521344], [-70.8065581509999, -33.2433629551345], [-70.8065626629999, -33.2433626011344], [-70.8065882679999, -33.2433605901345], [-70.8065928429999, -33.2433602311344], [-70.8065933529999, -33.2433601911345], [-70.8066011719999, -33.2433595771344], [-70.806609739, -33.2433589041344], [-70.8074934829999, -33.2432894751344], [-70.8109622139999, -33.2429941451345], [-70.8110802609999, -33.2429840941344], [-70.8110876989999, -33.2429834611344], [-70.8113467189999, -33.2429614081344], [-70.8113676439999, -33.2429596261345], [-70.8113846929999, -33.2429937341344], [-70.811390635, -33.2430056211345], [-70.8113967079999, -33.2430177691345], [-70.8113984109999, -33.2430187721344], [-70.8113989779999, -33.2430191061345], [-70.8114311339999, -33.2430380511344], [-70.8114311669999, -33.2430380681344], [-70.8114599299999, -33.2430496381345], [-70.811460597, -33.2430499061345], [-70.8114632799999, -33.2430509851345], [-70.8114686469999, -33.2430531431344], [-70.8115121399999, -33.2430603141344], [-70.8115957089999, -33.2430590971345], [-70.8116605459999, -33.2430503471344], [-70.8117495529999, -33.2430126281344], [-70.8119676969999, -33.2429314011345], [-70.8119980579999, -33.2429023411344], [-70.8120224969999, -33.2428863751345], [-70.81261459, -33.2428470411344], [-70.8131262759999, -33.2428130491345], [-70.8131842319999, -33.2428070321344], [-70.8134573719999, -33.2427786721344], [-70.8134680509999, -33.2427775631345], [-70.8135113419999, -33.2427730681345], [-70.813544481, -33.2426896071345], [-70.8135563579999, -33.2426596961344], [-70.8135635199999, -33.2426416591345], [-70.8135894449999, -33.2426782731345], [-70.8136577099999, -33.2426879981344], [-70.8138464759999, -33.2426680061344], [-70.8144051069999, -33.2426088401345], [-70.814909902, -33.2425553761344], [-70.8149565159999, -33.2425513251345], [-70.8167612059999, -33.2423944721345], [-70.8177761969999, -33.2423062471344], [-70.8183398849999, -33.2422579471344], [-70.8185070339999, -33.2422436241345], [-70.8196870979999, -33.2421425061345], [-70.8198681339999, -33.2421119401344], [-70.8201034569999, -33.2420722091345], [-70.8208109839999, -33.2422884951345], [-70.8214128119999, -33.2424724701345], [-70.8213557569999, -33.2426015341345], [-70.8213547229999, -33.2426038721345], [-70.821354358, -33.2426044351344], [-70.8212635209999, -33.2427444911345], [-70.8211701339999, -33.2428780331345], [-70.8211340789999, -33.2429295921344], [-70.8210614309999, -33.2429896241345], [-70.8210149559999, -33.2430280281344], [-70.8209701659999, -33.2430735841344], [-70.820712796, -33.2433353571344], [-70.8202822959999, -33.2437732241344], [-70.8200656519999, -33.2439935721345], [-70.820011157, -33.2440484691344], [-70.8199128519999, -33.2441475001344], [-70.81991038, -33.2441499901344], [-70.8195092089999, -33.2445541191344], [-70.8192578709999, -33.2448073071344], [-70.8191293189999, -33.2449368051344], [-70.8188615589999, -33.2452065331344], [-70.8187481989999, -33.2453207261344], [-70.8186012969999, -33.2454624171344], [-70.8185640739999, -33.2454983201344], [-70.8184749709999, -33.2455842631344], [-70.8184696519999, -33.2456199631344], [-70.8185625209999, -33.2456985301344], [-70.8194651619999, -33.2463418981344], [-70.8199839529999, -33.2467091221344], [-70.8200252689999, -33.2467383671344], [-70.8200605469999, -33.2467481511344], [-70.8200998489999, -33.2467372671344], [-70.8200731179999, -33.2467636571344], [-70.819939556, -33.2468955151344], [-70.8203034519999, -33.2469401881344], [-70.8204812929999, -33.2469620201344], [-70.8207448399999, -33.2469943731344], [-70.8210524809999, -33.2470321381344], [-70.8213804049999, -33.2470723921344], [-70.8217289139999, -33.2471151721344], [-70.8218689649999, -33.2471323641344], [-70.8219362829999, -33.2471406271344], [-70.8220056369999, -33.2471491401344], [-70.8221460869999, -33.2471663801344], [-70.8223494539999, -33.2471913421344], [-70.8226621009999, -33.2472297181344], [-70.8228096309999, -33.2472478261344], [-70.822964753, -33.2472668651344], [-70.8229843619999, -33.2472692721344], [-70.8229886569999, -33.2472697991344], [-70.8229727119999, -33.2472252811344], [-70.8229670899999, -33.2472056481344], [-70.822962732, -33.2471904271344], [-70.8229480119999, -33.2471412581344], [-70.8229435479999, -33.2471364981344], [-70.8229410359999, -33.2471338191344], [-70.8229401129999, -33.2471328351344], [-70.822939275, -33.2471319421344], [-70.8229028989999, -33.2470931491344], [-70.8228630789999, -33.2470506821344], [-70.8228064919999, -33.2469883251344], [-70.8227500289999, -33.2469261071344], [-70.8227346969999, -33.2469104161344], [-70.8227234759999, -33.2468989631344], [-70.8227124139999, -33.2468884681344], [-70.8226939279999, -33.2468734011344], [-70.8226805829999, -33.2468638781344], [-70.8226562269999, -33.2468485171344], [-70.8226382329999, -33.2468373901344], [-70.8226183619999, -33.2468277381344], [-70.8225987679999, -33.2468182191344], [-70.8225685899999, -33.2468008201344], [-70.8225597719999, -33.2467957361344], [-70.8225426769999, -33.2467858811344], [-70.8224800019999, -33.2467428691344], [-70.822351883, -33.2466118911344], [-70.8222893399999, -33.2465318721344], [-70.8222575179999, -33.2464872901344], [-70.8222382089999, -33.2464325981344], [-70.8222107719999, -33.2463803161344], [-70.8221893919999, -33.2463134371344], [-70.8221591719999, -33.2462146201344], [-70.8221366149999, -33.2461347791344], [-70.8221313909999, -33.2461020231344], [-70.8221134339999, -33.2460686901344], [-70.8220716419999, -33.2459814951344], [-70.8220405609999, -33.2458849811344], [-70.8220191819999, -33.2458181031344], [-70.8220153159999, -33.2457631841344], [-70.8220141279999, -33.2457059361344], [-70.8220251919999, -33.2456698881344], [-70.82204429, -33.2456268491344], [-70.8220735859999, -33.2455935881344], [-70.8220993599999, -33.2455657231344], [-70.8221308059999, -33.2455484641344], [-70.8221593199999, -33.2455213221344], [-70.8221922979999, -33.2454902971344], [-70.8222368309999, -33.2454468861344], [-70.8222960779999, -33.2453681371344], [-70.8223253419999, -33.2453333481344], [-70.8223438799999, -33.2453071161344], [-70.8223675199999, -33.2452640111344], [-70.8223873509999, -33.2452125631344], [-70.822389971, -33.2451636581344], [-70.8223791229999, -33.2451225861344], [-70.8223656439999, -33.2450861341344], [-70.8223407739999, -33.2450261781344], [-70.8223143249999, -33.2449776991344], [-70.8222928249999, -33.2449318591344], [-70.8222917829999, -33.2449295301344], [-70.8222879339999, -33.2449202821344], [-70.8222837629999, -33.2449102591344], [-70.8222774069999, -33.2448900471344], [-70.8222707779999, -33.2448689661344], [-70.8222664959999, -33.2448532891344], [-70.8222620669999, -33.2448370791344], [-70.8222566619999, -33.2448135671344], [-70.822251219, -33.2447898971344], [-70.8222723419999, -33.2447962021344], [-70.8223858189999, -33.2448300741344], [-70.8225113979999, -33.2448675581344], [-70.8229973809999, -33.2450126201344], [-70.8230781919999, -33.2450348061344], [-70.8232106879999, -33.2450711821344], [-70.8234564599999, -33.2451321491344], [-70.8242305239999, -33.2453502381344], [-70.8243623109999, -33.2453873681344], [-70.824473527, -33.2454187031344], [-70.8245871439999, -33.2454507141344], [-70.8247722239999, -33.2455028601344], [-70.8248410109999, -33.2455222401344], [-70.8248785719999, -33.2454304861344], [-70.8249058599999, -33.2453638271344], [-70.8250705379999, -33.2449615541344], [-70.8250723449999, -33.2449574661344], [-70.8251737759999, -33.2447975351344], [-70.8252035559999, -33.2447505791344], [-70.8252056129999, -33.2447473351344], [-70.8252212159999, -33.2447043661344], [-70.8252522739999, -33.2447137011345], [-70.8253188709999, -33.2447337181344], [-70.8261149659999, -33.2449729971344], [-70.8265554659999, -33.2451053971344], [-70.8271195489999, -33.2452749421344], [-70.8273595799999, -33.2453470881344], [-70.8273908509999, -33.2453564871344], [-70.8277069149999, -33.2454514851344], [-70.8281168149999, -33.2445432431344], [-70.8281268709999, -33.2445209601344], [-70.8279026419999, -33.2444524301345], [-70.8277749919999, -33.2444134171344], [-70.8276716989999, -33.2443818481344], [-70.826871003, -33.2441377501344], [-70.8262190989999, -33.2439390131344], [-70.8246433259999, -33.2434586231344], [-70.8244172839999, -33.2433897081344], [-70.8235243909999, -33.2431174821344], [-70.8234648239999, -33.2430993211344], [-70.8234343329999, -33.2430900251345], [-70.8234167179999, -33.2430846541344], [-70.8233792089999, -33.2430732181345], [-70.8233053129999, -33.2430506881344], [-70.8232680019999, -33.2430393121344], [-70.8232715429999, -33.2430138641344], [-70.8232716839999, -33.2430127421345], [-70.8232756749999, -33.2429812001344], [-70.8232764779999, -33.2429748501344], [-70.8232764859999, -33.2429739381344], [-70.8232766479999, -33.2429554201344], [-70.8232766499999, -33.2429552421344], [-70.8232768259999, -33.2429350231344], [-70.8232795229999, -33.2428993881345], [-70.8232868769999, -33.2428577541344], [-70.8232905169999, -33.2428280311344], [-70.8232935629999, -33.2427225851345], [-70.8232949919999, -33.2426955211344], [-70.8233097119999, -33.2425954981345], [-70.8233172929999, -33.2425571731345], [-70.8233229969999, -33.2425319551345], [-70.8233356349999, -33.2424942991344], [-70.8233415129999, -33.2424724871344], [-70.8233425249999, -33.2424687341344], [-70.8233425629999, -33.2424684861345], [-70.8233426369999, -33.2424680011345], [-70.8233440839999, -33.2424585271344], [-70.8233475739999, -33.2424356851344], [-70.8233502339999, -33.2424182801344], [-70.8233520889999, -33.2424061391345], [-70.8233534779999, -33.2423970451345], [-70.8233542959999, -33.2423916901344], [-70.8233544509999, -33.2423909761345], [-70.8233563389999, -33.2423823441345], [-70.8233671089999, -33.2423330931345], [-70.8233797469999, -33.2422600001344], [-70.8233856399999, -33.2422259201345], [-70.8233908889999, -33.2421948861344], [-70.8233941269999, -33.2421553181345], [-70.8233928579999, -33.2420685391345], [-70.8233931469999, -33.2420351171345], [-70.8233963779999, -33.2419903501344], [-70.8234039429999, -33.2419364211344], [-70.823409711, -33.2419044611344], [-70.8234135199999, -33.2418919761344], [-70.823413995, -33.2418904201345], [-70.8234130519999, -33.2418905691345], [-70.8233477779999, -33.2419008531345], [-70.8232378559999, -33.2419156971345], [-70.8231495669999, -33.2419276201345], [-70.8229016799999, -33.2419551151345], [-70.8228840609999, -33.2419557181344], [-70.8227546069999, -33.2419601471345], [-70.8225966479999, -33.2419655511345], [-70.8222692119999, -33.2419226291344], [-70.8222573439999, -33.2419191071345], [-70.8218477869999, -33.2417975711345], [-70.821803525, -33.2417809061344], [-70.8213905839999, -33.2416254351345], [-70.8212992589999, -33.2415910521345], [-70.8212965179999, -33.2415900201345], [-70.8209215389999, -33.2414488141345], [-70.8209214379999, -33.2414487721345], [-70.8209044339999, -33.2414411661345], [-70.8208264519999, -33.2414061681344], [-70.820811079, -33.2414010941345], [-70.8207195559999, -33.2413708881345], [-70.8198526749999, -33.2410847821345], [-70.8196780209999, -33.2410271381345], [-70.8193925759999, -33.2409276731345], [-70.8189096669999, -33.2407593991345], [-70.8189284139999, -33.2407318171344], [-70.8191778709999, -33.2403647841345], [-70.8192096739999, -33.2403179901345], [-70.8192203209999, -33.2403023281345], [-70.8192309319999, -33.2402867121345], [-70.8192336369999, -33.2402827331345], [-70.8192444079999, -33.2402668841345], [-70.8195107339999, -33.2398750301345], [-70.8195213679999, -33.2398593991345], [-70.8195319869999, -33.2398437591345], [-70.819561286, -33.2398006511345], [-70.8196390979999, -33.2396861641345], [-70.8197677629999, -33.2394968651345], [-70.8198129979999, -33.2394303051345], [-70.8198236079999, -33.2394146611345], [-70.8198342519999, -33.2393990341345], [-70.8201091689999, -33.2389945371345], [-70.8201197799999, -33.2389788941345], [-70.8201304159999, -33.2389632621345], [-70.8204042009999, -33.2385604501345], [-70.8204143759999, -33.2385454721345], [-70.8204249869999, -33.2385298281345], [-70.8204356269999, -33.2385142041345], [-70.8207192109999, -33.2380969441345], [-70.8207298529999, -33.2380813011345], [-70.8207404629999, -33.2380656741345], [-70.8207900509999, -33.2379927131345], [-70.8209319769999, -33.2377838881345], [-70.8210147129999, -33.2376621541345], [-70.8210253439999, -33.2376465191345], [-70.8210359689999, -33.2376308821345], [-70.8210899649999, -33.2375514351345], [-70.8213190029999, -33.2372130701345], [-70.8213296009999, -33.2371974201345], [-70.8213401899999, -33.2371817711345], [-70.8214194759999, -33.2370646391345], [-70.8214785529999, -33.2369773641345], [-70.821480903, -33.2369738921345], [-70.8215253509999, -33.2369082281345], [-70.8217552739999, -33.2365685551346], [-70.8218233019999, -33.2364680551345], [-70.8222953939999, -33.2357706151345], [-70.8202954229999, -33.2350409131345], [-70.8194361319999, -33.2347273961345], [-70.8189025679999, -33.2345327221345], [-70.8186575119999, -33.2348093131345], [-70.8181615999999, -33.2353690411345], [-70.817919705, -33.2356420821345], [-70.8178252459999, -33.2357486981345], [-70.8176047609999, -33.2359975261345], [-70.8165809119999, -33.2353351481345], [-70.8165015879999, -33.2352838291346], [-70.8151483069999, -33.2344082941346], [-70.8150542879999, -33.2343474661345], [-70.8147598319999, -33.2345769321345], [-70.8148937519999, -33.2346550381345], [-70.8148560529999, -33.2346980461345], [-70.8148380639999, -33.2347185681346], [-70.8147655409999, -33.2348013031345], [-70.8143665629999, -33.2352564611346], [-70.8141989179999, -33.2353299881345], [-70.8140260989999, -33.2353784171345], [-70.8140258089999, -33.2353783731345], [-70.8140013549999, -33.2353746341345], [-70.8138349509999, -33.2353491901346], [-70.8137999219999, -33.2353438341345], [-70.8139215279999, -33.2349274141345], [-70.8139446059999, -33.2348483881345], [-70.813958038, -33.2348023921346], [-70.8140157059999, -33.2346049161346], [-70.8140727519999, -33.2343816521346], [-70.8141814369999, -33.2339562921346], [-70.8142015579999, -33.2338775481346], [-70.8142388449999, -33.2336647461346], [-70.8143036749999, -33.2333760201346], [-70.8143334649999, -33.2332433451346], [-70.8144065649999, -33.2329177881346], [-70.8144460469999, -33.2327202861346], [-70.8145105379999, -33.2323976771346], [-70.8145190129999, -33.2323552831346], [-70.8146616199999, -33.2317708281346], [-70.8147294059999, -33.2314930141346], [-70.8148131379999, -33.2311498471346], [-70.8149773049999, -33.2304344061346], [-70.8151713469999, -33.2295887581346], [-70.8151936809999, -33.2294941781346], [-70.8152056589999, -33.2294434551346], [-70.8153686759999, -33.2287530931346], [-70.8153995069999, -33.2286225271346], [-70.8154356479999, -33.2284647581346], [-70.8155945839999, -33.2277709371347], [-70.8156175969999, -33.2276557961347], [-70.8156491429999, -33.2274979651347], [-70.8156598219999, -33.2274445371346], [-70.8157382569999, -33.2269520141347], [-70.8157766769999, -33.2264999971347], [-70.8158014529999, -33.2260080451347], [-70.8158146159999, -33.2255015851347], [-70.8158210209999, -33.2253677701347], [-70.8158212929999, -33.2253620861347], [-70.8158226079999, -33.2253346111347], [-70.8158319419999, -33.2251396181347], [-70.8158427909999, -33.2250176941346], [-70.8158604399999, -33.2248193401347], [-70.8158659299999, -33.2247576411347], [-70.8158191249999, -33.2247529511346], [-70.8158186619999, -33.2247529041347], [-70.8158181989999, -33.2247528581347], [-70.8157030039999, -33.2247413151347], [-70.8156643789999, -33.2247374451347], [-70.8155436289999, -33.2247253451347], [-70.8152515649999, -33.2246960791347], [-70.8152027649999, -33.2246911891347], [-70.8151718209999, -33.2246880881347], [-70.8151677839999, -33.2246876831347], [-70.8151467709999, -33.2246855781347], [-70.8150010569999, -33.2246709771347], [-70.8146588489999, -33.2246366861347], [-70.8146319669999, -33.2246339921347], [-70.8145182489999, -33.2246225971347], [-70.8144678459999, -33.2246175461347], [-70.8143608329999, -33.2246068231347], [-70.8139635179999, -33.2245670101347], [-70.8138972599999, -33.2245603701347], [-70.8138808869999, -33.2245587301347], [-70.8138747609999, -33.2245581161347], [-70.8138686359999, -33.2245575021347], [-70.8138314299999, -33.2245537741347], [-70.8138087489999, -33.2245515011347], [-70.8137936449999, -33.2245497721347], [-70.8137901129999, -33.2245493691347], [-70.813789944, -33.2245493481347], [-70.8137897749999, -33.2245493291347], [-70.8137884899999, -33.2245491821347], [-70.8137877809999, -33.2245491011347], [-70.8137851099999, -33.2245487951347], [-70.8137830609999, -33.2245485601347], [-70.813775141, -33.2245476531347], [-70.8137304729999, -33.2245425401347], [-70.813615878, -33.2245294221347], [-70.8133785809999, -33.2245022591347], [-70.8133727359999, -33.2245015901347], [-70.8129963389999, -33.2244585041347], [-70.8128281779999, -33.2244392551347], [-70.812675753, -33.2244218071347], [-70.8122018289999, -33.2243675581347], [-70.8120965779999, -33.2243555101347], [-70.812094623, -33.2243552861347], [-70.8120944219999, -33.2243552631347], [-70.8120942209999, -33.2243552401347], [-70.8120645229999, -33.2243518401347], [-70.8120229439999, -33.2243470811347], [-70.8120225279999, -33.2243470331347], [-70.8117048829999, -33.2243106721347], [-70.8115176389999, -33.2242892381347], [-70.8114876039999, -33.2242858001347], [-70.8108424669999, -33.2242119511347], [-70.8108221219999, -33.2242096221347], [-70.8103892159999, -33.2241600681347], [-70.8103826539999, -33.2241593171347], [-70.8103489739999, -33.2241554621347], [-70.8103437059999, -33.2241549041347], [-70.8103007639999, -33.2241503591347], [-70.8101446449999, -33.2241338351347], [-70.8096887749999, -33.2240855861347], [-70.8096749219999, -33.2240841201347], [-70.8094030119999, -33.2240553411347], [-70.8086461589999, -33.2239752351347], [-70.8086133939999, -33.2239717671347], [-70.808607402, -33.2239710891347], [-70.8086073039999, -33.2239710771347], [-70.8086072059999, -33.2239710661347], [-70.808606042, -33.2239709341347], [-70.808576764, -33.2239676211347], [-70.808573883, -33.2239672941347], [-70.8082510719999, -33.2239307561347], [-70.8081999839999, -33.2239249741347], [-70.8081889239999, -33.2239237221347], [-70.8069725519999, -33.2237860451347], [-70.8069332499999, -33.2237815961347], [-70.8069041549999, -33.2237783031347], [-70.8068143769999, -33.2237681411347], [-70.8064662019999, -33.2237287331347], [-70.8055536769999, -33.2236254471347], [-70.8054540799999, -33.2236141741347], [-70.8052991859999, -33.2235966421347], [-70.8051924479999, -33.2235845611347], [-70.8048905229999, -33.2235503881347], [-70.8048169549999, -33.2235420611347], [-70.8047767799999, -33.2235375141347], [-70.8045443169999, -33.2235112021347], [-70.8045442849999, -33.2235113931347], [-70.8045442529999, -33.2235115841347], [-70.8045382559999, -33.2235464121347], [-70.8045345549999, -33.2235679091347], [-70.8045345289999, -33.2235680581347], [-70.8045253669999, -33.2236212621347], [-70.8045046629999, -33.2237414981347], [-70.8045042669999, -33.2237438001347], [-70.8044909239999, -33.2238212881347], [-70.8044765489999, -33.2239061631347], [-70.8044758939999, -33.2239100331347], [-70.804475238, -33.2239139041347], [-70.8044621349999, -33.2239912741347], [-70.8044350359999, -33.2241512791347], [-70.804423127, -33.2242215941347], [-70.8044123459999, -33.2242852491347], [-70.8044019739999, -33.2243464871347], [-70.8043894729999, -33.2244203001347], [-70.8043472459999, -33.2246696281347], [-70.8043398499999, -33.2247132961347], [-70.8043321299999, -33.2247588791347], [-70.8043262969999, -33.2247933221347], [-70.8043260819999, -33.2247945901347], [-70.8043258669999, -33.2247958591347], [-70.8043214159999, -33.2248221391347], [-70.8043128249999, -33.2248728631346], [-70.8042887649999, -33.2250149231347], [-70.8042817929999, -33.2250560871347], [-70.804264686, -33.2251570931347], [-70.8042467259999, -33.2252631361347], [-70.8042285289999, -33.2253879431346], [-70.8041787429999, -33.2257294131347], [-70.8041751199999, -33.2257542631347], [-70.8041706579999, -33.2257848611347], [-70.8041704469999, -33.2257863181347], [-70.8041702349999, -33.2257877761347], [-70.8041665019999, -33.2258133661347], [-70.8041283269999, -33.2260751941346], [-70.8041177999999, -33.2261473921346], [-70.8040758019999, -33.2264354371347], [-70.8040649769999, -33.2265096801346], [-70.8040324999999, -33.2267324291346], [-70.8040280909999, -33.2267626731347], [-70.8040264749999, -33.2267737561346], [-70.8040215189999, -33.2268077441346], [-70.803953583, -33.2272736791346], [-70.8039493339999, -33.2273028221347], [-70.8039375479999, -33.2273836571347], [-70.8038987119999, -33.2276500171346], [-70.8038864069999, -33.2277123011347], [-70.8038776579999, -33.2277565871346], [-70.8038719269999, -33.2277855951346], [-70.8038536349999, -33.2278781821346], [-70.8036943069999, -33.2286846501346], [-70.803688872, -33.2287121591346], [-70.8036883639999, -33.2287147301346], [-70.8036827279999, -33.2287432591346]]]}, "properties": {"LOCALIDAD": "BATUCO", "ENTIDAD": "BATUCO", "CATEGORIA": "Ciudad", "n_per": 17974, "n_hombres": 9014, "n_mujeres": 8960, "prom_edad": 33.8, "n_hog": 5742, "n_vp": 5994, "n_vp_ocupada": 5821, "n_vp_desocupada": 173, "n_deficit_cuantitativo": 514, "n_viv_hacinadas": 572, "n_serv_hig_alc_dentro": 4394, "n_serv_hig_fosa": 823, "n_serv_hig_pozo": 118, "n_fuente_agua_publica": 4912, "n_fuente_agua_pozo": 527, "n_fuente_agua_camion": 133, "n_transporte_publico": 2984, "n_transporte_auto": 2201, "n_transporte_camina": 605, "n_internet": 5431, "n_inmigrantes": 2751, "prom_escolaridad18": 10.8}}]}