{"type": "FeatureCollection", "features": [{"type": "Feature", "properties": {"nombre": "Lampa", "subtype": "locality", "escala": "E3"}, "geometry": {"type": "Polygon", "coordinates": [[[-70.7919368, -33.172944], [-70.7919973, -33.1727901], [-70.7920487, -33.172634], [-70.792091, -33.1724759], [-70.795791, -33.1715471], [-70.7985376, -33.1707569], [-70.800662, -33.1709178], [-70.8007881, -33.1709739], [-70.8009169, -33.1710413], [-70.8010241, -33.1711154], [-70.8012038, -33.1712546], [-70.8015123, -33.1714477], [-70.801641, -33.1715307], [-70.8018047, -33.171643], [-70.801928, -33.1717485], [-70.8022767, -33.1719842], [-70.8024645, -33.1721189], [-70.8027595, -33.1722716], [-70.8030868, -33.1724153], [-70.8034569, -33.172559], [-70.8035159, -33.1725769], [-70.8037359, -33.1726173], [-70.8047926, -33.1727161], [-70.8051145, -33.172761], [-70.8052486, -33.172788], [-70.8053666, -33.1727925], [-70.8055115, -33.1728149], [-70.8055651, -33.1728284], [-70.8056241, -33.1728329], [-70.806064, -33.1729451], [-70.8064717, -33.1730215], [-70.806638, -33.1730753], [-70.8069545, -33.1731517], [-70.8071154, -33.1731562], [-70.8072603, -33.1731696], [-70.8076626, -33.1731741], [-70.8082205, -33.1732325], [-70.8086604, -33.1733358], [-70.8087784, -33.1733807], [-70.8088481, -33.1734211], [-70.8090252, -33.1735019], [-70.8093631, -33.1735962], [-70.8094329, -33.1736231], [-70.8094919, -33.1736321], [-70.8095563, -33.1736501], [-70.809744, -33.1736815], [-70.8104789, -33.1737758], [-70.8108437, -33.1738387], [-70.8116108, -33.1742158], [-70.8118898, -33.1743371], [-70.8120185, -33.1743999], [-70.8120829, -33.1744224], [-70.8121795, -33.1744762], [-70.8126944, -33.1747187], [-70.8128178, -33.1747591], [-70.8130431, -33.1748489], [-70.8132684, -33.1749208], [-70.8133167, -33.1749432], [-70.8135635, -33.1749926], [-70.8138853, -33.1750914], [-70.8139497, -33.1751183], [-70.8141965, -33.1751902], [-70.8143628, -33.1752575], [-70.8144969, -33.1753024], [-70.8147597, -33.1754371], [-70.8149314, -33.1755179], [-70.8150226, -33.1755988], [-70.8151352, -33.1756571], [-70.8152318, -33.17572], [-70.8155912, -33.1758906], [-70.8157575, -33.175958], [-70.8160579, -33.1760522], [-70.8161974, -33.1761061], [-70.8163208, -33.1761376], [-70.8165622, -33.1762229], [-70.8166695, -33.1762543], [-70.8168089, -33.1763127], [-70.8169806, -33.1763621], [-70.8171845, -33.1764429], [-70.8174044, -33.1765057], [-70.8174795, -33.1765147], [-70.8176512, -33.1765776], [-70.8177155, -33.1765955], [-70.8179998, -33.1767123], [-70.8182895, -33.1768155], [-70.8184934, -33.1769053], [-70.8185899, -33.1769413], [-70.8188528, -33.1770804], [-70.8193302, -33.1772915], [-70.8197166, -33.177431], [-70.8202851, -33.1777315], [-70.8203334, -33.1777494], [-70.8203763, -33.1777764], [-70.8207518, -33.177965], [-70.8208644, -33.1780323], [-70.8209127, -33.1780548], [-70.8209556, -33.1780862], [-70.8210039, -33.1781086], [-70.8211809, -33.1782209], [-70.8213526, -33.1783601], [-70.8215511, -33.1784858], [-70.8216423, -33.1786833], [-70.8216906, -33.1787731], [-70.8217657, -33.1789527], [-70.8218408, -33.1791727], [-70.8218998, -33.1794017], [-70.8219212, -33.1795274], [-70.8219802, -33.179725], [-70.8220875, -33.1800123], [-70.8221358, -33.1800976], [-70.8223772, -33.1803715], [-70.8224577, -33.1804972], [-70.8225006, -33.180578], [-70.8225381, -33.1806274], [-70.8226508, -33.1808339], [-70.822742, -33.1810764], [-70.8227527, -33.1811303], [-70.8227527, -33.1811886], [-70.8227849, -33.1813323], [-70.8228117, -33.1813682], [-70.8228761, -33.1815074], [-70.8230424, -33.1817813], [-70.823139, -33.1820596], [-70.8231872, -33.1821494], [-70.8232838, -33.1822931], [-70.8233106, -33.1823515], [-70.8233696, -33.1824278], [-70.823729, -33.1828408], [-70.8238149, -33.1829576], [-70.8239383, -33.1830878], [-70.8240402, -33.183209], [-70.8241367, -33.1833527], [-70.8242387, -33.1835322], [-70.8244264, -33.1837567], [-70.8245069, -33.183833], [-70.8248287, -33.1840845], [-70.8250111, -33.1842416], [-70.8251989, -33.1843718], [-70.8253545, -33.1844436], [-70.8253974, -33.1844795], [-70.825612, -33.1845828], [-70.825789, -33.1846861], [-70.8258373, -33.184704], [-70.8259016, -33.1847085], [-70.8261538, -33.1846412], [-70.8264542, -33.1845648], [-70.8267063, -33.1844346], [-70.8269531, -33.1842955], [-70.8271515, -33.1841698], [-70.82735, -33.1840351], [-70.8275378, -33.1839138], [-70.8278543, -33.1836714], [-70.8280528, -33.1835682], [-70.8285624, -33.1834065], [-70.8287823, -33.1832718], [-70.828954, -33.1831551], [-70.829308, -33.1830339], [-70.8296299, -33.1829576], [-70.8297962, -33.1829172], [-70.8300591, -33.1828498], [-70.8304238, -33.1828229], [-70.8308262, -33.18276], [-70.8313036, -33.1827106], [-70.8315504, -33.1826612], [-70.8318132, -33.1826164], [-70.8321941, -33.182549], [-70.8325535, -33.1824368], [-70.8331221, -33.182118], [-70.8333474, -33.1819115], [-70.8336961, -33.1815882], [-70.8339536, -33.1813368], [-70.8345705, -33.1807666], [-70.834989, -33.1804927], [-70.8354503, -33.1802682], [-70.8358258, -33.1800976], [-70.8360243, -33.1800886], [-70.8366841, -33.180174], [-70.8371615, -33.1801874], [-70.8376443, -33.1802458], [-70.8400796, -33.18103], [-70.8445428, -33.1798806], [-70.8474611, -33.1804553], [-70.8515809, -33.1808863], [-70.8544992, -33.1807426], [-70.8570741, -33.1811736], [-70.8575891, -33.182323], [-70.8560441, -33.1834723], [-70.8532975, -33.1851963], [-70.8517526, -33.1867766], [-70.8508943, -33.1887879], [-70.850036, -33.1915173], [-70.849006, -33.1939594], [-70.849006, -33.1961141], [-70.850036, -33.1984124], [-70.8519243, -33.1995616], [-70.8543275, -33.2020034], [-70.8563875, -33.204158], [-70.8577607, -33.2063124], [-70.8586191, -33.2087541], [-70.8594774, -33.2113393], [-70.8605073, -33.2139245], [-70.8615373, -33.2166532], [-70.8639406, -33.2216795], [-70.8658288, -33.2241207], [-70.8687471, -33.2262747], [-70.8733819, -33.2274235], [-70.8764718, -33.2265619], [-70.8788751, -33.2265619], [-70.88145, -33.2279978], [-70.88351, -33.2275671], [-70.8843683, -33.2257003], [-70.8872865, -33.2229719], [-70.8872865, -33.2218231], [-70.8857415, -33.2202434], [-70.8853982, -33.2176585], [-70.8853982, -33.2153606], [-70.8867715, -33.2136373], [-70.8886598, -33.2126319], [-70.891578, -33.2120574], [-70.8946679, -33.2106212], [-70.8925512, -33.2069137], [-70.891959, -33.2034665], [-70.8907402, -33.1990856], [-70.889839, -33.1858193], [-70.8906372, -33.1835063], [-70.8929289, -33.1813153], [-70.8964479, -33.181617], [-70.9013059, -33.1814805], [-70.9092367, -33.1820265], [-70.9181366, -33.1844612], [-70.9262047, -33.1861852], [-70.9308396, -33.1860415], [-70.9341012, -33.1821626], [-70.9378355, -33.1803815], [-70.9398783, -33.1774649], [-70.9421692, -33.1752662], [-70.9468041, -33.1736857], [-70.9512673, -33.1725362], [-70.9536705, -33.1723925], [-70.9567182, -33.1754246], [-70.9614389, -33.1773427], [-70.9652841, -33.1768111], [-70.9699784, -33.1752662], [-70.97221, -33.1736857], [-70.9737549, -33.1722488], [-70.9756432, -33.1718177], [-70.9763298, -33.1728235], [-70.9782181, -33.173542], [-70.9799347, -33.1728235], [-70.9826813, -33.1725362], [-70.9840124, -33.1742177], [-70.9850509, -33.1767249], [-70.9873169, -33.1778672], [-70.9937713, -33.1774505], [-70.9940203, -33.1796703], [-70.9923466, -33.1828238], [-70.9952905, -33.1866813], [-70.9963892, -33.189928], [-70.998432, -33.1923845], [-70.99699, -33.1957099], [-70.9972475, -33.198827], [-70.9989892, -33.2008376], [-70.9995041, -33.2045721], [-70.9995041, -33.2078756], [-71.0013924, -33.2106045], [-71.0013924, -33.2129024], [-71.0008774, -33.214913], [-71.0010491, -33.2173545], [-71.0019074, -33.2220935], [-71.0007058, -33.2243912], [-70.9991608, -33.2258272], [-70.9960709, -33.2284119], [-70.9957276, -33.2314273], [-70.9957276, -33.2340118], [-70.993496, -33.2383193], [-70.9904061, -33.2430572], [-70.9880028, -33.2469335], [-70.9864579, -33.2509531], [-70.9845696, -33.2552597], [-70.9830246, -33.2597097], [-70.9819947, -33.2620063], [-70.9799347, -33.2638723], [-70.9782181, -33.2657382], [-70.9782181, -33.2684653], [-70.9783898, -33.2704746], [-70.9782181, -33.2717664], [-70.9771882, -33.2740627], [-70.9756432, -33.2762154], [-70.9742699, -33.2787987], [-70.9742699, -33.2798032], [-70.9747849, -33.2829604], [-70.9747849, -33.2852564], [-70.9723816, -33.2872654], [-70.9678326, -33.2894178], [-70.9692059, -33.2920006], [-70.9724675, -33.293866], [-70.9765873, -33.2955161], [-70.9798489, -33.2960182], [-70.983368, -33.2950856], [-70.9870587, -33.2946552], [-70.9873162, -33.2968074], [-70.9880028, -33.2989596], [-70.9902344, -33.3008965], [-70.9928093, -33.3016139], [-70.9963284, -33.3029769], [-70.9973377, -33.3044523], [-70.9975255, -33.3046002], [-70.9978098, -33.3048154], [-70.9980351, -33.3049589], [-70.9987164, -33.3052324], [-70.9989792, -33.3053265], [-70.9991723, -33.3054117], [-70.9993547, -33.3054834], [-70.9994298, -33.3055731], [-70.9996712, -33.3057704], [-70.9997356, -33.3058645], [-70.9998268, -33.3059721], [-70.999859, -33.3060169], [-71.0000789, -33.3064922], [-71.0001272, -33.3065774], [-71.0005134, -33.3070526], [-71.0005671, -33.3070974], [-71.0007656, -33.3073574], [-71.0008943, -33.3075278], [-71.001125, -33.3077565], [-71.0012806, -33.3078865], [-71.0014629, -33.3081241], [-71.0015595, -33.3083034], [-71.0016185, -33.3085186], [-71.0016239, -33.308931], [-71.0016239, -33.3090297], [-71.0016561, -33.3093435], [-71.0016453, -33.3096215], [-71.0015702, -33.309998], [-71.0015702, -33.3101056], [-71.0015488, -33.3102043], [-71.0015488, -33.3104912], [-71.0016239, -33.3107781], [-71.0017634, -33.3111188], [-71.0017634, -33.3112085], [-71.0017204, -33.3112892], [-71.0016883, -33.3113788], [-71.001581, -33.3116119], [-71.0015595, -33.3117195], [-71.0015595, -33.3120961], [-71.0016024, -33.3122934], [-71.0016346, -33.3123785], [-71.0016936, -33.3125444], [-71.0017419, -33.3126968], [-71.0017419, -33.3128358], [-71.0017151, -33.3129703], [-71.0017204, -33.3134589], [-71.0016561, -33.3138758], [-71.0016131, -33.3140148], [-71.0016024, -33.3141134], [-71.0016346, -33.3145617], [-71.0017151, -33.3149248], [-71.0017312, -33.3150279], [-71.0017151, -33.3152476], [-71.0016614, -33.3155076], [-71.0016507, -33.3157407], [-71.0016507, -33.3161173], [-71.0016882, -33.3162966], [-71.0017258, -33.3165969], [-71.0017473, -33.3166955], [-71.0017794, -33.3167807], [-71.0019404, -33.3170542], [-71.0021603, -33.3175248], [-71.0023695, -33.3177848], [-71.00245, -33.3179014], [-71.0025197, -33.3180807], [-71.0028094, -33.318511], [-71.0029328, -33.3188652], [-71.0030562, -33.3191072], [-71.0031474, -33.3193224], [-71.0031849, -33.3194345], [-71.0032547, -33.3197258], [-71.00326, -33.3197886], [-71.0033083, -33.3199455], [-71.0033727, -33.3200934], [-71.0034585, -33.3202637], [-71.0035604, -33.320443], [-71.0035712, -33.3204879], [-71.0036248, -33.3205865], [-71.0037428, -33.3209092], [-71.0037321, -33.3213709], [-71.0037482, -33.3215368], [-71.0037482, -33.3216847], [-71.0037321, -33.3217923], [-71.0036999, -33.3218864], [-71.0036945, -33.3220388], [-71.003716, -33.3221823], [-71.0037375, -33.3224109], [-71.0037428, -33.3226709], [-71.0036677, -33.3229264], [-71.0035336, -33.3231594], [-71.0034746, -33.3232939], [-71.003421, -33.3234598], [-71.0033619, -33.3235404], [-71.0032868, -33.3236166], [-71.0032386, -33.3237108], [-71.0032332, -33.3238497], [-71.0033137, -33.3240783], [-71.0033673, -33.3241635], [-71.0033834, -33.3242173], [-71.0034317, -33.3242935], [-71.0034853, -33.3243697], [-71.0036194, -33.3245086], [-71.0037106, -33.3245848], [-71.0038018, -33.3247059], [-71.0038126, -33.3248045], [-71.0039306, -33.3250555], [-71.0039574, -33.3252169], [-71.0039574, -33.3252751], [-71.0039413, -33.3254499], [-71.0039252, -33.3255441], [-71.0039252, -33.3256516], [-71.0039038, -33.3258578], [-71.0038877, -33.3259026], [-71.003657, -33.3264853], [-71.0035819, -33.3266377], [-71.0035068, -33.3267319], [-71.003421, -33.326826], [-71.0033995, -33.3268708], [-71.0032976, -33.3269829], [-71.0032386, -33.3271129], [-71.0032064, -33.3272115], [-71.0032064, -33.3279645], [-71.0031742, -33.3282917], [-71.0031849, -33.3283992], [-71.0032332, -33.3285561], [-71.0032386, -33.3287713], [-71.0032493, -33.3288161], [-71.0032493, -33.328973], [-71.0033083, -33.3291791], [-71.0033619, -33.3293315], [-71.0034102, -33.3294167], [-71.0034156, -33.3294615], [-71.0034102, -33.3295108], [-71.0033459, -33.3296453], [-71.0033137, -33.3296856], [-71.0030454, -33.3301428], [-71.003024, -33.3301966], [-71.0029221, -33.3303221], [-71.0028684, -33.3304431], [-71.0027182, -33.3306134], [-71.0026431, -33.3307165], [-71.0025036, -33.3309316], [-71.0024715, -33.3310123], [-71.00245, -33.3311468], [-71.0024285, -33.3315501], [-71.0024393, -33.3316084], [-71.00245, -33.3321194], [-71.0024822, -33.3322359], [-71.0024983, -33.3323883], [-71.0024446, -33.3325944], [-71.0024285, -33.3326348], [-71.0023695, -33.3329575], [-71.0022891, -33.3331457], [-71.0022301, -33.3332309], [-71.0019887, -33.3336253], [-71.0019189, -33.3338808], [-71.001876, -33.3339525], [-71.0016882, -33.3342079], [-71.0015327, -33.33445], [-71.0013503, -33.334674], [-71.0013074, -33.3347054], [-71.0009694, -33.335064], [-71.0008514, -33.3351984], [-71.0008031, -33.3353239], [-71.0007012, -33.3354897], [-71.0006315, -33.335678], [-71.0006207, -33.3357362], [-71.0005724, -33.3358169], [-71.0005242, -33.3358707], [-71.0003418, -33.3360365], [-71.0001969, -33.3361934], [-70.9999502, -33.3365026], [-70.9997624, -33.3367222], [-70.9996551, -33.3369105], [-70.99958, -33.337009], [-70.9992582, -33.3375917], [-70.9991992, -33.3376679], [-70.9991133, -33.3377978], [-70.9987003, -33.3383177], [-70.9983891, -33.3388465], [-70.9983516, -33.3389496], [-70.9983462, -33.3389989], [-70.9982604, -33.3391468], [-70.9982175, -33.3391961], [-70.9981048, -33.3393619], [-70.9980243, -33.3394471], [-70.9979385, -33.3395681], [-70.9978312, -33.3397966], [-70.9977722, -33.3398863], [-70.9977239, -33.3399849], [-70.9976327, -33.3402448], [-70.9975898, -33.3404061], [-70.9975147, -33.3406257], [-70.9973913, -33.3408498], [-70.997048, -33.3412397], [-70.9969515, -33.3413248], [-70.9967262, -33.3416072], [-70.9966135, -33.3417371], [-70.9965438, -33.3418268], [-70.9965169, -33.3418716], [-70.9964848, -33.3419702], [-70.9964472, -33.3421763], [-70.9963775, -33.342369], [-70.9963131, -33.3425124], [-70.9962809, -33.3425528], [-70.9961575, -33.3427455], [-70.9960395, -33.342965], [-70.9960073, -33.3430771], [-70.9959644, -33.3431757], [-70.9958303, -33.3432832], [-70.9957016, -33.3432877], [-70.9955138, -33.3433236], [-70.9953314, -33.3433818], [-70.9952134, -33.3434356], [-70.9950632, -33.343458], [-70.9949935, -33.3434625], [-70.9946233, -33.3435342], [-70.994339, -33.34357], [-70.9942371, -33.3436193], [-70.9941191, -33.3436955], [-70.9939581, -33.3437807], [-70.9936631, -33.3439017], [-70.9933037, -33.3440809], [-70.9932286, -33.3441347], [-70.9928477, -33.3443677], [-70.9927619, -33.3444305], [-70.9925687, -33.3445335], [-70.9922791, -33.3447486], [-70.9921986, -33.3448203], [-70.9920108, -33.3449368], [-70.9915602, -33.3451385], [-70.9912974, -33.3452236], [-70.9912223, -33.3452595], [-70.9906858, -33.345609], [-70.9905785, -33.3456494], [-70.9905142, -33.3456628], [-70.9903479, -33.3456673], [-70.9901977, -33.3456852], [-70.9897149, -33.3458107], [-70.9895539, -33.3458779], [-70.9894359, -33.3459451], [-70.9893018, -33.3460616], [-70.9891731, -33.346205], [-70.9891033, -33.3463395], [-70.9889746, -33.346465], [-70.9888887, -33.3465994], [-70.9888244, -33.3467428], [-70.988819, -33.3467921], [-70.9887815, -33.3469444], [-70.9886956, -33.3471327], [-70.9885991, -33.3472581], [-70.9884811, -33.3473926], [-70.9883201, -33.3475404], [-70.9881967, -33.3476749], [-70.9879285, -33.3479303], [-70.9878266, -33.3480065], [-70.9876871, -33.3481275], [-70.9875208, -33.3483246], [-70.9874296, -33.3485666], [-70.9873116, -33.3487952], [-70.9872258, -33.3489251], [-70.9870219, -33.3491402], [-70.9868234, -33.3494494], [-70.9867913, -33.3495256], [-70.9867537, -33.3495838], [-70.9867376, -33.3496286], [-70.9867108, -33.349669], [-70.986625, -33.3498661], [-70.9865338, -33.3500275], [-70.9864533, -33.3501126], [-70.9862495, -33.3502963], [-70.9861207, -33.3504352], [-70.986051, -33.3506772], [-70.9860295, -33.3508699], [-70.9860349, -33.3510178], [-70.9860456, -33.3510626], [-70.9860832, -33.3511567], [-70.9861314, -33.35143], [-70.9862065, -33.351681], [-70.9862763, -33.3518288], [-70.9862924, -33.3520305], [-70.9863728, -33.3522635], [-70.9864104, -33.3524069], [-70.9864426, -33.3524875], [-70.9864855, -33.3525682], [-70.9865391, -33.3528057], [-70.9865499, -33.3529535], [-70.9865767, -33.3531014], [-70.9865928, -33.3531462], [-70.9865928, -33.353191], [-70.9866089, -33.3534061], [-70.9866196, -33.3534509], [-70.9866464, -33.3534912], [-70.9867054, -33.3537377], [-70.9867108, -33.3537915], [-70.9867591, -33.3539438], [-70.9868342, -33.3540424], [-70.9868556, -33.3540827], [-70.9869844, -33.3542127], [-70.9870756, -33.3544143], [-70.9870756, -33.3546204], [-70.987097, -33.3547414], [-70.9871239, -33.3551716], [-70.987156, -33.3553777], [-70.9871507, -33.3556151], [-70.9871185, -33.3558706], [-70.9871024, -33.3559198], [-70.9870756, -33.3560677], [-70.9870648, -33.3563052], [-70.987038, -33.3563993], [-70.9869576, -33.3565382], [-70.9869146, -33.3565919], [-70.9867698, -33.3567398], [-70.9865338, -33.3570759], [-70.9863889, -33.3572596], [-70.9863192, -33.3573671], [-70.9862977, -33.3574164], [-70.9861717, -33.3576315], [-70.9860536, -33.3578107], [-70.9859839, -33.3578958], [-70.9859034, -33.3580258], [-70.9858471, -33.3581199], [-70.9858042, -33.3581983], [-70.9857237, -33.3583349], [-70.985646, -33.3584783], [-70.9855735, -33.358606], [-70.9854743, -33.3587875], [-70.9854072, -33.358895], [-70.985257, -33.3591056], [-70.9852141, -33.3591459], [-70.9851122, -33.3592669], [-70.9849888, -33.3594551], [-70.9848923, -33.3596522], [-70.9847474, -33.3598852], [-70.9846348, -33.3601585], [-70.9845811, -33.3602436], [-70.9845007, -33.3603198], [-70.9843934, -33.3603736], [-70.9843397, -33.360396], [-70.9842217, -33.3604229], [-70.9839106, -33.3605528], [-70.9838677, -33.3605842], [-70.9838033, -33.3606155], [-70.9836048, -33.360741], [-70.9833956, -33.3608396], [-70.983181, -33.3609605], [-70.9830737, -33.3610322], [-70.9829181, -33.3611218], [-70.9825909, -33.3612697], [-70.9821618, -33.3615027], [-70.9818453, -33.3617222], [-70.98162, -33.3618656], [-70.9815073, -33.3619731], [-70.9812069, -33.3624436], [-70.981164, -33.3625466], [-70.9811157, -33.3626273], [-70.9810674, -33.3627348], [-70.9809548, -33.3630932], [-70.980767, -33.3633576], [-70.9806651, -33.3634382], [-70.980531, -33.3635995], [-70.9804612, -33.3636936], [-70.9804076, -33.3637518], [-70.9803432, -33.3638414], [-70.9803164, -33.3638952], [-70.980252, -33.3639803], [-70.9800482, -33.3641551], [-70.9799516, -33.3642133], [-70.9796566, -33.3643612], [-70.9796029, -33.3643791], [-70.9793776, -33.3644956], [-70.9790129, -33.3647151], [-70.9789538, -33.3647375], [-70.9786212, -33.3648226], [-70.978471, -33.364854], [-70.9781706, -33.3649929], [-70.9779292, -33.3651362], [-70.977602, -33.3653155], [-70.9775323, -33.3653603], [-70.9773874, -33.3654723], [-70.9773392, -33.3654991], [-70.9772909, -33.3655439], [-70.9768242, -33.3658352], [-70.9767115, -33.3658979], [-70.9766096, -33.3659696], [-70.9764218, -33.3661622], [-70.9760732, -33.3664131], [-70.9759498, -33.3665296], [-70.9757137, -33.3667312], [-70.9754723, -33.3669507], [-70.9752631, -33.3671882], [-70.9750271, -33.3675197], [-70.9749252, -33.3676272], [-70.9746838, -33.3678109], [-70.9745818, -33.3678736], [-70.9744531, -33.3679274], [-70.9742117, -33.3680842], [-70.9740561, -33.3682052], [-70.9739381, -33.3683575], [-70.9738281, -33.3684852], [-70.9737772, -33.3685501], [-70.9736404, -33.3686778], [-70.9735411, -33.3687562], [-70.973407, -33.3688279], [-70.9732837, -33.3688682], [-70.9730852, -33.3689668], [-70.9729511, -33.3690183], [-70.9727606, -33.36909], [-70.972597, -33.3691729], [-70.972479, -33.3692356], [-70.9722591, -33.3693924], [-70.9722054, -33.3694193], [-70.9721196, -33.3694775], [-70.971964, -33.3695447], [-70.9718674, -33.3696119], [-70.9716529, -33.3697418], [-70.971559, -33.3698113], [-70.9714249, -33.3699166], [-70.9712988, -33.3700286], [-70.9711835, -33.3701898], [-70.9710547, -33.3703578], [-70.9709394, -33.3705348], [-70.9708536, -33.3706737], [-70.9707624, -33.3708394], [-70.9707302, -33.370947], [-70.97069, -33.3710769], [-70.9706229, -33.3712673], [-70.9705424, -33.371442], [-70.9704861, -33.3715674], [-70.9704459, -33.3717511], [-70.9703922, -33.3719415], [-70.9703332, -33.3721297], [-70.9702501, -33.3722887], [-70.9701937, -33.3724791], [-70.9701481, -33.3726807], [-70.9701079, -33.3728106], [-70.9700489, -33.3730749], [-70.970006, -33.3731959], [-70.9699792, -33.3732451], [-70.9698665, -33.3733885], [-70.9697968, -33.3734602], [-70.9696251, -33.3736125], [-70.9695822, -33.3736573], [-70.9693462, -33.3738544], [-70.9692228, -33.3740381], [-70.9688634, -33.3744995], [-70.9686971, -33.3746653], [-70.9686542, -33.3747011], [-70.9685469, -33.374822], [-70.9685254, -33.3748624], [-70.9684181, -33.3752028], [-70.9683538, -33.3753551], [-70.9683269, -33.3754044], [-70.9681445, -33.375606], [-70.9680533, -33.3757404], [-70.9676403, -33.3760853], [-70.9674096, -33.3762914], [-70.9672219, -33.3764079], [-70.9667391, -33.376605], [-70.9663743, -33.3767394], [-70.9662026, -33.37682], [-70.9660417, -33.3769275], [-70.9658271, -33.3770485], [-70.965575, -33.3772052], [-70.965398, -33.3772769], [-70.9652424, -33.377362], [-70.9651834, -33.37738], [-70.9651244, -33.3774113], [-70.9649795, -33.3775054], [-70.9648669, -33.3775636], [-70.9645772, -33.3777473], [-70.9644699, -33.3778234], [-70.9643358, -33.3779041], [-70.9641856, -33.3780161], [-70.9640783, -33.3780698], [-70.9638637, -33.3781594], [-70.9636867, -33.378258], [-70.9635633, -33.3783117], [-70.9634131, -33.3783968], [-70.9632683, -33.3784685], [-70.9631181, -33.3785671], [-70.9630108, -33.3786566], [-70.9628123, -33.3788045], [-70.9625816, -33.3789478], [-70.9624851, -33.379024], [-70.9622651, -33.3791808], [-70.9622169, -33.3792031], [-70.9620881, -33.3792479], [-70.9619165, -33.3792927], [-70.9616697, -33.3793958], [-70.961498, -33.3794271], [-70.9612137, -33.3795391], [-70.961026, -33.3795973], [-70.9607792, -33.379678], [-70.9605271, -33.3797631], [-70.9603393, -33.3798168], [-70.9602213, -33.3798572], [-70.960173, -33.3798796], [-70.9600067, -33.3799288], [-70.9598833, -33.3799333], [-70.9597063, -33.3799602], [-70.9595507, -33.3800095], [-70.9593093, -33.3800543], [-70.9590465, -33.3800677], [-70.958789, -33.380108], [-70.9584725, -33.3801797], [-70.9580433, -33.3802872], [-70.9578073, -33.3803365], [-70.9572977, -33.3804977], [-70.9572333, -33.3805112], [-70.9569007, -33.3805515], [-70.9567291, -33.3805918], [-70.9566593, -33.3806276], [-70.9564179, -33.3808426], [-70.9563482, -33.3809367], [-70.9562999, -33.3810218], [-70.9562302, -33.3811114], [-70.9561122, -33.3812189], [-70.9556991, -33.3815683], [-70.9554684, -33.3817968], [-70.9552485, -33.3820834], [-70.9551358, -33.3821954], [-70.9550822, -33.3822357], [-70.9550393, -33.3822805], [-70.9548032, -33.3825762], [-70.9546745, -33.3826837], [-70.9544814, -33.3827822], [-70.9543258, -33.3828449], [-70.9538806, -33.3829748], [-70.9535748, -33.3831047], [-70.953033, -33.3834362], [-70.9529311, -33.3835258], [-70.9528238, -33.3835885], [-70.9525609, -33.3837811], [-70.9524483, -33.3838483], [-70.9523088, -33.3839513], [-70.9520996, -33.3840633], [-70.9518421, -33.3841395], [-70.9515524, -33.3842694], [-70.9513164, -33.3843903], [-70.9511501, -33.384453], [-70.951016, -33.3844933], [-70.9508121, -33.3845336], [-70.9504902, -33.3846546], [-70.9497285, -33.3848875], [-70.9493369, -33.384986], [-70.9490848, -33.3850488], [-70.9486824, -33.3851652], [-70.9484947, -33.3852055], [-70.9483606, -33.3852234], [-70.9480173, -33.3852637], [-70.9456025, -33.3843586], [-70.9433709, -33.3814918], [-70.938221, -33.3802017], [-70.9341012, -33.3791983], [-70.9313546, -33.3783382], [-70.9279213, -33.3766181], [-70.9241448, -33.3756146], [-70.9213982, -33.3741811], [-70.9181366, -33.3727475], [-70.9152184, -33.3705972], [-70.9123002, -33.3693069], [-70.9102402, -33.3687335], [-70.907837, -33.3687335], [-70.9047471, -33.3700237], [-70.9021721, -33.3716007], [-70.9004555, -33.3731776], [-70.896679, -33.3751846], [-70.8932457, -33.3754713], [-70.8896409, -33.3754713], [-70.8863793, -33.3753279], [-70.8836327, -33.3760447], [-70.8810578, -33.3759013], [-70.8788262, -33.3754713], [-70.8757363, -33.3734643], [-70.8741913, -33.3744678], [-70.8714218, -33.3748336], [-70.8662841, -33.3755122], [-70.8645246, -33.3755409], [-70.8630868, -33.3756264], [-70.8627393, -33.3756627], [-70.8617694, -33.3759207], [-70.860748, -33.3761214], [-70.8601472, -33.3763293], [-70.8583619, -33.3770962], [-70.8575208, -33.3775549], [-70.856568, -33.3780208], [-70.8552033, -33.3786157], [-70.8541047, -33.3790816], [-70.8530576, -33.3795689], [-70.8523709, -33.3800348], [-70.852019, -33.3804075], [-70.8515126, -33.3807874], [-70.8508517, -33.3810669], [-70.8498389, -33.3812532], [-70.8481675, -33.3815492], [-70.8453351, -33.3826529], [-70.8435498, -33.3838211], [-70.8413755, -33.3845847], [-70.8394608, -33.385112], [-70.8391123, -33.3849463], [-70.8381939, -33.3847528], [-70.8376103, -33.3844661], [-70.8373528, -33.3840003], [-70.8371382, -33.3837136], [-70.8372241, -33.3832477], [-70.8372498, -33.3828894], [-70.837164, -33.382531], [-70.8359623, -33.3820509], [-70.8342543, -33.3814703], [-70.8335934, -33.3812768], [-70.8327094, -33.3810116], [-70.8323918, -33.3807249], [-70.832366, -33.3803809], [-70.8325978, -33.3800369], [-70.8327523, -33.3795352], [-70.8326664, -33.3793918], [-70.8328209, -33.3789475], [-70.8327694, -33.3786608], [-70.8324519, -33.3784458], [-70.8322201, -33.3781734], [-70.8320227, -33.3777434], [-70.831894, -33.3774997], [-70.831379, -33.377299], [-70.8295594, -33.3764245], [-70.8292847, -33.3761307], [-70.829216, -33.3748979], [-70.8290616, -33.3744821], [-70.8286839, -33.3741668], [-70.8283577, -33.3740019], [-70.8282719, -33.3736794], [-70.8282032, -33.3730343], [-70.8275424, -33.3720881], [-70.8270703, -33.3717297], [-70.8265725, -33.3714215], [-70.8249674, -33.371228], [-70.824667, -33.3711348], [-70.8246241, -33.370762], [-70.8245383, -33.3703105], [-70.8242808, -33.3699879], [-70.8238259, -33.3696653], [-70.82368, -33.369522], [-70.8234311, -33.368712], [-70.8231736, -33.3683392], [-70.8231221, -33.3678016], [-70.8227272, -33.3669558], [-70.8224698, -33.366583], [-70.8224698, -33.3663536], [-70.822547, -33.3658662], [-70.8223496, -33.3653644], [-70.822032, -33.3651135], [-70.8217488, -33.3648268], [-70.8215771, -33.3644468], [-70.8213196, -33.3636798], [-70.8206158, -33.3628554], [-70.8194571, -33.3624396], [-70.819088, -33.362497], [-70.818779, -33.3626045], [-70.8183756, -33.3624826], [-70.8178606, -33.3620812], [-70.8173285, -33.3616367], [-70.8162985, -33.3616582], [-70.8152428, -33.3610632], [-70.8148823, -33.3606833], [-70.8142643, -33.3602388], [-70.8128052, -33.3597227], [-70.8115607, -33.3594359], [-70.8113032, -33.3593427], [-70.8110886, -33.3591277], [-70.81108, -33.3587907], [-70.8111315, -33.3583176], [-70.8108912, -33.3578157], [-70.8105307, -33.3572422], [-70.8099471, -33.3571203], [-70.8093892, -33.3567977], [-70.8093033, -33.3562959], [-70.8090716, -33.3558801], [-70.8084021, -33.3555073], [-70.8075438, -33.3542885], [-70.8074151, -33.3537006], [-70.8068314, -33.3531055], [-70.8063679, -33.3529263], [-70.8059559, -33.3526395], [-70.8051491, -33.3524101], [-70.8043938, -33.3515784], [-70.8036344, -33.3503552], [-70.8015528, -33.3473196], [-70.799862, -33.3462226], [-70.7991753, -33.3453622], [-70.7987462, -33.3445879], [-70.7974822, -33.3393442], [-70.7916876, -33.341255], [-70.766463, -33.3352426], [-70.7601231, -33.3337306], [-70.7530756, -33.3320486], [-70.7455507, -33.3303691], [-70.7454174, -33.33034], [-70.7370863, -33.3285332], [-70.7370105, -33.3285247], [-70.7369737, -33.328518], [-70.7369247, -33.3285091], [-70.7368851, -33.328499], [-70.7368134, -33.3284979], [-70.7367195, -33.3284917], [-70.7366109, -33.3284749], [-70.7365277, -33.3284542], [-70.7361482, -33.3283522], [-70.7354978, -33.3281628], [-70.734551, -33.3279096], [-70.7337704, -33.3277292], [-70.7271628, -33.3262601], [-70.7211131, -33.3248952], [-70.7194541, -33.3245154], [-70.7190173, -33.3244111], [-70.7209937, -33.3200351], [-70.7219312, -33.3179558], [-70.7238892, -33.31358], [-70.7253309, -33.3103724], [-70.7269368, -33.306801], [-70.7286125, -33.3030702], [-70.7293046, -33.3015246], [-70.7306926, -33.2984309], [-70.7315978, -33.2964199], [-70.7323676, -33.2947104], [-70.7329068, -33.2934953], [-70.7347843, -33.2893212], [-70.7351102, -33.288602], [-70.736981, -33.2844249], [-70.7378742, -33.2824203], [-70.7394487, -33.27891], [-70.7412484, -33.2748927], [-70.7427143, -33.2716221], [-70.7443196, -33.2680115], [-70.7457666, -33.2647921], [-70.7474028, -33.2611241], [-70.7507622, -33.2536048], [-70.7529724, -33.2486734], [-70.7547668, -33.2446581], [-70.7560837, -33.2417071], [-70.7568696, -33.2399461], [-70.7573256, -33.2389545], [-70.7580686, -33.2374267], [-70.7586962, -33.2361211], [-70.7593346, -33.2347279], [-70.7602036, -33.2327087], [-70.7605925, -33.2317126], [-70.7611357, -33.2304012], [-70.7661232, -33.2192621], [-70.7678184, -33.2154923], [-70.7689047, -33.2130307], [-70.7711147, -33.2080863], [-70.7736467, -33.2023841], [-70.7761272, -33.1968324], [-70.7784532, -33.1916179], [-70.7811139, -33.1856417], [-70.7819295, -33.183842], [-70.7827503, -33.1819856], [-70.783233, -33.1808923], [-70.7833207, -33.1806982], [-70.7834166, -33.1805069], [-70.7835207, -33.1803186], [-70.7836327, -33.1801335], [-70.7837576, -33.1799446], [-70.7838909, -33.1797597], [-70.7840323, -33.1795791], [-70.7842145, -33.1793826], [-70.7844052, -33.1791918], [-70.784583, -33.179026], [-70.7847673, -33.1788652], [-70.7849067, -33.1787574], [-70.7850395, -33.1786564], [-70.7856712, -33.178185], [-70.7864718, -33.177599], [-70.7872134, -33.1770524], [-70.7885747, -33.1760545], [-70.7898407, -33.1751329], [-70.7905769, -33.1745784], [-70.7907419, -33.1744482], [-70.7909004, -33.1743124], [-70.791052, -33.1741712], [-70.7911965, -33.174025], [-70.7913326, -33.1738752], [-70.7914612, -33.1737209], [-70.7915822, -33.1735623], [-70.7916954, -33.1733998], [-70.7917849, -33.1732513], [-70.7918655, -33.1730992], [-70.7919368, -33.172944]]]}}]}