{"type": "FeatureCollection", "features": [{"type": "Feature", "geometry": {"type": "Point", "coordinates": [-70.85672, -33.33643]}, "properties": {"RBD": "10133", "Nombre_EE": "ESCUELA BASICA G-N°320 LIPANGUE", "Dependencia": "MUNICIPAL", "Matrícula": 56, "Ruralidad": "RURAL", "Comuna": "LAMPA"}}, {"type": "Feature", "geometry": {"type": "Point", "coordinates": [-70.75273, -33.28026]}, "properties": {"RBD": "10377", "Nombre_EE": "LICEO POLIVALENTE SAINT ANDREWS", "Dependencia": "PARTICULAR SUBVENCIONADO", "Matrícula": 481, "Ruralidad": "URBANO", "Comuna": "LAMPA"}}, {"type": "Feature", "geometry": {"type": "Point", "coordinates": [-70.87188, -33.28673]}, "properties": {"RBD": "10419", "Nombre_EE": "LICEO BICENTENARIO MANUEL PLAZA REYES DE LAMPA", "Dependencia": "MUNICIPAL", "Matrícula": 1232, "Ruralidad": "URBANO", "Comuna": "LAMPA"}}, {"type": "Feature", "geometry": {"type": "Point", "coordinates": [-70.87351, -33.28608]}, "properties": {"RBD": "10420", "Nombre_EE": "ESCUELA MANUEL SEGOVIA MONTENEGRO", "Dependencia": "MUNICIPAL", "Matrícula": 1225, "Ruralidad": "URBANO", "Comuna": "LAMPA"}}, {"type": "Feature", "geometry": {"type": "Point", "coordinates": [-70.81209, -33.23969]}, "properties": {"RBD": "10421", "Nombre_EE": "ESCUELA REPUBLICA DE POLONIA", "Dependencia": "MUNICIPAL", "Matrícula": 329, "Ruralidad": "URBANO", "Comuna": "LAMPA"}}, {"type": "Feature", "geometry": {"type": "Point", "coordinates": [-70.77114, -33.29245]}, "properties": {"RBD": "10422", "Nombre_EE": "ESCUELA BASICA CACIQUE COLIN", "Dependencia": "MUNICIPAL", "Matrícula": 582, "Ruralidad": "URBANO", "Comuna": "LAMPA"}}, {"type": "Feature", "geometry": {"type": "Point", "coordinates": [-70.82385, -33.24309]}, "properties": {"RBD": "10424", "Nombre_EE": "ESCUELA SANTA BARBARA", "Dependencia": "MUNICIPAL", "Matrícula": 351, "Ruralidad": "URBANO", "Comuna": "LAMPA"}}, {"type": "Feature", "geometry": {"type": "Point", "coordinates": [-70.88012, -33.28071]}, "properties": {"RBD": "10425", "Nombre_EE": "ESCUELA POLONIA GUTIERREZ C.", "Dependencia": "MUNICIPAL", "Matrícula": 851, "Ruralidad": "URBANO", "Comuna": "LAMPA"}}, {"type": "Feature", "geometry": {"type": "Point", "coordinates": [-70.75796, -33.26135]}, "properties": {"RBD": "10426", "Nombre_EE": "ESCUELA BASICA F-N°371 SANTA ROSA DE LAMPA", "Dependencia": "MUNICIPAL", "Matrícula": 236, "Ruralidad": "RURAL", "Comuna": "LAMPA"}}, {"type": "Feature", "geometry": {"type": "Point", "coordinates": [-70.77228, -33.22542]}, "properties": {"RBD": "10427", "Nombre_EE": "ESCUELA BASICA F - N°372 SANTA SARA", "Dependencia": "MUNICIPAL", "Matrícula": 281, "Ruralidad": "RURAL", "Comuna": "LAMPA"}}, {"type": "Feature", "geometry": {"type": "Point", "coordinates": [-70.88232, -33.26409]}, "properties": {"RBD": "10428", "Nombre_EE": "ESCUELA BASICA PROFESOR OMAR ARANDA ARAYA", "Dependencia": "MUNICIPAL", "Matrícula": 184, "Ruralidad": "RURAL", "Comuna": "LAMPA"}}, {"type": "Feature", "geometry": {"type": "Point", "coordinates": [-70.85862, -33.30158]}, "properties": {"RBD": "10429", "Nombre_EE": "NORMA GONZÁLEZ GUERRA", "Dependencia": "MUNICIPAL", "Matrícula": 313, "Ruralidad": "RURAL", "Comuna": "LAMPA"}}, {"type": "Feature", "geometry": {"type": "Point", "coordinates": [-70.81013, -33.22571]}, "properties": {"RBD": "10430", "Nombre_EE": "ESCUELA BASICA SAN SEBASTIAN DE BATUCO", "Dependencia": "PARTICULAR SUBVENCIONADO", "Matrícula": 690, "Ruralidad": "URBANO", "Comuna": "LAMPA"}}, {"type": "Feature", "geometry": {"type": "Point", "coordinates": [-70.76449, -33.24192]}, "properties": {"RBD": "10431", "Nombre_EE": "ESC. ESPECIAL PADRE LUIS GUANELLA", "Dependencia": "PARTICULAR SUBVENCIONADO", "Matrícula": 68, "Ruralidad": "RURAL", "Comuna": "LAMPA"}}, {"type": "Feature", "geometry": {"type": "Point", "coordinates": [-70.60169, -33.50661]}, "properties": {"RBD": "16955", "Nombre_EE": "ESCUELA BASICA COLEGIO SAN JUAN DE LAMPA", "Dependencia": "PARTICULAR SUBVENCIONADO", "Matrícula": 1171, "Ruralidad": "URBANO", "Comuna": "LAMPA"}}, {"type": "Feature", "geometry": {"type": "Point", "coordinates": [-70.80696, -33.23749]}, "properties": {"RBD": "16785", "Nombre_EE": "ESCUELA ESPECIAL DE LENGUAJE LOS CHAVITOS", "Dependencia": "PARTICULAR SUBVENCIONADO", "Matrícula": 119, "Ruralidad": "URBANO", "Comuna": "LAMPA"}}, {"type": "Feature", "geometry": {"type": "Point", "coordinates": [-70.69793, -33.39842]}, "properties": {"RBD": "16832", "Nombre_EE": "ESCUELA ESPECIAL 2438 `PEQUEÑOS GENIOS DE VALLE GRANDE`", "Dependencia": "PARTICULAR SUBVENCIONADO", "Matrícula": 74, "Ruralidad": "URBANO", "Comuna": "LAMPA"}}, {"type": "Feature", "geometry": {"type": "Point", "coordinates": [-70.60558, -33.45913]}, "properties": {"RBD": "20426", "Nombre_EE": "ESCUELA BASICA N° 2469 COLEGIO NEHUEN", "Dependencia": "PARTICULAR SUBVENCIONADO", "Matrícula": 242, "Ruralidad": "URBANO", "Comuna": "LAMPA"}}, {"type": "Feature", "geometry": {"type": "Point", "coordinates": [-70.66052, -33.49744]}, "properties": {"RBD": "20445", "Nombre_EE": "COLEGIO WESTON ACADEMY", "Dependencia": "PARTICULAR PAGADO", "Matrícula": 739, "Ruralidad": "URBANO", "Comuna": "LAMPA"}}, {"type": "Feature", "geometry": {"type": "Point", "coordinates": [-70.60138, -33.59468]}, "properties": {"RBD": "20502", "Nombre_EE": "COLEGIO PUMAHUE CHICAUMA", "Dependencia": "PARTICULAR PAGADO", "Matrícula": 997, "Ruralidad": "URBANO", "Comuna": "LAMPA"}}, {"type": "Feature", "geometry": {"type": "Point", "coordinates": [-70.56397, -33.42136]}, "properties": {"RBD": "20294", "Nombre_EE": "ESCUELA ESPECIAL N° 2458 KIMUNTUWE", "Dependencia": "PARTICULAR SUBVENCIONADO", "Matrícula": 56, "Ruralidad": "URBANO", "Comuna": "LAMPA"}}, {"type": "Feature", "geometry": {"type": "Point", "coordinates": [-70.80412, -33.22982]}, "properties": {"RBD": "20321", "Nombre_EE": "ESCUELA ESPECIAL N° 2462 SAN ANDRES DE BATUCO", "Dependencia": "PARTICULAR SUBVENCIONADO", "Matrícula": 80, "Ruralidad": "URBANO", "Comuna": "LAMPA"}}, {"type": "Feature", "geometry": {"type": "Point", "coordinates": [-70.64427, -33.56434]}, "properties": {"RBD": "20401", "Nombre_EE": "ESCUELA BASICA N° 2468, RONALDO MUÑOZ GIBBS", "Dependencia": "PARTICULAR SUBVENCIONADO", "Matrícula": 360, "Ruralidad": "URBANO", "Comuna": "LAMPA"}}, {"type": "Feature", "geometry": {"type": "Point", "coordinates": [-70.58866, -33.54569]}, "properties": {"RBD": "20419", "Nombre_EE": "ESCUELA DE PARVULOS N°2467 LARAPINTA EL SOL", "Dependencia": "PARTICULAR SUBVENCIONADO", "Matrícula": 60, "Ruralidad": "URBANO", "Comuna": "LAMPA"}}, {"type": "Feature", "geometry": {"type": "Point", "coordinates": [-70.8767, -33.28161]}, "properties": {"RBD": "25926", "Nombre_EE": "COLEGIO POLIV. JERUSALEN DE LAMPA", "Dependencia": "PARTICULAR SUBVENCIONADO", "Matrícula": 1424, "Ruralidad": "URBANO", "Comuna": "LAMPA"}}, {"type": "Feature", "geometry": {"type": "Point", "coordinates": [-70.80743, -33.23767]}, "properties": {"RBD": "25964", "Nombre_EE": "ESCUELA ESP. PART. ACONCAGUA DE BATUCO", "Dependencia": "PARTICULAR SUBVENCIONADO", "Matrícula": 131, "Ruralidad": "URBANO", "Comuna": "LAMPA"}}, {"type": "Feature", "geometry": {"type": "Point", "coordinates": [-70.80387, -33.22682]}, "properties": {"RBD": "26157", "Nombre_EE": "LICEO MUNICIPAL BICENTENARIO DE BATUCO", "Dependencia": "MUNICIPAL", "Matrícula": 1037, "Ruralidad": "URBANO", "Comuna": "LAMPA"}}, {"type": "Feature", "geometry": {"type": "Point", "coordinates": [-70.80998, -33.23292]}, "properties": {"RBD": "25506", "Nombre_EE": "ESCUELA ESPECIAL N°1832 EXPLORADORES DE BATUCO", "Dependencia": "PARTICULAR SUBVENCIONADO", "Matrícula": 91, "Ruralidad": "URBANO", "Comuna": "LAMPA"}}, {"type": "Feature", "geometry": {"type": "Point", "coordinates": [-70.80915, -33.2386]}, "properties": {"RBD": "25991", "Nombre_EE": "ESCUELA BAS. AMANKAY DE LAMPA", "Dependencia": "PARTICULAR SUBVENCIONADO", "Matrícula": 744, "Ruralidad": "URBANO", "Comuna": "LAMPA"}}, {"type": "Feature", "geometry": {"type": "Point", "coordinates": [-70.88761, -33.28419]}, "properties": {"RBD": "25398", "Nombre_EE": "ESC. ESPECIAL 1775 SAN ANTONIO II", "Dependencia": "PARTICULAR SUBVENCIONADO", "Matrícula": 297, "Ruralidad": "URBANO", "Comuna": "LAMPA"}}, {"type": "Feature", "geometry": {"type": "Point", "coordinates": [-70.85536, -33.30479]}, "properties": {"RBD": "25465", "Nombre_EE": "ESC. BAS. PART. JERUSALEN", "Dependencia": "PARTICULAR SUBVENCIONADO", "Matrícula": 429, "Ruralidad": "URBANO", "Comuna": "LAMPA"}}, {"type": "Feature", "geometry": {"type": "Point", "coordinates": [-70.87251, -33.2822]}, "properties": {"RBD": "25484", "Nombre_EE": "ESC PART. SIGLO XXI DE LAMPA", "Dependencia": "PARTICULAR SUBVENCIONADO", "Matrícula": 424, "Ruralidad": "URBANO", "Comuna": "LAMPA"}}, {"type": "Feature", "geometry": {"type": "Point", "coordinates": [-70.8774, -33.28711]}, "properties": {"RBD": "26235", "Nombre_EE": "ESCUELA BASICA PARTICULAR PAICAVI DE LAMPA", "Dependencia": "PARTICULAR SUBVENCIONADO", "Matrícula": 277, "Ruralidad": "URBANO", "Comuna": "LAMPA"}}, {"type": "Feature", "geometry": {"type": "Point", "coordinates": [-70.87087, -33.28826]}, "properties": {"RBD": "26035", "Nombre_EE": "ESCUELA PART. SAN JOSE DE LAMPA", "Dependencia": "PARTICULAR SUBVENCIONADO", "Matrícula": 1173, "Ruralidad": "URBANO", "Comuna": "LAMPA"}}, {"type": "Feature", "geometry": {"type": "Point", "coordinates": [-70.74706, -33.32205]}, "properties": {"RBD": "26045", "Nombre_EE": "ESCUELA SAN PEDRO VALLE GRANDE", "Dependencia": "PARTICULAR SUBVENCIONADO", "Matrícula": 996, "Ruralidad": "URBANO", "Comuna": "LAMPA"}}, {"type": "Feature", "geometry": {"type": "Point", "coordinates": [-70.87846, -33.27701]}, "properties": {"RBD": "26249", "Nombre_EE": "ESCUELA BASICA MIRAFLORES DE LAMPA", "Dependencia": "PARTICULAR SUBVENCIONADO", "Matrícula": 277, "Ruralidad": "URBANO", "Comuna": "LAMPA"}}, {"type": "Feature", "geometry": {"type": "Point", "coordinates": [-70.81353, -33.23598]}, "properties": {"RBD": "25288", "Nombre_EE": "ESC. BAS. Y ESP. CENTRO INTEGRAL ALTAIR DE BA", "Dependencia": "PARTICULAR SUBVENCIONADO", "Matrícula": 597, "Ruralidad": "URBANO", "Comuna": "LAMPA"}}, {"type": "Feature", "geometry": {"type": "Point", "coordinates": [-70.87422, -33.29238]}, "properties": {"RBD": "26275", "Nombre_EE": "ESCUELA ESPECIAL KITARI", "Dependencia": "PARTICULAR SUBVENCIONADO", "Matrícula": 86, "Ruralidad": "URBANO", "Comuna": "LAMPA"}}, {"type": "Feature", "geometry": {"type": "Point", "coordinates": [-70.87128, -33.16444]}, "properties": {"RBD": "25132", "Nombre_EE": "ESCUELA PART. MASTER SCHOOL DE LAMPA", "Dependencia": "PARTICULAR SUBVENCIONADO", "Matrícula": 680, "Ruralidad": "URBANO", "Comuna": "LAMPA"}}, {"type": "Feature", "geometry": {"type": "Point", "coordinates": [-70.87702, -33.28183]}, "properties": {"RBD": "26293", "Nombre_EE": "ESCUELA BAS. INTEGRAL ENLACES DE LAMPA", "Dependencia": "PARTICULAR SUBVENCIONADO", "Matrícula": 371, "Ruralidad": "URBANO", "Comuna": "LAMPA"}}, {"type": "Feature", "geometry": {"type": "Point", "coordinates": [-70.87753, -33.2955]}, "properties": {"RBD": "26135", "Nombre_EE": "ESC.BAS. EMPRENDER LARAPINTA", "Dependencia": "PARTICULAR SUBVENCIONADO", "Matrícula": 1740, "Ruralidad": "URBANO", "Comuna": "LAMPA"}}, {"type": "Feature", "geometry": {"type": "Point", "coordinates": [-70.81192, -33.23969]}, "properties": {"RBD": "25812", "Nombre_EE": "LICEO MUNICIP. DE ADULTOS PEDRO J. RODRIGUEZ", "Dependencia": "MUNICIPAL", "Matrícula": 111, "Ruralidad": "URBANO", "Comuna": "LAMPA"}}, {"type": "Feature", "geometry": {"type": "Point", "coordinates": [-70.80813, -33.23613]}, "properties": {"RBD": "41597", "Nombre_EE": "ESCUELA ESPECIAL DE LENGUAJE PUCALEN", "Dependencia": "PARTICULAR SUBVENCIONADO", "Matrícula": 95, "Ruralidad": "URBANO", "Comuna": "LAMPA"}}, {"type": "Feature", "geometry": {"type": "Point", "coordinates": [-70.76683, -33.33322]}, "properties": {"RBD": "41952", "Nombre_EE": "ESCUELA ESPECIAL DE LENGUAJE LIHUEN", "Dependencia": "PARTICULAR SUBVENCIONADO", "Matrícula": 51, "Ruralidad": "URBANO", "Comuna": "LAMPA"}}, {"type": "Feature", "geometry": {"type": "Point", "coordinates": [-70.8691, -33.28571]}, "properties": {"RBD": "42334", "Nombre_EE": "ESCUELA ESPECIAL MUNDO COLOR DE LAMPA", "Dependencia": "PARTICULAR SUBVENCIONADO", "Matrícula": 44, "Ruralidad": "URBANO", "Comuna": "LAMPA"}}, {"type": "Feature", "geometry": {"type": "Point", "coordinates": [-70.74196, -33.32436]}, "properties": {"RBD": "26379", "Nombre_EE": "COLEGIO SOL DEL VALLE", "Dependencia": "PARTICULAR SUBVENCIONADO", "Matrícula": 1357, "Ruralidad": "URBANO", "Comuna": "LAMPA"}}, {"type": "Feature", "geometry": {"type": "Point", "coordinates": [-70.8723, -33.28528]}, "properties": {"RBD": "26527", "Nombre_EE": "ESCUELA ESPECIAL SAGRADA FAMILIA", "Dependencia": "PARTICULAR SUBVENCIONADO", "Matrícula": 225, "Ruralidad": "URBANO", "Comuna": "LAMPA"}}, {"type": "Feature", "geometry": {"type": "Point", "coordinates": [-70.87471, -33.29948]}, "properties": {"RBD": "26408", "Nombre_EE": "ESC.ESPECIAL Nº 2279 SAN EXPEDITO DE LAMPA", "Dependencia": "PARTICULAR SUBVENCIONADO", "Matrícula": 60, "Ruralidad": "URBANO", "Comuna": "LAMPA"}}, {"type": "Feature", "geometry": {"type": "Point", "coordinates": [-70.87263, -33.29209]}, "properties": {"RBD": "31297", "Nombre_EE": "ESCUELA DE LENGUAJE N°2399 GRANDES SUEÑOS", "Dependencia": "PARTICULAR SUBVENCIONADO", "Matrícula": 179, "Ruralidad": "URBANO", "Comuna": "LAMPA"}}, {"type": "Feature", "geometry": {"type": "Point", "coordinates": [-70.88572, -33.27714]}, "properties": {"RBD": "26424", "Nombre_EE": "ESCUELA BASICA Nº 2286 LAMPA", "Dependencia": "PARTICULAR SUBVENCIONADO", "Matrícula": 332, "Ruralidad": "URBANO", "Comuna": "LAMPA"}}, {"type": "Feature", "geometry": {"type": "Point", "coordinates": [-70.8876, -33.27726]}, "properties": {"RBD": "26432", "Nombre_EE": "ESCUELA ESPECIAL MI MUNDO EN PALABRAS", "Dependencia": "PARTICULAR SUBVENCIONADO", "Matrícula": 150, "Ruralidad": "URBANO", "Comuna": "LAMPA"}}, {"type": "Feature", "geometry": {"type": "Point", "coordinates": [-70.87761, -33.28923]}, "properties": {"RBD": "26450", "Nombre_EE": "ESCUELA ESPECIAL PARAISO", "Dependencia": "PARTICULAR SUBVENCIONADO", "Matrícula": 314, "Ruralidad": "URBANO", "Comuna": "LAMPA"}}, {"type": "Feature", "geometry": {"type": "Point", "coordinates": [-70.65527, -33.4444]}, "properties": {"RBD": "31192", "Nombre_EE": "COLEGIO ADULTOS MANQUEHUE", "Dependencia": "PARTICULAR SUBVENCIONADO", "Matrícula": 307, "Ruralidad": "URBANO", "Comuna": "LAMPA"}}, {"type": "Feature", "geometry": {"type": "Point", "coordinates": [-70.88589, -33.29136]}, "properties": {"RBD": "31193", "Nombre_EE": "ESCUELA BASICA CRISTIANO JERUSALEN", "Dependencia": "PARTICULAR SUBVENCIONADO", "Matrícula": 317, "Ruralidad": "URBANO", "Comuna": "LAMPA"}}, {"type": "Feature", "geometry": {"type": "Point", "coordinates": [-70.85508, -33.28102]}, "properties": {"RBD": "31043", "Nombre_EE": "ESCUELA ESPECIAL EL PORVENIR", "Dependencia": "PARTICULAR SUBVENCIONADO", "Matrícula": 76, "Ruralidad": "URBANO", "Comuna": "LAMPA"}}, {"type": "Feature", "geometry": {"type": "Point", "coordinates": [-70.88207, -33.29477]}, "properties": {"RBD": "26474", "Nombre_EE": "ESCUEL ESPECIAL BAMBÚ", "Dependencia": "PARTICULAR SUBVENCIONADO", "Matrícula": 68, "Ruralidad": "URBANO", "Comuna": "LAMPA"}}, {"type": "Feature", "geometry": {"type": "Point", "coordinates": [-70.75086, -33.32257]}, "properties": {"RBD": "41488", "Nombre_EE": "ESCUELA ESPECIAL SEMILLITAS DEL VALLE", "Dependencia": "PARTICULAR SUBVENCIONADO", "Matrícula": 86, "Ruralidad": "URBANO", "Comuna": "LAMPA"}}, {"type": "Feature", "geometry": {"type": "Point", "coordinates": [-70.88825, -33.28146]}, "properties": {"RBD": "31064", "Nombre_EE": "COLEGIO ALBORADA DE LAMPA", "Dependencia": "PARTICULAR SUBVENCIONADO", "Matrícula": 421, "Ruralidad": "URBANO", "Comuna": "LAMPA"}}, {"type": "Feature", "geometry": {"type": "Point", "coordinates": [-70.81281, -33.22977]}, "properties": {"RBD": "J13302013", "Nombre_EE": "SALA CUNA HUELEMU", "Dependencia": "Junji - VTF", "Matrícula": 52, "Ruralidad": "URBANO", "Comuna": "LAMPA"}}, {"type": "Feature", "geometry": {"type": "Point", "coordinates": [-70.80326, -33.23152]}, "properties": {"RBD": "J13302019", "Nombre_EE": "RICARDO LEVI", "Dependencia": "Junji - VTF", "Matrícula": 114, "Ruralidad": "RURAL", "Comuna": "LAMPA"}}, {"type": "Feature", "geometry": {"type": "Point", "coordinates": [-70.81663, -33.24047]}, "properties": {"RBD": "J13302025", "Nombre_EE": "MIS PRIMEROS PASITOS", "Dependencia": "Junji - VTF", "Matrícula": 77, "Ruralidad": "URBANO", "Comuna": "LAMPA"}}, {"type": "Feature", "geometry": {"type": "Point", "coordinates": [-70.82149, -33.24468]}, "properties": {"RBD": "J13302018", "Nombre_EE": "NUESTRO FUTURO", "Dependencia": "Junji - VTF", "Matrícula": 52, "Ruralidad": "URBANO", "Comuna": "LAMPA"}}, {"type": "Feature", "geometry": {"type": "Point", "coordinates": [-70.82754, -33.27718]}, "properties": {"RBD": "J13302016", "Nombre_EE": "LARAPINTA", "Dependencia": "Junji - VTF", "Matrícula": 104, "Ruralidad": "URBANO", "Comuna": "LAMPA"}}, {"type": "Feature", "geometry": {"type": "Point", "coordinates": [-70.86763, -33.2813]}, "properties": {"RBD": "J13302015", "Nombre_EE": "MI PEQUEÑO LUCERO", "Dependencia": "Junji - VTF", "Matrícula": 45, "Ruralidad": "URBANO", "Comuna": "LAMPA"}}, {"type": "Feature", "geometry": {"type": "Point", "coordinates": [-70.8896, -33.28151]}, "properties": {"RBD": "J13302021", "Nombre_EE": "KIM AYELEN", "Dependencia": "Junji - VTF", "Matrícula": 84, "Ruralidad": "URBANO", "Comuna": "LAMPA"}}, {"type": "Feature", "geometry": {"type": "Point", "coordinates": [-70.75831, -33.28337]}, "properties": {"RBD": "J13302024", "Nombre_EE": "TRENCITO DE ALEGRIA", "Dependencia": "Junji - VTF", "Matrícula": 40, "Ruralidad": "URBANO", "Comuna": "LAMPA"}}, {"type": "Feature", "geometry": {"type": "Point", "coordinates": [-70.86585, -33.28805]}, "properties": {"RBD": "J13302012", "Nombre_EE": "NIDO DE ANGELITO", "Dependencia": "Junji - VTF", "Matrícula": 20, "Ruralidad": "URBANO", "Comuna": "LAMPA"}}, {"type": "Feature", "geometry": {"type": "Point", "coordinates": [-70.87976, -33.29137]}, "properties": {"RBD": "I143406", "Nombre_EE": "S.C. EL PELLÍN", "Dependencia": "Integra", "Matrícula": 0, "Ruralidad": "URBANO", "Comuna": "LAMPA"}}, {"type": "Feature", "geometry": {"type": "Point", "coordinates": [-70.87754, -33.29732]}, "properties": {"RBD": "J13302011", "Nombre_EE": "SOLCITO", "Dependencia": "Junji - VTF", "Matrícula": 97, "Ruralidad": "URBANO", "Comuna": "LAMPA"}}, {"type": "Feature", "geometry": {"type": "Point", "coordinates": [-70.80801, -33.2294]}, "properties": {"RBD": "I143402", "Nombre_EE": "RUNA KAY", "Dependencia": "Integra", "Matrícula": 72, "Ruralidad": "URBANO", "Comuna": "LAMPA"}}, {"type": "Feature", "geometry": {"type": "Point", "coordinates": [-70.8887, -33.27993]}, "properties": {"RBD": "I143405", "Nombre_EE": "AYUN AYEN", "Dependencia": "Integra", "Matrícula": 56, "Ruralidad": "URBANO", "Comuna": "LAMPA"}}, {"type": "Feature", "geometry": {"type": "Point", "coordinates": [-70.88612, -33.28027]}, "properties": {"RBD": "I143404", "Nombre_EE": "TIRAMISÚ", "Dependencia": "Integra", "Matrícula": 70, "Ruralidad": "URBANO", "Comuna": "LAMPA"}}, {"type": "Feature", "geometry": {"type": "Point", "coordinates": [-70.87371, -33.2855]}, "properties": {"RBD": "I143401", "Nombre_EE": "IRENE MORALES", "Dependencia": "Integra", "Matrícula": 183, "Ruralidad": "URBANO", "Comuna": "LAMPA"}}, {"type": "Feature", "geometry": {"type": "Point", "coordinates": [-70.88839, -33.2934]}, "properties": {"RBD": "I143403", "Nombre_EE": "SAN VICENTE DE PAUL", "Dependencia": "Integra - CAD", "Matrícula": 104, "Ruralidad": "URBANO", "Comuna": "LAMPA"}}]}