{"type": "FeatureCollection", "features": [{"type": "Feature", "properties": {"nombre": "COSAM Lampa", "tipo": "Centro Comunitario de Salud Mental  (COSAM)", "nivel_atencion": "Segundo Nivel", "dependencia": "Municipal", "pertenencia": "Perteneciente al Sistema Nacional de Servicios de Salud"}, "geometry": {"type": "Point", "coordinates": [-70.88563, -33.285581]}}, {"type": "Feature", "properties": {"nombre": "Centro Comunitario de Salud Familiar Sol de Septiembre", "tipo": "Centro Comunitario de Salud Familiar (CECOSF)", "nivel_atencion": "Primer Nivel", "dependencia": "Municipal", "pertenencia": "Perteneciente al Sistema Nacional de Servicios de Salud"}, "geometry": {"type": "Point", "coordinates": [-70.85303, -33.30489]}}, {"type": "Feature", "properties": {"nombre": "SAPU José Bauzá Frau", "tipo": "Servicio de Atención Primaria de Urgencia (SAPU)", "nivel_atencion": "Primer Nivel", "dependencia": "Municipal", "pertenencia": "Perteneciente al Sistema Nacional de Servicios de Salud"}, "geometry": {"type": "Point", "coordinates": [-70.876254, -33.285726]}}, {"type": "Feature", "properties": {"nombre": "SUR Batuco", "tipo": "Servicio de Urgencia Rural (SUR)", "nivel_atencion": "Primer Nivel", "dependencia": "Municipal", "pertenencia": "Perteneciente al Sistema Nacional de Servicios de Salud"}, "geometry": {"type": "Point", "coordinates": [-70.814087, -33.241886]}}, {"type": "Feature", "properties": {"nombre": "Centro Comunitario de Salud Familiar Batuco", "tipo": "Centro Comunitario de Salud Familiar (CECOSF)", "nivel_atencion": "Primer Nivel", "dependencia": "Municipal", "pertenencia": "Perteneciente al Sistema Nacional de Servicios de Salud"}, "geometry": {"type": "Point", "coordinates": [-70.81273, -33.22992]}}, {"type": "Feature", "properties": {"nombre": "Centro de Salud Familiar José Bauza Frau", "tipo": "Centro de Salud Familiar (CESFAM)", "nivel_atencion": "Primer Nivel", "dependencia": "Municipal", "pertenencia": "Perteneciente al Sistema Nacional de Servicios de Salud"}, "geometry": {"type": "Point", "coordinates": [-70.875532, -33.277449]}}, {"type": "Feature", "properties": {"nombre": "Centro de Salud Familiar Batuco", "tipo": "Centro de Salud Familiar (CESFAM)", "nivel_atencion": "Primer Nivel", "dependencia": "Municipal", "pertenencia": "Perteneciente al Sistema Nacional de Servicios de Salud"}, "geometry": {"type": "Point", "coordinates": [-70.81415, -33.24185]}}, {"type": "Feature", "properties": {"nombre": "Centro de Salud Familiar Juan Pablo II de Lampa", "tipo": "Centro de Salud Familiar (CESFAM)", "nivel_atencion": "Primer Nivel", "dependencia": "Municipal", "pertenencia": "Perteneciente al Sistema Nacional de Servicios de Salud"}, "geometry": {"type": "Point", "coordinates": [-70.75783, -33.28311]}}, {"type": "Feature", "properties": {"nombre": "Laboratorio AR", "tipo": "Laboratorio Clínico", "nivel_atencion": "No Aplica", "dependencia": "Privado", "pertenencia": "No Perteneciente al Sistema Nacional de Servicios de Salud"}, "geometry": {"type": "Point", "coordinates": [-70.87691, -33.284759]}}]}