{
"type": "FeatureCollection",
"name": "cercos",
"crs": { "type": "name", "properties": { "name": "urn:ogc:def:crs:EPSG::32719" } },
"features": [
{ "type": "Feature", "properties": { "fid": 244, "Area": 6343553.083 }, "geometry": { "type": "MultiPolygon", "coordinates": [ [ [ [ 335009.473574222764, 6315208.90305525995791 ], [ 335078.122774684161413, 6315246.336934119462967 ], [ 335004.621744092204608, 6315343.33695711940527 ], [ 334966.175819052383304, 6315393.673374370671809 ], [ 334945.141953878570348, 6315421.340594589710236 ], [ 334925.196244877472054, 6315447.330774437636137 ], [ 334857.012543977354653, 6315533.999478487297893 ], [ 334833.199955865042284, 6315566.03702132217586 ], [ 334765.757041799777653, 6315654.422400233335793 ], [ 334601.988132145430427, 6315869.171492338180542 ], [ 334445.040188621147536, 6316075.231060057878494 ], [ 334315.885506191523746, 6316245.333359561860561 ], [ 334213.587069316534325, 6316379.496212983503938 ], [ 334186.054322537966073, 6316415.776583786122501 ], [ 334179.459502044250257, 6316424.519047802314162 ], [ 334146.383141974045429, 6316467.811652476899326 ], [ 334115.4887478670571, 6316508.863161333836615 ], [ 334102.415730760898441, 6316525.51219318062067 ], [ 334098.636181046895217, 6316530.561525568366051 ], [ 334073.260057585779577, 6316563.376031460240483 ], [ 333968.031206093495712, 6316699.301562055945396 ], [ 333803.191833070595749, 6316915.66671154089272 ], [ 333760.027031864970922, 6316974.432032138109207 ], [ 333745.146924005122855, 6316994.567138934507966 ], [ 333725.308889821462799, 6317020.286421343684196 ], [ 333687.873901611426845, 6317068.891626119613647 ], [ 333664.002404496655799, 6317100.143732029013336 ], [ 333617.218801398063079, 6317161.921544849872589 ], [ 333589.97209030832164, 6317197.164176866412163 ], [ 333578.317264167475514, 6317213.015002503059804 ], [ 333565.740009980625473, 6317229.603526506572962 ], [ 333504.308625678881072, 6317309.674753520637751 ], [ 333467.966380951052997, 6317356.274034201167524 ], [ 333423.101396900310647, 6317415.743639862164855 ], [ 333416.661293248413131, 6317424.730272480286658 ], [ 333370.630632904591039, 6317485.296335877850652 ], [ 333331.990985585085582, 6317535.240454599261284 ], [ 333170.207681157044135, 6317748.99715066794306 ], [ 333141.763597650220618, 6317786.0980991628021 ], [ 333117.374368953285739, 6317817.919813698157668 ], [ 333102.970029774296563, 6317836.809406749904156 ], [ 333064.428848728886805, 6317887.375576727092266 ], [ 333048.166125119896606, 6317908.905509513802826 ], [ 333001.093658460420556, 6317970.453514323569834 ], [ 332982.721885370032396, 6317993.775921748019755 ], [ 332964.90143894974608, 6318017.863150752149522 ], [ 332952.384624500293285, 6318034.454172976315022 ], [ 332936.252821077534463, 6318055.199612674303353 ], [ 332920.389225361286663, 6318076.001071132719517 ], [ 332872.144746900710743, 6318139.809204576537013 ], [ 332847.510213408269919, 6318171.926515487954021 ], [ 332823.555230400990695, 6318203.66860126145184 ], [ 332804.84517644229345, 6318228.405094821937382 ], [ 332760.967357245099265, 6318285.865049934946001 ], [ 332755.022638684953563, 6318293.767675545066595 ], [ 332742.16185824747663, 6318309.475742386654019 ], [ 332732.389722153777257, 6318323.277411621063948 ], [ 332719.164379351539537, 6318340.088402800261974 ], [ 332703.969483663444407, 6318362.918058816343546 ], [ 332688.591592092241626, 6318383.621285424567759 ], [ 332662.405185154580977, 6318417.884516118094325 ], [ 332654.079915639420506, 6318428.296900120563805 ], [ 332646.101953844015952, 6318438.537705290131271 ], [ 332641.597069245704915, 6318444.704738751985133 ], [ 332634.93078417837387, 6318454.322957872413099 ], [ 332629.029924862028565, 6318461.908376350067556 ], [ 332624.943158295878675, 6318467.367851389572024 ], [ 332618.860215320659336, 6318475.745800663717091 ], [ 332612.672742837981787, 6318483.54691824503243 ], [ 332603.396591992990579, 6318495.637506636790931 ], [ 332595.287125332688447, 6318506.518872779794037 ], [ 332590.701314663921949, 6318512.715319757349789 ], [ 332587.009062691999134, 6318517.341411896049976 ], [ 332580.346149544173386, 6318525.915451264940202 ], [ 332569.491940321808215, 6318539.613978428766131 ], [ 332553.826001817302313, 6318560.319458291865885 ], [ 332544.907274451048579, 6318572.128984214738011 ], [ 332540.017991017492022, 6318579.000307932496071 ], [ 332532.87289336550748, 6318588.200201518833637 ], [ 332522.736903020122554, 6318601.733686186373234 ], [ 332514.529650691372808, 6318612.074170487001538 ], [ 332507.458735270833131, 6318621.352500110864639 ], [ 332499.248111022578087, 6318632.577023919671774 ], [ 332488.430992916168179, 6318646.520663701929152 ], [ 332481.538789234531578, 6318655.16333460342139 ], [ 332471.503956477565225, 6318668.363466111011803 ], [ 332463.853070884419139, 6318678.700682243332267 ], [ 332459.300979411636945, 6318684.692868704907596 ], [ 332453.710336699557956, 6318692.835509867407382 ], [ 332447.337408638035413, 6318700.268958521075547 ], [ 332442.731366451771464, 6318706.115711496211588 ], [ 332437.268856685084756, 6318713.295877113007009 ], [ 332425.011928905674722, 6318730.102432269603014 ], [ 332413.102308845554944, 6318745.116397148929536 ], [ 332344.42979408375686, 6318835.876697248779237 ], [ 332328.531193126400467, 6318857.534848152659833 ], [ 332283.293519648665097, 6318915.580784203484654 ], [ 332273.781334431318101, 6318928.362590176984668 ], [ 332265.692099288513418, 6318938.946553011424839 ], [ 332254.409656276402529, 6318953.651675992645323 ], [ 332244.917702576087322, 6318966.103396973572671 ], [ 332234.936820533068385, 6318979.53066617436707 ], [ 332220.279085991380271, 6318998.605330087244511 ], [ 332213.228402088803705, 6319007.793785084970295 ], [ 332207.219641345029231, 6319015.089970673434436 ], [ 332196.527284264040645, 6319029.951965729705989 ], [ 332167.613073614833411, 6319067.290787832811475 ], [ 332153.771343619038817, 6319085.920980866067111 ], [ 332143.362227785342839, 6319099.510024393908679 ], [ 332125.302226358035114, 6319123.398700118996203 ], [ 332113.716310580668505, 6319138.381617399863899 ], [ 332105.489762279146817, 6319149.208775202743709 ], [ 332098.545089344435837, 6319158.64093639049679 ], [ 332095.181688923330512, 6319163.000728375278413 ], [ 332068.846399796137121, 6319197.718839785084128 ], [ 332052.220035771781113, 6319219.559964039362967 ], [ 332032.182611805328634, 6319246.119277103804052 ], [ 332002.844772909709718, 6319284.391841746866703 ], [ 331998.405629034095909, 6319290.252683969214559 ], [ 331989.602234814257827, 6319301.679218086414039 ], [ 331980.043096775130834, 6319314.627884608693421 ], [ 331969.483108812884893, 6319328.16263535246253 ], [ 331960.203119392448571, 6319340.461971153505147 ], [ 331949.302706286252942, 6319354.58702255319804 ], [ 331935.052509766013827, 6319373.400747730396688 ], [ 331917.527423361258116, 6319395.747843974269927 ], [ 331902.889913310995325, 6319415.470721649937332 ], [ 331896.425175032694824, 6319423.985947789624333 ], [ 331846.592455112491734, 6319489.478690365329385 ], [ 331801.058228774170857, 6319548.970601287670434 ], [ 331769.346857279597316, 6319590.973117465153337 ], [ 331726.127113185299095, 6319647.688490034081042 ], [ 331715.698305232683197, 6319660.798988851718605 ], [ 331690.263113855733536, 6319694.784631928429008 ], [ 331678.028574922587723, 6319710.805410781875253 ], [ 331656.299717537185643, 6319739.171106311492622 ], [ 331583.748308713373262, 6319834.095409689471126 ], [ 331550.344262074620929, 6319878.18490634392947 ], [ 331507.553023318119813, 6319934.345225503668189 ], [ 331487.418411345221102, 6319960.291620444506407 ], [ 331467.111053216853179, 6319987.442707575857639 ], [ 331454.72274253424257, 6320003.733512411825359 ], [ 331442.03558495559264, 6320020.378503870218992 ], [ 331431.249820988159627, 6320034.377393256872892 ], [ 331417.043525021115784, 6320053.147758716717362 ], [ 331405.927290147461463, 6320067.754587955772877 ], [ 331394.641866819467396, 6320082.107409703545272 ], [ 331381.152249982813373, 6320099.886154322884977 ], [ 331361.92089880030835, 6320125.070526788011193 ], [ 331344.242286516993772, 6320148.435402140952647 ], [ 331321.63862995035015, 6320178.325905408710241 ], [ 331310.014434413460549, 6320193.559998395852745 ], [ 331303.911395751405507, 6320201.192427724599838 ], [ 331294.141553110617679, 6320214.450652621686459 ], [ 331284.404520380368922, 6320227.38647361472249 ], [ 331274.490393193147611, 6320239.824704354628921 ], [ 331265.25025272264611, 6320251.792042326182127 ], [ 331254.017009011411574, 6320266.814843795262277 ], [ 331239.547838459839113, 6320284.804371409118176 ], [ 331232.95462764025433, 6320293.244336069561541 ], [ 331230.080005116120446, 6320296.911299084313214 ], [ 331226.729045938875061, 6320298.167352148331702 ], [ 331223.535416212165728, 6320299.022434427402914 ], [ 331218.381493155262433, 6320299.695973813533783 ], [ 331214.213843915436883, 6320300.35222340002656 ], [ 331210.479048314795364, 6320321.526633743196726 ], [ 331204.513178796914872, 6320321.960404295474291 ], [ 331198.5105463671498, 6320322.411973170936108 ], [ 331192.596461165929213, 6320323.11246430221945 ], [ 331186.656286156270653, 6320323.660144120454788 ], [ 331180.671046932111494, 6320324.210112294182181 ], [ 331174.788585741014685, 6320324.844241108745337 ], [ 331168.502127820043825, 6320325.535833079367876 ], [ 331162.619666628947016, 6320325.824165908619761 ], [ 331150.72745760588441, 6320326.734168726019561 ], [ 331138.883870498393662, 6320327.923605210147798 ], [ 331115.050830536521971, 6320330.406471237540245 ], [ 331103.004059163737111, 6320331.518612149171531 ], [ 331085.182248736789916, 6320333.001807290129364 ], [ 331078.682660437887534, 6320333.65662263520062 ], [ 331061.164635904016905, 6320335.215277732349932 ], [ 331032.298588421312161, 6320337.841988867148757 ], [ 331020.102643667662051, 6320339.011244541965425 ], [ 331002.067834710353054, 6320340.608441941440105 ], [ 330984.491618231695611, 6320342.131193120032549 ], [ 330954.944799734919798, 6320345.160139705054462 ], [ 330943.090840050834231, 6320346.133241306059062 ], [ 330930.938167305081151, 6320347.230425646528602 ], [ 330925.086820925760549, 6320347.689726837910712 ], [ 330918.820489355071913, 6320348.362586536444724 ], [ 330907.024288546410389, 6320349.723626354709268 ], [ 330864.671840516617522, 6320353.039287565276027 ], [ 330826.218574094062205, 6320356.446854183450341 ], [ 330792.384187637420837, 6320359.027586949057877 ], [ 330760.829652749700472, 6320363.168706357479095 ], [ 330695.854850458039436, 6320367.726156549528241 ], [ 330678.80511356779607, 6320369.374136846512556 ], [ 330654.75523707002867, 6320371.398160390555859 ], [ 330612.9166118283174, 6320374.61229002662003 ], [ 330552.957017787848599, 6320380.61529728770256 ], [ 330547.062441310554277, 6320381.301958026364446 ], [ 330525.782895335927606, 6320383.854951831512153 ], [ 330492.458636608091183, 6320386.283554914407432 ], [ 330475.365501980180852, 6320387.791755629703403 ], [ 330469.095971284434199, 6320388.643991198390722 ], [ 330432.558624525205232, 6320390.878500268794596 ], [ 330415.548555388464592, 6320387.182306110858917 ], [ 330393.050310414051637, 6320378.783814155496657 ], [ 330331.5991697270656, 6320355.89008678868413 ], [ 330334.634999688365497, 6320350.567597725428641 ], [ 330338.25415307993535, 6320344.415814370848238 ], [ 330363.283017719222698, 6320314.137090268544853 ], [ 330382.839129376981873, 6320288.558720253407955 ], [ 330393.292605718248524, 6320274.544396140612662 ], [ 330451.832039701403119, 6320198.53612828720361 ], [ 330459.209180129226297, 6320188.943642814643681 ], [ 330488.259568460984156, 6320151.10342061240226 ], [ 330505.546110453899018, 6320129.335537071339786 ], [ 330514.274937090172898, 6320118.140478193759918 ], [ 330539.919165305036586, 6320084.645643102005124 ], [ 330547.651178107422311, 6320075.805035379715264 ], [ 330572.975528743409086, 6320042.117026801221073 ], [ 330576.496522082190495, 6320037.068279454484582 ], [ 330583.179606046469416, 6320026.530787232331932 ], [ 330631.619576909288298, 6319966.116615923121572 ], [ 330642.64121925435029, 6319952.026558906771243 ], [ 330680.301109652442392, 6319903.265070873312652 ], [ 330633.659389325475786, 6319895.82852812949568 ], [ 330550.618478339980356, 6319882.931547525338829 ], [ 330497.597549017402343, 6319874.109925215132535 ], [ 330460.415609967079945, 6319868.334622108377516 ], [ 330426.171319927147124, 6319862.92003702186048 ], [ 330414.540963716281112, 6319861.180709105916321 ], [ 330397.203591957164463, 6319858.328684796579182 ], [ 330373.098548014997505, 6319854.406000286340714 ], [ 330367.105657815176528, 6319853.442298996262252 ], [ 330348.952341531636193, 6319850.098967267200351 ], [ 330328.379599625710398, 6319847.327706242911518 ], [ 330307.484109310433269, 6319843.988364598713815 ], [ 330262.655405786412302, 6319836.769028244540095 ], [ 330218.647878543706611, 6319829.249265198595822 ], [ 330105.317924112663604, 6319811.739938226528466 ], [ 330082.368092603690457, 6319808.145522029139102 ], [ 330028.64648504788056, 6319800.129636770114303 ], [ 329983.984387485485058, 6319793.35854503326118 ], [ 329954.880305541970301, 6319789.041194599121809 ], [ 329902.705223482451402, 6319781.064652397297323 ], [ 329863.386775346822105, 6319775.210869516246021 ], [ 329834.605169398128055, 6319770.929991058073938 ], [ 329818.943028545705602, 6319768.345418777316809 ], [ 329789.775152696180157, 6319764.061877980828285 ], [ 329709.334864937060047, 6319752.106670310720801 ], [ 329627.181948639277834, 6319739.852565594948828 ], [ 329618.052770363923628, 6319738.42289015930146 ], [ 329596.75889817654388, 6319735.422000782564282 ], [ 329588.568949484440964, 6319734.84910536929965 ], [ 329581.075404212228023, 6319732.911118456162512 ], [ 329573.185754174366593, 6319731.738043798133731 ], [ 329570.052811908652075, 6319731.466851492412388 ], [ 329542.05337107682135, 6319727.248561927117407 ], [ 329520.411848993622698, 6319724.010758700780571 ], [ 329498.149061019066721, 6319720.42724166251719 ], [ 329486.794723639904987, 6319718.785937668755651 ], [ 329486.794723640021402, 6319716.212918229401112 ], [ 329501.582630233431701, 6319503.740869690664113 ], [ 329406.315892102487851, 6319488.82030760217458 ], [ 329406.395254448172636, 6319488.373884120956063 ], [ 329409.445118169940542, 6319475.833320605568588 ], [ 329414.028225002635736, 6319452.897413404658437 ], [ 329414.789104495139327, 6319448.842191244475543 ], [ 329416.034984734025784, 6319438.483524266630411 ], [ 329416.298796724528074, 6319436.080202281475067 ], [ 329417.098501430242322, 6319434.149544334970415 ], [ 329417.098501430242322, 6319425.640253208577633 ], [ 329417.442288540943991, 6319419.60975713096559 ], [ 329417.442288540943991, 6319415.246999999508262 ], [ 329415.931613352382556, 6319409.266621020622551 ], [ 329413.742821245978121, 6319398.060224299319088 ], [ 329411.322640310274437, 6319388.466605492867529 ], [ 329409.894437115988694, 6319384.246758724562824 ], [ 329408.542090714385267, 6319378.730352856218815 ], [ 329407.288167220773175, 6319376.033099154010415 ], [ 329406.116023775830399, 6319373.662786378525198 ], [ 329404.147947461926378, 6319370.404367282986641 ], [ 329402.730473184201401, 6319366.64456450752914 ], [ 329400.110549997654743, 6319362.601924413815141 ], [ 329390.568445346492808, 6319345.690710545517504 ], [ 329388.173652454570401, 6319343.160537082701921 ], [ 329385.072893129196018, 6319338.384897887706757 ], [ 329384.004164518672042, 6319336.38548072706908 ], [ 329382.661392185022123, 6319334.057401146739721 ], [ 329380.545942281431053, 6319332.784365163184702 ], [ 329374.412336182314903, 6319326.440843904390931 ], [ 329372.451654625125229, 6319324.854394722729921 ], [ 329352.272611544700339, 6319306.502123467624187 ], [ 329338.851118802500423, 6319293.893423827365041 ], [ 329326.354976484959479, 6319286.470746139995754 ], [ 329324.309348358598072, 6319285.359566346742213 ], [ 329315.761158614361193, 6319279.661289685405791 ], [ 329305.824570701282937, 6319270.746505461633205 ], [ 329276.147446918068454, 6319250.931869607418776 ], [ 329271.687728751276154, 6319248.106486705131829 ], [ 329243.260011513310019, 6319228.982491665519774 ], [ 329234.676161160226911, 6319223.259893687441945 ], [ 329230.841402381716762, 6319220.378690294921398 ], [ 329224.26993168971967, 6319216.084563138894737 ], [ 329196.978175743250176, 6319195.82070070784539 ], [ 329190.296975802455563, 6319190.424227584153414 ], [ 329176.390213792736176, 6319179.809935497120023 ], [ 329167.832952898577787, 6319171.662997227162123 ], [ 329159.572329782764427, 6319161.317377360537648 ], [ 329148.868950302654412, 6319148.906953339464962 ], [ 329138.870326527568977, 6319136.054992876015604 ], [ 329130.845143524638843, 6319123.4428919441998 ], [ 329128.4690889834892, 6319117.652863815426826 ], [ 329122.078333479410503, 6319106.393440308980644 ], [ 329116.214757073030341, 6319094.607859093695879 ], [ 329111.058059803093784, 6319085.522355070337653 ], [ 329106.251328242011368, 6319074.240611706860363 ], [ 329099.979941247729585, 6319059.288732182234526 ], [ 329098.367381366959307, 6319049.204273103736341 ], [ 329097.342313486209605, 6319039.12332253716886 ], [ 329097.811163413571194, 6319029.215700817294419 ], [ 329098.045821209612768, 6319017.81594277638942 ], [ 329098.751156661019195, 6319005.754762229509652 ], [ 329100.479543677123729, 6318997.290341754443944 ], [ 329103.965230823145248, 6318991.6954560065642 ], [ 329104.110600754967891, 6318988.872988943010569 ], [ 329105.705000000016298, 6318976.238148184493184 ], [ 329106.985234562307596, 6318959.653899068012834 ], [ 329107.634920750395395, 6318951.788600814528763 ], [ 329108.816684829653241, 6318942.529833467677236 ], [ 329111.663321571133565, 6318920.616857085376978 ], [ 329112.844480286177713, 6318909.3203767798841 ], [ 329113.978653424943332, 6318899.014029615558684 ], [ 329115.585867474030238, 6318885.404403243213892 ], [ 329117.003323125187308, 6318875.286032517440617 ], [ 329117.901907138293609, 6318865.167798795737326 ], [ 329118.692419669241644, 6318859.31546925753355 ], [ 329120.591521715861745, 6318846.377964234910905 ], [ 329121.023593438905664, 6318837.632237884216011 ], [ 329125.073331019841135, 6318819.246668524108827 ], [ 329126.769589488278143, 6318808.773169639520347 ], [ 329128.732459669874515, 6318802.938215874135494 ], [ 329131.379456606809981, 6318793.770687717944384 ], [ 329136.759589151595719, 6318782.124732187017798 ], [ 329149.327658051101025, 6318757.495940941385925 ], [ 329157.599317422194872, 6318737.262570996768773 ], [ 329174.540295260143466, 6318698.545387391932309 ], [ 329181.784400100586936, 6318684.682206972502172 ], [ 329186.327481576357968, 6318674.104584497399628 ], [ 329190.538069085741881, 6318664.557529428042471 ], [ 329193.829536765173543, 6318656.206859176978469 ], [ 329198.806627129437402, 6318646.196245644241571 ], [ 329201.400035363389179, 6318640.706239990890026 ], [ 329210.008705649292096, 6318624.830126597546041 ], [ 329212.923282882198691, 6318617.940337720327079 ], [ 329222.347639537008945, 6318598.464127361774445 ], [ 329228.969718677282799, 6318585.652696469798684 ], [ 329230.777615620114375, 6318581.704404978081584 ], [ 329246.627252165810205, 6318588.529765893705189 ], [ 329259.342499075690284, 6318594.204948323778808 ], [ 329272.085099134827033, 6318600.456324969418347 ], [ 329284.518721298954915, 6318606.064857579767704 ], [ 329294.607860994059592, 6318610.701365498825908 ], [ 329295.46676105458755, 6318611.161993251182139 ], [ 329300.318531713215634, 6318609.019763557240367 ], [ 329302.724491246510297, 6318606.889006519690156 ], [ 329305.008632873359602, 6318602.597053568810225 ], [ 329313.571435178397223, 6318592.571315906010568 ], [ 329319.514854467939585, 6318585.465434839017689 ], [ 329326.887920512643177, 6318576.723973504267633 ], [ 329331.861751223448664, 6318570.374537215568125 ], [ 329352.916765635251068, 6318544.411385480314493 ], [ 329362.352419317583553, 6318533.403264378197491 ], [ 329368.324514244392049, 6318526.540995581075549 ], [ 329376.056384315539617, 6318516.471434276551008 ], [ 329383.88071678543929, 6318507.545451405458152 ], [ 329389.003373959974851, 6318500.879004055634141 ], [ 329395.458242191001773, 6318493.244350276887417 ], [ 329402.049224237271119, 6318485.433710952289402 ], [ 329407.807010918913875, 6318478.26146003138274 ], [ 329414.034392591449432, 6318470.631297624669969 ], [ 329428.500939546793234, 6318453.391927657648921 ], [ 329437.965361999289598, 6318442.28850487805903 ], [ 329446.934978369623423, 6318431.123674198053777 ], [ 329454.346061286982149, 6318421.954233932308853 ], [ 329459.542991993948817, 6318415.519586662761867 ], [ 329459.96690883761039, 6318415.576116568408906 ], [ 329460.223647283797618, 6318415.173715083859861 ], [ 329463.397026992810424, 6318410.647539048455656 ], [ 329465.411614256852772, 6318406.562995839864016 ], [ 329469.674397641734686, 6318398.287424351088703 ], [ 329470.578764599689748, 6318396.432342296466231 ], [ 329475.250941722129937, 6318380.730838109739125 ], [ 329476.122927254473325, 6318378.437485913746059 ], [ 329482.929965508112218, 6318360.942548924125731 ], [ 329488.751683239301201, 6318339.462828426621854 ], [ 329497.499294070003089, 6318313.140839361585677 ], [ 329509.306949620076921, 6318273.24704756308347 ], [ 329520.092277304676827, 6318242.240836197510362 ], [ 329535.158892045670655, 6318194.005340076051652 ], [ 329535.852779737149831, 6318191.002461026422679 ], [ 329538.142609119357076, 6318193.050337108783424 ], [ 329542.923495313560124, 6318193.766589333303273 ], [ 329552.457512194698211, 6318195.266347515396774 ], [ 329575.180021131818648, 6318202.688917526975274 ], [ 329602.075108053570148, 6318208.173459216021001 ], [ 329626.349612460413482, 6318213.022453156299889 ], [ 329638.460265635920223, 6318215.210441174916923 ], [ 329758.333990257640835, 6318240.993279503658414 ], [ 329804.387316341453698, 6318251.556598710827529 ], [ 329891.169536956062075, 6318269.195010324940085 ], [ 329944.164052913838532, 6318280.291875790804625 ], [ 330007.259260699793231, 6318294.329971052706242 ], [ 330007.633960053732153, 6318294.743581493385136 ], [ 330010.881354449724313, 6318294.66399791277945 ], [ 330014.494196363666561, 6318295.714276998303831 ], [ 330020.457004592230078, 6318296.702906830236316 ], [ 330030.765862728876527, 6318299.141975441947579 ], [ 330036.767991260101553, 6318300.367114224471152 ], [ 330041.273635337071028, 6318301.607945545576513 ], [ 330046.369083951169159, 6318302.594333586283028 ], [ 330051.654195201524999, 6318303.551578345708549 ], [ 330075.52624474739423, 6318310.565021499060094 ], [ 330080.50604541314533, 6318311.586157300509512 ], [ 330083.172887107764836, 6318311.367582677863538 ], [ 330087.930643712112214, 6318312.756372204981744 ], [ 330091.351510031090584, 6318313.538757264614105 ], [ 330095.854841148888227, 6318313.994961733929813 ], [ 330107.007373668602668, 6318317.009085852652788 ], [ 330115.902700100443326, 6318318.902955665253103 ], [ 330144.357761909370311, 6318326.20270339678973 ], [ 330171.905838554084767, 6318332.174990093335509 ], [ 330201.190805003454443, 6318339.381521468050778 ], [ 330224.596767535491381, 6318344.883406332693994 ], [ 330257.795249534130562, 6318352.787852922454476 ], [ 330329.928451666550245, 6318370.297501888126135 ], [ 330380.937994019885082, 6318381.878520754165947 ], [ 330414.333878417033702, 6318390.170751684345305 ], [ 330423.068327959917951, 6318392.269515020772815 ], [ 330444.283799785189331, 6318395.325932877138257 ], [ 330462.053698533563875, 6318398.691891292110085 ], [ 330479.07519262220012, 6318402.922234202735126 ], [ 330510.056450533855241, 6318410.550224795937538 ], [ 330530.232805625069886, 6318415.517236590385437 ], [ 330564.609632576233707, 6318423.443994652479887 ], [ 330602.716043258667924, 6318432.767925189808011 ], [ 330622.074557056417689, 6318437.765808455646038 ], [ 330682.497635679610539, 6318451.66306740604341 ], [ 330717.784399551223032, 6318460.701448611915112 ], [ 330801.891105077636894, 6318483.196886349469423 ], [ 330816.686932912387419, 6318485.72145642247051 ], [ 330826.227119024610147, 6318487.265328431501985 ], [ 330836.083510149270296, 6318489.119758192449808 ], [ 330844.742872703063767, 6318492.222065463662148 ], [ 330851.772632045205683, 6318494.732666349038482 ], [ 330870.736848846892826, 6318499.123662842437625 ], [ 330906.519154551089741, 6318507.655958053655922 ], [ 330912.96341493842192, 6318508.123441337607801 ], [ 330928.20125178253511, 6318512.41113390494138 ], [ 330951.711316108820029, 6318518.210134471766651 ], [ 330961.524242082843557, 6318520.634019121527672 ], [ 330968.150400446611457, 6318522.841589005663991 ], [ 330971.621745117357932, 6318524.019095727242529 ], [ 330977.468352699186653, 6318525.447522960603237 ], [ 330982.275559238274582, 6318526.720126277767122 ], [ 330989.972774536465295, 6318529.060812940821052 ], [ 330991.687780668900814, 6318529.684125908650458 ], [ 331030.000918573874515, 6318538.734872902743518 ], [ 331041.098036252253223, 6318541.60466415155679 ], [ 331044.925893878797069, 6318542.229292137548327 ], [ 331051.914702660113107, 6318543.065015187487006 ], [ 331067.01269105746178, 6318547.233986968174577 ], [ 331073.915612626704387, 6318549.449556549079716 ], [ 331078.342818078584969, 6318550.794555091299117 ], [ 331093.079613226465881, 6318554.073310742154717 ], [ 331094.333625558996573, 6318555.892137517221272 ], [ 331095.090377393411472, 6318556.700654681771994 ], [ 331096.838734437362291, 6318559.334873068146408 ], [ 331098.456612209964078, 6318560.508532783016562 ], [ 331100.700771858741064, 6318562.386384868063033 ], [ 331102.866643944696989, 6318563.612206981517375 ], [ 331105.006429489643779, 6318563.977343765087426 ], [ 331107.703665693232324, 6318564.427430825307965 ], [ 331109.562386978359427, 6318564.575005989521742 ], [ 331112.469617706665304, 6318564.72679758630693 ], [ 331114.709615153202321, 6318565.232769576832652 ], [ 331116.847485056088772, 6318565.397210473194718 ], [ 331119.332588606455829, 6318565.920048196800053 ], [ 331122.198968317301478, 6318566.274228590540588 ], [ 331124.513859295228031, 6318566.78020058106631 ], [ 331127.067047874385025, 6318567.269306838512421 ], [ 331129.722363996261265, 6318567.695166597142816 ], [ 331131.050022057199385, 6318567.910204692743719 ], [ 331133.153849446156528, 6318568.083078456111252 ], [ 331135.768314550572541, 6318568.508938214741647 ], [ 331137.334270212741103, 6318568.146324954926968 ], [ 331138.416822169849183, 6318568.011399091221392 ], [ 331140.976819251605775, 6318566.99102224316448 ], [ 331142.202349768893328, 6318566.809715613722801 ], [ 331145.238942052179482, 6318566.063406927511096 ], [ 331146.532557599188294, 6318565.60803213622421 ], [ 331147.553833030106034, 6318565.882100298069417 ], [ 331148.888299594575074, 6318565.97064539603889 ], [ 331152.442338095919695, 6318566.442885920405388 ], [ 331156.704460896493401, 6318567.281956138089299 ], [ 331161.102753754646983, 6318568.369795917533338 ], [ 331171.0704019665136, 6318570.406333179213107 ], [ 331181.371666818798985, 6318572.67477426957339 ], [ 331193.844844089762773, 6318575.259447854012251 ], [ 331204.221002473437693, 6318577.236955049447715 ], [ 331207.516317865753081, 6318577.941099403426051 ], [ 331210.940994813048746, 6318578.278414063155651 ], [ 331214.815032949612942, 6318579.096402114257216 ], [ 331218.457581988477614, 6318579.619239837862551 ], [ 331220.227792737015989, 6318580.007151697762311 ], [ 331223.318853042961564, 6318580.892602680251002 ], [ 331229.902675324992742, 6318583.009252173826098 ], [ 331233.129905688518193, 6318583.84832239151001 ], [ 331237.426071003021207, 6318584.986759370192885 ], [ 331239.56394090683898, 6318585.530679259449244 ], [ 331244.540956509241369, 6318586.60165330581367 ], [ 331248.387760634475853, 6318587.533485054969788 ], [ 331251.621799501532223, 6318588.144867876544595 ], [ 331254.460945201048162, 6318588.941773761995137 ], [ 331259.369875774660613, 6318590.236218770965934 ], [ 331275.342623524309602, 6318593.900299267843366 ], [ 331288.394523538590875, 6318596.590383683331311 ], [ 331300.111956989334431, 6318599.499722628854215 ], [ 331304.40131380216917, 6318600.047858951613307 ], [ 331308.915351209172513, 6318600.739354005083442 ], [ 331311.713645891228225, 6318601.612155688926578 ], [ 331313.463431131036486, 6318602.447009473107755 ], [ 331316.077896235452499, 6318603.534849252551794 ], [ 331317.092363163770642, 6318604.125149907544255 ], [ 331322.580016482563224, 6318605.191907521337271 ], [ 331327.107670895697083, 6318606.469486797228456 ], [ 331332.309367093199398, 6318608.118112199008465 ], [ 331337.184255153813865, 6318609.324012110009789 ], [ 331344.28552365390351, 6318610.782898015342653 ], [ 331352.48976961983135, 6318612.604397181421518 ], [ 331360.871036661730614, 6318614.387948446907103 ], [ 331372.002938864694443, 6318616.647956671193242 ], [ 331375.536551858240273, 6318617.524974787607789 ], [ 331379.948461722524371, 6318618.545351635664701 ], [ 331392.019937322416808, 6318621.425175547599792 ], [ 331399.863332636596169, 6318623.79481103643775 ], [ 331403.90758334560087, 6318625.034442412666976 ], [ 331408.135663632245269, 6318626.088550725951791 ], [ 331417.150121441052761, 6318628.023893589153886 ], [ 331421.630116333195474, 6318628.64370927773416 ], [ 331425.858196619839873, 6318629.225577066652477 ], [ 331438.154352815763559, 6318633.016150562092662 ], [ 331443.00200686318567, 6318634.43708856869489 ], [ 331456.13560891331872, 6318637.101874384097755 ], [ 331459.417307299503591, 6318637.759637972339988 ], [ 331466.450490770803299, 6318639.543189238756895 ], [ 331470.569635011197533, 6318640.563566085882485 ], [ 331478.154307216347661, 6318642.165810721926391 ], [ 331481.980685832852032, 6318643.40544209908694 ], [ 331486.467489228525665, 6318644.463766844943166 ], [ 331490.620675983780529, 6318645.555823057889938 ], [ 331495.332159974554088, 6318646.871350233443081 ], [ 331499.192581104987767, 6318647.925458546727896 ], [ 331503.461512409092393, 6318648.945835393853486 ], [ 331506.927040372916963, 6318649.970428674481809 ], [ 331511.372992752061691, 6318650.805282458662987 ], [ 331514.981499276997056, 6318651.753979940898716 ], [ 331519.863195839279797, 6318652.917715518735349 ], [ 331524.172978159913328, 6318654.051936063915491 ], [ 331532.445309155562427, 6318656.855864177457988 ], [ 331544.639337807835545, 6318660.469347476027906 ], [ 331553.129540895053651, 6318662.290846641175449 ], [ 331557.650386804656591, 6318662.83476653136313 ], [ 331561.401871889771428, 6318663.125700426287949 ], [ 331568.625693442241754, 6318664.546638431958854 ], [ 331572.268242481106427, 6318665.495335914194584 ], [ 331576.714194860251155, 6318666.515712761320174 ], [ 331585.395036027708557, 6318668.375159827060997 ], [ 331589.371201707923319, 6318669.028706980869174 ], [ 331596.88098038075259, 6318670.778526781126857 ], [ 331601.075018152536359, 6318672.347039951942861 ], [ 331604.097993430623319, 6318673.257789534516633 ], [ 331611.866495212481823, 6318675.260595330037177 ], [ 331615.543086766207125, 6318676.390599441714585 ], [ 331619.260529336461332, 6318677.30556545779109 ], [ 331622.909886878856923, 6318677.849485347047448 ], [ 331626.62732944911113, 6318679.380050618201494 ], [ 331630.235835974046495, 6318680.257068735547364 ], [ 331637.057955856376793, 6318682.112299366854131 ], [ 331647.420002017810475, 6318685.01982703153044 ], [ 331685.840878968068864, 6318634.141938240267336 ], [ 331690.579596970172133, 6318627.876318425871432 ], [ 331694.991506834456231, 6318622.732269856147468 ], [ 331698.028099117742386, 6318619.763900845311582 ], [ 331705.61957982549211, 6318610.593158518895507 ], [ 331711.243403201864567, 6318604.664853364229202 ], [ 331732.95571887580445, 6318579.26927587762475 ], [ 331735.713162540399935, 6318576.296690434217453 ], [ 331747.07655384199461, 6318563.069739317521453 ], [ 331748.94208362972131, 6318560.329057702794671 ], [ 331766.582914583326783, 6318539.892005722038448 ], [ 331789.439058740565088, 6318513.159818894229829 ], [ 331830.058586903789546, 6318466.833866736851633 ], [ 331844.158996361249592, 6318449.98499945551157 ], [ 331860.472169253916945, 6318429.573246074840426 ], [ 331871.570028942951467, 6318416.426407190039754 ], [ 331873.878238622972276, 6318413.820898990146816 ], [ 331877.187340720614884, 6318410.188728779554367 ], [ 331892.861814902280457, 6318392.478773158043623 ], [ 331937.191102977725677, 6318341.392901499755681 ], [ 331956.570493726641871, 6318318.799895761534572 ], [ 331993.334812678978778, 6318276.957436678931117 ], [ 332020.847434071416501, 6318242.959676684811711 ], [ 332036.218563028727658, 6318227.422338696196675 ], [ 332050.900450936984271, 6318210.308334385044873 ], [ 332058.855716410151217, 6318200.158025996759534 ], [ 332075.161281838663854, 6318180.606051330454648 ], [ 332085.952651118452195, 6318165.393734015524387 ], [ 332095.002727772574872, 6318153.985075966455042 ], [ 332104.659110702748876, 6318140.879830123856664 ], [ 332106.886305957857985, 6318137.805517844855785 ], [ 332118.20866050478071, 6318125.055635402910411 ], [ 332130.319752322509885, 6318111.458516346290708 ], [ 332145.895486061053816, 6318098.079334149137139 ], [ 332148.44293949106941, 6318096.250679857097566 ], [ 332155.050543013960123, 6318090.756316259503365 ], [ 332162.622342846356332, 6318082.26094764098525 ], [ 332180.736758687300608, 6318059.406236112117767 ], [ 332193.970937789883465, 6318042.029463833197951 ], [ 332198.632313661044464, 6318036.299293516203761 ], [ 332214.146290755888913, 6318017.19306246843189 ], [ 332271.823130067554303, 6317947.735267344862223 ], [ 332280.885373379802331, 6317937.401565799489617 ], [ 332287.288150159758516, 6317929.617576778866351 ], [ 332289.034781378693879, 6317928.129874365404248 ], [ 332292.044841124326922, 6317924.59918410051614 ], [ 332307.507034899841528, 6317906.933896349743009 ], [ 332321.678479087539017, 6317891.016440013423562 ], [ 332353.682519608526491, 6317854.5032904651016 ], [ 332379.430134575115517, 6317824.938897340558469 ], [ 332388.929482380044647, 6317813.74836434237659 ], [ 332397.553191798040643, 6317804.173807082697749 ], [ 332402.393242861318868, 6317798.844881089404225 ], [ 332410.57978281378746, 6317790.090912776999176 ], [ 332420.069936967920512, 6317778.262888800352812 ], [ 332429.068149588652886, 6317767.370759401470423 ], [ 332438.79964519769419, 6317755.554927987977862 ], [ 332447.01223924185615, 6317746.193447322584689 ], [ 332453.521084113104735, 6317738.646040149964392 ], [ 332467.093446624814533, 6317722.487393092364073 ], [ 332475.183242082362995, 6317712.90477030351758 ], [ 332481.146510376071092, 6317706.209522861987352 ], [ 332493.501282669487409, 6317692.382379126735032 ], [ 332496.220881525485311, 6317689.059800442308187 ], [ 332519.727292341354769, 6317662.011642663739622 ], [ 332538.621836557460483, 6317639.965118024498224 ], [ 332577.988172126468271, 6317592.0427863355726 ], [ 332582.587758867593948, 6317587.965085654519498 ], [ 332584.82756610319484, 6317585.80628938600421 ], [ 332596.36634503735695, 6317571.305894004181027 ], [ 332608.973536647623405, 6317556.455098552629352 ], [ 332617.652732834336348, 6317545.901050961576402 ], [ 332626.225795956968796, 6317537.678003907203674 ], [ 332635.864900248590857, 6317524.365524678491056 ], [ 332641.150632213801146, 6317517.915846386924386 ], [ 332647.518551088054664, 6317510.264718614518642 ], [ 332653.438027716591023, 6317503.828343207016587 ], [ 332660.168072475702502, 6317497.860355027019978 ], [ 332665.127608512877487, 6317492.703277160413563 ], [ 332670.335892903967761, 6317487.328723320737481 ], [ 332682.346569263725542, 6317473.638358376920223 ], [ 332694.192507096333429, 6317458.870166504755616 ], [ 332704.600661901233252, 6317446.899518847465515 ], [ 332715.411258211534005, 6317434.251136366277933 ], [ 332729.979393812071066, 6317417.157474605366588 ], [ 332731.655074736569077, 6317415.247000000439584 ], [ 332738.876989232550841, 6317407.134101734496653 ], [ 332760.247817772615235, 6317380.828652567230165 ], [ 332773.075850445427932, 6317367.841998243704438 ], [ 332786.579737080668565, 6317351.274605778977275 ], [ 332801.738999428169336, 6317333.266048146411777 ], [ 332859.331823817687109, 6317265.948552172631025 ], [ 332880.576000308385119, 6317241.652047253213823 ], [ 332903.740296150033828, 6317214.838374119251966 ], [ 332929.885676674311981, 6317183.957108598202467 ], [ 332948.581717927823775, 6317161.496684705838561 ], [ 332958.737310648255516, 6317150.756833050400019 ], [ 332975.141090945631731, 6317131.711677258834243 ], [ 332991.635377317434177, 6317112.711566512472928 ], [ 333017.410978427215014, 6317081.255014402791858 ], [ 333018.69828322774265, 6317077.885315349325538 ], [ 333064.913890883442946, 6317021.833491910248995 ], [ 333107.628821038408205, 6316972.96529571339488 ], [ 333143.523972889524885, 6316930.950243988074362 ], [ 333189.417252936633304, 6316877.413083085790277 ], [ 333234.72738386457786, 6316824.495577378198504 ], [ 333296.346495473815594, 6316756.877180881798267 ], [ 333362.740946464124136, 6316679.311193909496069 ], [ 333372.713655111030675, 6316667.663857980631292 ], [ 333408.526293709117454, 6316626.297462533228099 ], [ 333430.223862251674291, 6316600.563955873250961 ], [ 333464.880899324081838, 6316560.743268589489162 ], [ 333479.698550267145038, 6316544.064559222199023 ], [ 333490.13635792362038, 6316532.752069565467536 ], [ 333497.784165784076322, 6316524.116606587544084 ], [ 333508.071966901887208, 6316511.536901095882058 ], [ 333517.038204025477171, 6316500.029063805006444 ], [ 333535.637469742330723, 6316476.248938214965165 ], [ 333560.566292335162871, 6316476.353852774947882 ], [ 333572.804267595231067, 6316472.839148307219148 ], [ 333592.077069653430954, 6316454.620694862678647 ], [ 333624.130705139774363, 6316415.944807214662433 ], [ 333641.7569991821656, 6316381.604312473908067 ], [ 333645.36464984586928, 6316376.410966856405139 ], [ 333659.932283981586806, 6316353.506394394673407 ], [ 333681.35782969975844, 6316319.663035924546421 ], [ 333708.383592444472015, 6316275.871013318188488 ], [ 333727.075550241570454, 6316245.817236507311463 ], [ 333745.728450076305307, 6316216.026516797021031 ], [ 333752.367740347632207, 6316205.218747552484274 ], [ 333762.164528877066914, 6316189.787880753166974 ], [ 333773.158875844848808, 6316174.657100147567689 ], [ 333783.3474176148884, 6316159.974582325667143 ], [ 333793.474321038054768, 6316142.62554819881916 ], [ 333803.211208173248451, 6316128.333100281655788 ], [ 333809.78871926368447, 6316118.754787303507328 ], [ 333823.223625545215327, 6316099.60099121555686 ], [ 333840.427578253322281, 6316074.460192574188113 ], [ 333856.725498901039828, 6316052.118221517652273 ], [ 333865.628554872702807, 6316039.945493603125215 ], [ 333881.327696301217657, 6316015.533114459365606 ], [ 333905.32815696822945, 6315988.281356357038021 ], [ 334089.683241706574336, 6315814.199723660945892 ], [ 334100.447278141276911, 6315804.610934158787131 ], [ 334113.556482327752747, 6315792.459731288254261 ], [ 334134.359353991574608, 6315774.824459246359766 ], [ 334145.514157828991301, 6315765.732371401041746 ], [ 334191.414023676188663, 6315727.487517951056361 ], [ 334226.885460508347023, 6315699.222186217084527 ], [ 334236.916221254854463, 6315691.793246623128653 ], [ 334250.554585720296018, 6315681.031718591228127 ], [ 334255.895104852621444, 6315677.412561082281172 ], [ 334263.232274533831514, 6315671.682173168286681 ], [ 334275.188987161614932, 6315663.395964870229363 ], [ 334318.814243090571836, 6315631.676691621541977 ], [ 334345.520265712868422, 6315612.289582129567862 ], [ 334373.797150760190561, 6315592.209336148574948 ], [ 334387.404719524551183, 6315581.989215631037951 ], [ 334394.679171131458133, 6315577.049504261463881 ], [ 334416.61491148348432, 6315561.503726847469807 ], [ 334463.684967028559186, 6315527.174293770454824 ], [ 334470.673995064105839, 6315522.324295166879892 ], [ 334475.823261625773739, 6315518.845878325402737 ], [ 334478.00271470536245, 6315517.059630910865963 ], [ 334482.911765409342479, 6315513.506644094362855 ], [ 334485.341949951834977, 6315511.739964901469648 ], [ 334497.511556641489733, 6315503.596785245463252 ], [ 334523.706117123947479, 6315483.73266273830086 ], [ 334567.287479789927602, 6315454.489371532574296 ], [ 334575.718366307439283, 6315448.544937387108803 ], [ 334580.89917968492955, 6315445.743039098568261 ], [ 334586.301524942799006, 6315442.841041833162308 ], [ 334592.327577037736773, 6315439.258702686056495 ], [ 334594.46083656558767, 6315437.165806197561324 ], [ 334598.766883030417375, 6315433.216969324275851 ], [ 334605.729105661506765, 6315425.81551555544138 ], [ 334610.864758269861341, 6315421.31383128464222 ], [ 334614.688917734718416, 6315418.307971924543381 ], [ 334643.325442393077537, 6315394.521551142446697 ], [ 334670.738917485345155, 6315372.516693396493793 ], [ 334700.998177558009047, 6315347.939797937870026 ], [ 334726.677036807523109, 6315327.35097658727318 ], [ 334769.583836815610994, 6315289.232166880741715 ], [ 334833.61010317428736, 6315231.762292049825191 ], [ 334853.202801313833334, 6315224.499200575053692 ], [ 334865.443053003167734, 6315220.050009872764349 ], [ 334893.439805802481715, 6315209.283158661797643 ], [ 334906.692054605868179, 6315204.230928022414446 ], [ 334948.749726627022028, 6315188.564601114019752 ], [ 334953.350923756253906, 6315187.487592451274395 ], [ 334963.444423373963218, 6315190.571093866601586 ], [ 335009.473574222764, 6315208.90305525995791 ], [ 335009.774687804048881, 6315209.0370371369645 ], [ 335013.921232667285949, 6315203.225149584002793 ], [ 335017.688307469710708, 6315196.161668984219432 ], [ 335018.353231358691119, 6315194.640539235435426 ], [ 335052.070642013975885, 6315213.803617952391505 ], [ 335056.633670899784192, 6315216.990690927952528 ], [ 335084.983749282662757, 6315236.750709615647793 ], [ 335078.122774683928583, 6315246.336934119462967 ], [ 335009.473574222764, 6315208.90305525995791 ] ] ] ] } }
]
}
