{
"type": "FeatureCollection",
"name": "div-calles",
"crs": { "type": "name", "properties": { "name": "urn:ogc:def:crs:EPSG::32719" } },
"features": [
{ "type": "Feature", "properties": { "fid": 1, "Area": 472361.645 }, "geometry": { "type": "MultiPolygon", "coordinates": [ [ [ [ 333679.987641340063419, 6317079.681445996277034 ], [ 332086.723475784179755, 6319163.754093777388334 ], [ 331350.470790877356194, 6320124.330168345943093 ], [ 331300.647403744747862, 6320189.333875109441578 ], [ 330809.314136016415432, 6320830.367845232598484 ], [ 330729.945961222052574, 6320769.534525169990957 ], [ 331221.279228950385004, 6320128.500555046834052 ], [ 331271.102616082993336, 6320063.496848283335567 ], [ 332007.317433937743772, 6319102.970178199000657 ], [ 333600.543793976597954, 6317018.946982006542385 ], [ 333679.987641340063419, 6317079.681445996277034 ] ] ] ] } },
{ "type": "Feature", "properties": { "fid": 2, "Area": 917704.986 }, "geometry": { "type": "MultiPolygon", "coordinates": [ [ [ [ 334051.649081428127829, 6316427.377304263412952 ], [ 333619.848229844879825, 6316421.122475183568895 ], [ 332808.687130776408594, 6316407.39735293854028 ], [ 332808.687130776408594, 6316487.941886758431792 ], [ 333517.332765240396839, 6316499.646768439561129 ], [ 333990.832240025280043, 6316506.502520729787648 ], [ 333889.448386744013987, 6316637.461393186822534 ], [ 333723.843508828314953, 6316854.831330408342183 ], [ 333680.246116552909371, 6316914.185588106513023 ], [ 333666.063983978470787, 6316933.376225479878485 ], [ 333646.854447585355956, 6316958.280683595687151 ], [ 333609.253686685056891, 6317007.10108369961381 ], [ 333600.543793976597954, 6317018.946982006542385 ], [ 333680.038382695871405, 6317079.149737114086747 ], [ 333688.612375993980095, 6317067.93772894050926 ], [ 333726.047364714439027, 6317019.332523496821523 ], [ 333745.885398898040876, 6316993.613241088576615 ], [ 333760.765506757947151, 6316973.478134291246533 ], [ 333803.191833070770372, 6316915.666711541824043 ], [ 333968.769680887868162, 6316698.347664338536561 ], [ 334073.998532478697598, 6316562.42213361337781 ], [ 334116.206869310699403, 6316507.908943921327591 ], [ 334165.684142967802472, 6316508.685777120292187 ], [ 333711.53404465620406, 6317103.725379227660596 ], [ 333759.216043113381602, 6317140.146316185593605 ], [ 334240.107900011586025, 6316509.854290276765823 ], [ 335777.175449476926588, 6316533.987493513152003 ], [ 335778.429707831412088, 6316454.102540137246251 ], [ 334300.151420340582263, 6316430.892375844530761 ], [ 336398.03663622244494, 6313671.480765289627016 ], [ 336350.42601868789643, 6313634.967355451546609 ], [ 336257.048935837636236, 6313756.723734760656953 ], [ 335447.468553620215971, 6314822.935866239480674 ], [ 335117.521632372343447, 6315260.03845854010433 ], [ 335110.333007583103608, 6315270.060294803231955 ], [ 335036.456683336058632, 6315367.55559648014605 ], [ 334997.991482154000551, 6315417.917251567356288 ], [ 334976.92974049638724, 6315445.621139550581574 ], [ 334956.782355136412662, 6315471.874113006517291 ], [ 334888.788915174955036, 6315558.300975255668163 ], [ 334865.152735458570533, 6315590.101177591830492 ], [ 334797.556668067467399, 6315678.687267207540572 ], [ 334225.684533788531553, 6316429.723185519687831 ], [ 334176.07607617333997, 6316428.94429262727499 ], [ 334214.325544209452346, 6316378.542315136641264 ], [ 334316.623981084441766, 6316244.379461714997888 ], [ 334445.778663431119639, 6316074.277162319049239 ], [ 334602.72660700220149, 6315868.21759453881532 ], [ 334766.495516692695674, 6315653.468502386473119 ], [ 334833.938430758018512, 6315565.083123475313187 ], [ 334857.751018870272674, 6315533.045580640435219 ], [ 334925.934719770448282, 6315446.376876590773463 ], [ 334945.880428771604784, 6315420.386696742847562 ], [ 334966.914293945359532, 6315392.719476523809135 ], [ 335005.348379794566426, 6315342.398560068570077 ], [ 335416.314960464078467, 6314797.838660210371017 ], [ 336225.988446785660926, 6313731.503911227919161 ], [ 336319.060059720301069, 6313610.145840687677264 ], [ 336239.698143145476934, 6313549.31373143568635 ], [ 336146.480149549606722, 6313670.862670856527984 ], [ 335336.572231620491948, 6314737.506164751946926 ], [ 334916.463883470976725, 6315294.10165801923722 ], [ 334886.650010528450366, 6315333.136186132207513 ], [ 334865.618309330311604, 6315360.70205411221832 ], [ 334846.214167769416235, 6315386.030545976012945 ], [ 334777.556908136932179, 6315473.300904034636915 ], [ 334753.330519816256128, 6315505.950914633460343 ], [ 334686.246034765325021, 6315593.811345746740699 ], [ 334522.428109690838028, 6315808.579599558375776 ], [ 334365.394731101696379, 6316014.742363288067281 ], [ 334236.256269748380873, 6316184.815222453325987 ], [ 334133.965337783156428, 6316318.983511607162654 ], [ 334106.277024368580896, 6316355.468752746470273 ], [ 334099.780187527707312, 6316364.081295176409185 ], [ 334066.670617656724062, 6316407.417221861891448 ], [ 334051.649081428127829, 6316427.377304263412952 ] ] ] ] } },
{ "type": "Feature", "properties": { "fid": 4, "Area": 632787.427 }, "geometry": { "type": "MultiPolygon", "coordinates": [ [ [ [ 336232.833717454923317, 6320587.851489916443825 ], [ 334316.41134651406901, 6319979.80568006914109 ], [ 331592.766004624660127, 6320193.638798936270177 ], [ 331590.69125456555048, 6320193.783608735539019 ], [ 331588.614306421368383, 6320193.892439302057028 ], [ 331586.535784078238066, 6320193.965257944539189 ], [ 331584.456311894988175, 6320194.002042789012194 ], [ 331582.376514515839517, 6320194.002782787196338 ], [ 331580.297016682801768, 6320193.967477715574205 ], [ 331578.218443047779147, 6320193.896138180047274 ], [ 331576.141417985025328, 6320193.788785609416664 ], [ 331574.066565403714776, 6320193.645452251657844 ], [ 331571.994508560397662, 6320193.466181160882115 ], [ 331569.92586987192044, 6320193.251026188023388 ], [ 331567.861270728171803, 6320193.000051964074373 ], [ 331565.801331305818167, 6320192.713333875872195 ], [ 331563.74667038168991, 6320192.390958051197231 ], [ 331561.697905147040728, 6320192.033021326176822 ], [ 331559.655651022156235, 6320191.639631220139563 ], [ 331557.620521471486427, 6320191.210905903019011 ], [ 331555.593127819418442, 6320190.746974157169461 ], [ 331553.574079066456761, 6320190.247975340113044 ], [ 331551.563981706509367, 6320189.714059345424175 ], [ 331549.563439544581342, 6320189.145386554300785 ], [ 331547.573053515399806, 6320188.542127786204219 ], [ 331545.593421502970159, 6320187.904464254155755 ], [ 331543.625138160947245, 6320187.232587500475347 ], [ 331541.668794734054245, 6320186.526699349284172 ], [ 331539.724978880258277, 6320185.787011839449406 ], [ 331537.79427449463401, 6320185.013747162185609 ], [ 331535.877261533576529, 6320184.20713759586215 ], [ 331533.974515840876848, 6320183.367425434291363 ], [ 331454.55685334734153, 6320147.493693776428699 ], [ 329787.74071811180329, 6319394.576611096970737 ], [ 329774.421186522638891, 6319388.056757089681923 ], [ 329761.215621128852945, 6319381.30905669182539 ], [ 329748.12791915377602, 6319374.335501283407211 ], [ 329735.161943036946468, 6319367.138148897327483 ], [ 329722.321519294113386, 6319359.719123615883291 ], [ 329709.61043738812441, 6319352.080614938400686 ], [ 329697.0324486104073, 6319344.224877141416073 ], [ 329684.591264974151272, 6319336.154228608123958 ], [ 329672.290558118373156, 6319327.871051144786179 ], [ 329660.133958224905655, 6319319.377789283171296 ], [ 329648.125052946561482, 6319310.676949551329017 ], [ 329636.26738634868525, 6319301.771099738776684 ], [ 329624.564457862928975, 6319292.6628681384027 ], [ 329613.019721254822798, 6319283.35494276881218 ], [ 329601.636583604326006, 6319273.850070583634079 ], [ 329590.418404300347902, 6319264.151056658476591 ], [ 329579.368494049238507, 6319254.260763362981379 ], [ 329568.490113897947595, 6319244.182109517976642 ], [ 329557.786474271444604, 6319233.918069534935057 ], [ 329547.260734025272541, 6319223.471672534011304 ], [ 329536.915999513468705, 6319212.846001453697681 ], [ 329526.755323671619408, 6319202.044192139990628 ], [ 329516.781705115980003, 6319191.06943241879344 ], [ 329506.998087258427404, 6319179.924961159937084 ], [ 329497.407357438001782, 6319168.614067316055298 ], [ 329488.012346068629995, 6319157.140088956803083 ], [ 329478.815825803787448, 6319145.506412278860807 ], [ 329469.820510718447622, 6319133.71647061035037 ], [ 329461.02905550779542, 6319121.7737433956936 ], [ 329452.444054704043083, 6319109.68175517115742 ], [ 329444.068041910533793, 6319097.444074520841241 ], [ 329435.903489054297097, 6319085.064313025213778 ], [ 329427.952805656124838, 6319072.546124197542667 ], [ 329420.218338119913824, 6319059.893202401697636 ], [ 329412.702369039820042, 6319047.109281766228378 ], [ 329405.407116526854225, 6319034.198135077953339 ], [ 329398.3347335542785, 6319021.163572671823204 ], [ 329391.487307322036941, 6319008.009441304951906 ], [ 329384.866858640976716, 6318994.73962302133441 ], [ 329378.475341336277779, 6318981.35803400631994 ], [ 329372.314641671080608, 6318967.868623430840671 ], [ 329366.386577789555304, 6318954.275372287258506 ], [ 329360.692899180517998, 6318940.582292213104665 ], [ 329355.235286161128897, 6318926.793424306437373 ], [ 329350.015349380730186, 6318912.91283793374896 ], [ 329345.034629345929716, 6318898.944629531353712 ], [ 329340.294595965591725, 6318884.892921394668519 ], [ 329335.796648117247969, 6318870.761860458180308 ], [ 329331.542113234230783, 6318856.555617078207433 ], [ 329327.532246913877316, 6318842.278383798897266 ], [ 329323.768232546921354, 6318827.934374112635851 ], [ 329320.251180968480185, 6318813.527821221388876 ], [ 329316.982130129879806, 6318799.062976782210171 ], [ 329313.96204479271546, 6318784.544109657406807 ], [ 329311.191816244099755, 6318769.975504651665688 ], [ 329308.666814330674242, 6318756.799877201206982 ], [ 329305.920025607862044, 6318743.668695035390556 ], [ 329302.952230964787304, 6318730.585691238753498 ], [ 329299.764274120971095, 6318717.554585202597082 ], [ 329296.357061385991983, 6318704.579081561416388 ], [ 329292.731561402266379, 6318691.662869142368436 ], [ 329288.888804869260639, 6318678.809619919396937 ], [ 329284.82988425088115, 6318666.022987962700427 ], [ 329280.555953464470804, 6318653.306608406826854 ], [ 329276.068227553216275, 6318640.664096413180232 ], [ 329271.367982340278104, 6318628.099046141840518 ], [ 329266.456554066448007, 6318615.615029733628035 ], [ 329261.335339009936433, 6318603.215596290305257 ], [ 329256.005793089803774, 6318590.904270867817104 ], [ 329250.469431451696437, 6318578.684553474187851 ], [ 329244.72782803728478, 6318566.559918073005974 ], [ 329238.782615136820823, 6318554.53381159901619 ], [ 329232.635482924990356, 6318542.609652972780168 ], [ 329226.28817898046691, 6318530.790832133963704 ], [ 329219.742507789167576, 6318519.080709076486528 ], [ 329213.00033023103606, 6318507.482612890191376 ], [ 329206.063563051284291, 6318495.999840817414224 ], [ 329198.934178315219469, 6318484.635657316073775 ], [ 329191.614202847762499, 6318473.393293128348887 ], [ 329184.10571765730856, 6318462.275944365188479 ], [ 329176.410857343813404, 6318451.286771597340703 ], [ 329111.268314414075576, 6318497.724354444071651 ], [ 329118.188155110517982, 6318507.606672950088978 ], [ 329124.94042547675781, 6318517.604235613718629 ], [ 329131.523206642305013, 6318527.714201312512159 ], [ 329137.934627902461216, 6318537.933696982450783 ], [ 329144.172867249930277, 6318548.259818430058658 ], [ 329150.236151892342605, 6318558.689631163142622 ], [ 329156.122758756333496, 6318569.22017122246325 ], [ 329161.831014977127779, 6318579.848446023650467 ], [ 329167.359298373805359, 6318590.571435205638409 ], [ 329172.70603791042231, 6318601.386091494001448 ], [ 329177.869714142463636, 6318612.289341563358903 ], [ 329182.848859648627695, 6318623.278086912818253 ], [ 329187.642059447884094, 6318634.349204742349684 ], [ 329192.247951401339378, 6318645.499548845924437 ], [ 329196.665226599783637, 6318656.725950500927866 ], [ 329200.892629735171795, 6318668.02521937340498 ], [ 329204.928959457785822, 6318679.394144418649375 ], [ 329208.773068717331626, 6318690.82949479855597 ], [ 329212.423865089018364, 6318702.328020798042417 ], [ 329215.880311083979905, 6318713.886454748921096 ], [ 329219.141424444213044, 6318725.501511957496405 ], [ 329222.206278421566822, 6318737.169891640543938 ], [ 329225.074002041248605, 6318748.888277858495712 ], [ 329227.743780349206645, 6318760.653340463526547 ], [ 329230.214854643796571, 6318772.461736042052507 ], [ 329232.486522691324353, 6318784.310108866542578 ], [ 329235.517617144156247, 6318800.243727082386613 ], [ 329238.822237786662299, 6318816.122870807535946 ], [ 329242.399407506163698, 6318831.942844885401428 ], [ 329246.248068602581043, 6318847.698971655219793 ], [ 329250.367083101184107, 6318863.386592335067689 ], [ 329254.755233088857494, 6318879.001068397425115 ], [ 329259.411221074406058, 6318894.537782943807542 ], [ 329264.33367037208518, 6318909.992142068222165 ], [ 329269.521125508705154, 6318925.359576214104891 ], [ 329274.97205265390221, 6318940.635541528463364 ], [ 329280.68484007375082, 6318955.815521202981472 ], [ 329286.657798607309815, 6318970.895026811398566 ], [ 329292.889162166160531, 6318985.869599633850157 ], [ 329299.377088256238494, 6319000.734811979345977 ], [ 329306.119658523239195, 6319015.486268491484225 ], [ 329313.114879319211468, 6319030.119607448577881 ], [ 329320.360682292433921, 6319044.63050205539912 ], [ 329327.854924998944625, 6319059.014661720953882 ], [ 329335.595391535782255, 6319073.267833326943219 ], [ 329343.57979319646256, 6319087.385802485048771 ], [ 329351.805769147642422, 6319101.364394784905016 ], [ 329360.270887126971502, 6319115.199477025307715 ], [ 329368.972644162538927, 6319128.886958441697061 ], [ 329377.908467312750872, 6319142.422791909426451 ], [ 329387.075714427337516, 6319155.802975143305957 ], [ 329396.471674928267021, 6319169.023551881313324 ], [ 329406.093570611439645, 6319182.080613054335117 ], [ 329415.938556468056049, 6319194.970297942869365 ], [ 329426.003721525892615, 6319207.68879531417042 ], [ 329436.286089709959924, 6319220.23234455473721 ], [ 329446.78262072254438, 6319232.597236779518425 ], [ 329457.490210942109115, 6319244.779815928079188 ], [ 329468.405694340937771, 6319256.776479847729206 ], [ 329479.5258434212883, 6319268.583681356161833 ], [ 329490.847370169882197, 6319280.197929291054606 ], [ 329502.366927029797807, 6319291.615789545699954 ], [ 329514.081107890466228, 6319302.833886076696217 ], [ 329525.986449094838463, 6319313.848901911638677 ], [ 329538.079430463316385, 6319324.657580121420324 ], [ 329550.35647633485496, 6319335.256724789738655 ], [ 329562.813956624013372, 6319345.643201952800155 ], [ 329575.448187894362491, 6319355.81394053157419 ], [ 329588.255434447724838, 6319365.765933234244585 ], [ 329601.231909428490326, 6319375.49623744841665 ], [ 329614.373775943589862, 6319385.001976110972464 ], [ 329627.677148196846247, 6319394.280338559299707 ], [ 329641.138092637935188, 6319403.328581360168755 ], [ 329654.752629125490785, 6319412.144029122777283 ], [ 329668.516732103889808, 6319420.724075289443135 ], [ 329682.42633179371478, 6319429.066182906739414 ], [ 329696.477315394789912, 6319437.16788537427783 ], [ 329710.665528302663006, 6319445.026787173934281 ], [ 329724.986775336670689, 6319452.640564582310617 ], [ 329739.436821980576497, 6319460.006966350600123 ], [ 329754.011395634617656, 6319467.123814377002418 ], [ 331421.624051598133519, 6320220.400693227536976 ], [ 331501.041714092425536, 6320256.27442488539964 ], [ 331504.21295691357227, 6320257.673945154994726 ], [ 331507.407978515315335, 6320259.018294432200491 ], [ 331510.62581915804185, 6320260.30706889461726 ], [ 331513.865512247662991, 6320261.539881411008537 ], [ 331517.126084625895601, 6320262.716361662372947 ], [ 331520.406556862522848, 6320263.836156250908971 ], [ 331523.705943549866788, 6320264.898928806185722 ], [ 331527.023253598483279, 6320265.904360084794462 ], [ 331530.357490535068791, 6320266.852148070931435 ], [ 331533.707652801647782, 6320267.742008062079549 ], [ 331537.072734056564514, 6320268.573672755621374 ], [ 331540.451723476697225, 6320269.346892333589494 ], [ 331543.843606061069295, 6320270.061434528790414 ], [ 331547.247362935857382, 6320270.717084704898298 ], [ 331550.661971660272684, 6320271.313645913265646 ], [ 331554.086406533839181, 6320271.850938954390585 ], [ 331557.519638904428575, 6320272.328802433796227 ], [ 331560.960637477284763, 6320272.74709280859679 ], [ 331564.408368624746799, 6320273.10568442940712 ], [ 331567.861796696903184, 6320273.404469580389559 ], [ 331571.319884332362562, 6320273.643358510918915 ], [ 331574.781592770304997, 6320273.822279461659491 ], [ 331578.245882162009366, 6320273.941178687848151 ], [ 331581.711711883777753, 6320274.000020473264158 ], [ 331585.178040848928504, 6320273.998787143267691 ], [ 331588.643827820953447, 6320273.937479068525136 ], [ 331592.108031726209447, 6320273.816114664077759 ], [ 331595.56961196649354, 6320273.634730386547744 ], [ 331599.027528731676284, 6320273.393380722030997 ], [ 334307.103429698559921, 6320060.782617079094052 ], [ 336208.639758215460461, 6320664.105357597582042 ], [ 336232.833717454923317, 6320587.851489916443825 ] ] ] ] } },
{ "type": "Feature", "properties": { "fid": 5, "Area": 19562.897 }, "geometry": { "type": "MultiPolygon", "coordinates": [ [ [ [ 329721.276434106810484, 6319450.698241104371846 ], [ 329420.498808021075092, 6319316.416169498115778 ], [ 329407.227695887733717, 6319375.910813802853227 ], [ 329406.116023775830399, 6319373.662786378525198 ], [ 329404.147947461926378, 6319370.404367282986641 ], [ 329402.730473184201401, 6319366.64456450752914 ], [ 329400.110549997654743, 6319362.601924413815141 ], [ 329390.568445346492808, 6319345.690710545517504 ], [ 329388.173652454570401, 6319343.160537082701921 ], [ 329385.072893129196018, 6319338.384897887706757 ], [ 329384.004164518672042, 6319336.38548072706908 ], [ 329382.661392185022123, 6319334.057401146739721 ], [ 329380.545942281431053, 6319332.784365163184702 ], [ 329374.412336182314903, 6319326.440843904390931 ], [ 329372.451654625125229, 6319324.854394722729921 ], [ 329352.272611544700339, 6319306.502123467624187 ], [ 329345.915116041200235, 6319300.529631971381605 ], [ 329367.300274217443075, 6319204.659567600116134 ], [ 329458.421899667009711, 6319245.82009331882 ], [ 329469.174219492764678, 6319257.605677329935133 ], [ 329480.124329121899791, 6319269.2077233241871 ], [ 329491.26909611443989, 6319280.622912363149226 ], [ 329502.605332345643546, 6319291.84797896631062 ], [ 329514.129794918291736, 6319302.879712036810815 ], [ 329525.839187090285122, 6319313.714955785311759 ], [ 329537.730159217549954, 6319324.350610631518066 ], [ 329549.799309712601826, 6319334.783634088002145 ], [ 329562.043186017195694, 6319345.011041636578739 ], [ 329574.458285590284504, 6319355.029907576739788 ], [ 329587.041056909947656, 6319364.83736586291343 ], [ 329599.787900489231106, 6319374.430610928684473 ], [ 329612.695169905840885, 6319383.806898484937847 ], [ 329625.759172845457215, 6319392.963546306826174 ], [ 329638.976172157679684, 6319401.897934999316931 ], [ 329652.342386925360188, 6319410.607508749701083 ], [ 329665.853993545926642, 6319419.089776055887341 ], [ 329679.507126825512387, 6319427.342310440726578 ], [ 329693.297881084377877, 6319435.362751145847142 ], [ 329707.222311274206731, 6319443.14880380500108 ], [ 329721.276434106810484, 6319450.698241104371846 ] ] ] ] } }
]
}
