{"type": "FeatureCollection", "features": [{"type": "Feature", "geometry": {"type": "Point", "coordinates": [-70.85025666299998, -33.27309862813407]}, "properties": {"estacion": "13-098", "rama": "Estación Colina", "rol": "G-12", "tmda": 11010, "levantamiento": "2024 sur / 2025 norte", "anio": 2025}}, {"type": "Feature", "geometry": {"type": "Point", "coordinates": [-70.85025666299998, -33.27309862813407]}, "properties": {"estacion": "13-098", "rama": "Lampa", "rol": "G-12", "tmda": 13422, "levantamiento": "2024 sur / 2025 norte", "anio": 2025}}, {"type": "Feature", "geometry": {"type": "Point", "coordinates": [-70.85025666299998, -33.27309862813407]}, "properties": {"estacion": "13-098", "rama": "Batuco", "rol": "G-14", "tmda": 6192, "levantamiento": "2024 sur / 2025 norte", "anio": 2025}}, {"type": "Feature", "geometry": {"type": "Point", "coordinates": [-70.83488512599996, -33.3164543281335]}, "properties": {"estacion": "13-141", "rama": "Lampa", "rol": "G-16", "tmda": 18908, "levantamiento": "2024 sur / 2025 norte", "anio": 2025}}, {"type": "Feature", "geometry": {"type": "Point", "coordinates": [-70.83488512599996, -33.3164543281335]}, "properties": {"estacion": "13-141", "rama": "Quilicura", "rol": "G-16", "tmda": 16110, "levantamiento": "2024 sur / 2025 norte", "anio": 2025}}, {"type": "Feature", "geometry": {"type": "Point", "coordinates": [-70.83488512599996, -33.3164543281335]}, "properties": {"estacion": "13-141", "rama": "El Noviciado", "rol": "G-18", "tmda": 7545, "levantamiento": "2024 sur / 2025 norte", "anio": 2025}}, {"type": "Feature", "geometry": {"type": "Point", "coordinates": [-70.77479198299994, -33.225500527134685]}, "properties": {"estacion": "13-143", "rama": "Ruta 5", "rol": "G-14", "tmda": 16430, "levantamiento": "2024 sur / 2025 norte", "anio": 2025}}, {"type": "Feature", "geometry": {"type": "Point", "coordinates": [-70.77479198299994, -33.225500527134685]}, "properties": {"estacion": "13-143", "rama": "Batuco", "rol": "G-14", "tmda": 13626, "levantamiento": "2024 sur / 2025 norte", "anio": 2025}}, {"type": "Feature", "geometry": {"type": "Point", "coordinates": [-70.77479198299994, -33.225500527134685]}, "properties": {"estacion": "13-143", "rama": "Santa Sara", "rol": "G-144", "tmda": 6526, "levantamiento": "2024 sur / 2025 norte", "anio": 2025}}]}