{"type": "FeatureCollection", "features": [{"type": "Feature", "properties": {"origen": "Centro de Batuco (Av. España)", "modo": "caminando", "minutos": 31.2, "km_linea_recta": 0.9}, "geometry": {"type": "Point", "coordinates": [-70.808, -33.218892]}}, {"type": "Feature", "properties": {"origen": "Centro de Batuco (Av. España)", "modo": "caminando", "minutos": 52.8, "km_linea_recta": 0.99}, "geometry": {"type": "Point", "coordinates": [-70.801146, -33.221267]}}, {"type": "Feature", "properties": {"origen": "Centro de Batuco (Av. España)", "modo": "caminando", "minutos": 40.9, "km_linea_recta": 1.08}, "geometry": {"type": "Point", "coordinates": [-70.798307, -33.227]}}, {"type": "Feature", "properties": {"origen": "Centro de Batuco (Av. España)", "modo": "caminando", "minutos": 15.4, "km_linea_recta": 0.99}, "geometry": {"type": "Point", "coordinates": [-70.801146, -33.232733]}}, {"type": "Feature", "properties": {"origen": "Centro de Batuco (Av. España)", "modo": "caminando", "minutos": 14.1, "km_linea_recta": 0.9}, "geometry": {"type": "Point", "coordinates": [-70.808, -33.235108]}}, {"type": "Feature", "properties": {"origen": "Centro de Batuco (Av. España)", "modo": "caminando", "minutos": 16.1, "km_linea_recta": 0.99}, "geometry": {"type": "Point", "coordinates": [-70.814854, -33.232733]}}, {"type": "Feature", "properties": {"origen": "Centro de Batuco (Av. España)", "modo": "caminando", "minutos": 11.3, "km_linea_recta": 1.08}, "geometry": {"type": "Point", "coordinates": [-70.817693, -33.227]}}, {"type": "Feature", "properties": {"origen": "Centro de Batuco (Av. España)", "modo": "caminando", "minutos": 21.9, "km_linea_recta": 0.99}, "geometry": {"type": "Point", "coordinates": [-70.814854, -33.221267]}}, {"type": "Feature", "properties": {"origen": "Centro de Batuco (Av. España)", "modo": "caminando", "minutos": 163.4, "km_linea_recta": 1.8}, "geometry": {"type": "Point", "coordinates": [-70.808, -33.210784]}}, {"type": "Feature", "properties": {"origen": "Centro de Batuco (Av. España)", "modo": "caminando", "minutos": 61.4, "km_linea_recta": 1.89}, "geometry": {"type": "Point", "coordinates": [-70.798307, -33.212956]}}, {"type": "Feature", "properties": {"origen": "Centro de Batuco (Av. España)", "modo": "caminando", "minutos": 62.5, "km_linea_recta": 2.07}, "geometry": {"type": "Point", "coordinates": [-70.791212, -33.218892]}}, {"type": "Feature", "properties": {"origen": "Centro de Batuco (Av. España)", "modo": "caminando", "minutos": 63.2, "km_linea_recta": 2.15}, "geometry": {"type": "Point", "coordinates": [-70.788614, -33.227]}}, {"type": "Feature", "properties": {"origen": "Centro de Batuco (Av. España)", "modo": "caminando", "minutos": 36.7, "km_linea_recta": 2.07}, "geometry": {"type": "Point", "coordinates": [-70.791212, -33.235108]}}, {"type": "Feature", "properties": {"origen": "Centro de Batuco (Av. España)", "modo": "caminando", "minutos": 37.3, "km_linea_recta": 1.89}, "geometry": {"type": "Point", "coordinates": [-70.798307, -33.241044]}}, {"type": "Feature", "properties": {"origen": "Centro de Batuco (Av. España)", "modo": "caminando", "minutos": 26.8, "km_linea_recta": 1.8}, "geometry": {"type": "Point", "coordinates": [-70.808, -33.243216]}}, {"type": "Feature", "properties": {"origen": "Centro de Batuco (Av. España)", "modo": "caminando", "minutos": 31.6, "km_linea_recta": 1.89}, "geometry": {"type": "Point", "coordinates": [-70.817693, -33.241044]}}, {"type": "Feature", "properties": {"origen": "Centro de Batuco (Av. España)", "modo": "caminando", "minutos": 54.6, "km_linea_recta": 2.07}, "geometry": {"type": "Point", "coordinates": [-70.824788, -33.235108]}}, {"type": "Feature", "properties": {"origen": "Centro de Batuco (Av. España)", "modo": "caminando", "minutos": 63.5, "km_linea_recta": 2.15}, "geometry": {"type": "Point", "coordinates": [-70.827386, -33.227]}}, {"type": "Feature", "properties": {"origen": "Centro de Batuco (Av. España)", "modo": "caminando", "minutos": 27.5, "km_linea_recta": 2.07}, "geometry": {"type": "Point", "coordinates": [-70.824788, -33.218892]}}, {"type": "Feature", "properties": {"origen": "Centro de Batuco (Av. España)", "modo": "caminando", "minutos": 32.2, "km_linea_recta": 1.89}, "geometry": {"type": "Point", "coordinates": [-70.817693, -33.212956]}}, {"type": "Feature", "properties": {"origen": "Centro de Batuco (Av. España)", "modo": "caminando", "minutos": 141.3, "km_linea_recta": 3.0}, "geometry": {"type": "Point", "coordinates": [-70.808, -33.199973]}}, {"type": "Feature", "properties": {"origen": "Centro de Batuco (Av. España)", "modo": "caminando", "minutos": 91.3, "km_linea_recta": 3.16}, "geometry": {"type": "Point", "coordinates": [-70.791845, -33.203594]}}, {"type": "Feature", "properties": {"origen": "Centro de Batuco (Av. España)", "modo": "caminando", "minutos": 78.3, "km_linea_recta": 3.45}, "geometry": {"type": "Point", "coordinates": [-70.780019, -33.213486]}}, {"type": "Feature", "properties": {"origen": "Centro de Batuco (Av. España)", "modo": "caminando", "minutos": 56.8, "km_linea_recta": 3.59}, "geometry": {"type": "Point", "coordinates": [-70.775691, -33.227]}}, {"type": "Feature", "properties": {"origen": "Centro de Batuco (Av. España)", "modo": "caminando", "minutos": 107.3, "km_linea_recta": 3.45}, "geometry": {"type": "Point", "coordinates": [-70.780019, -33.240514]}}, {"type": "Feature", "properties": {"origen": "Centro de Batuco (Av. España)", "modo": "caminando", "minutos": 138.0, "km_linea_recta": 3.16}, "geometry": {"type": "Point", "coordinates": [-70.791845, -33.250406]}}, {"type": "Feature", "properties": {"origen": "Centro de Batuco (Av. España)", "modo": "caminando", "minutos": 157.3, "km_linea_recta": 3.0}, "geometry": {"type": "Point", "coordinates": [-70.808, -33.254027]}}, {"type": "Feature", "properties": {"origen": "Centro de Batuco (Av. España)", "modo": "caminando", "minutos": 47.0, "km_linea_recta": 3.16}, "geometry": {"type": "Point", "coordinates": [-70.824155, -33.250406]}}, {"type": "Feature", "properties": {"origen": "Centro de Batuco (Av. España)", "modo": "caminando", "minutos": 57.9, "km_linea_recta": 3.45}, "geometry": {"type": "Point", "coordinates": [-70.835981, -33.240514]}}, {"type": "Feature", "properties": {"origen": "Centro de Batuco (Av. España)", "modo": "caminando", "minutos": 90.9, "km_linea_recta": 3.59}, "geometry": {"type": "Point", "coordinates": [-70.840309, -33.227]}}, {"type": "Feature", "properties": {"origen": "Centro de Batuco (Av. España)", "modo": "caminando", "minutos": 85.8, "km_linea_recta": 3.45}, "geometry": {"type": "Point", "coordinates": [-70.835981, -33.213486]}}, {"type": "Feature", "properties": {"origen": "Centro de Batuco (Av. España)", "modo": "caminando", "minutos": 66.3, "km_linea_recta": 3.16}, "geometry": {"type": "Point", "coordinates": [-70.824155, -33.203594]}}, {"type": "Feature", "properties": {"origen": "Centro de Batuco (Av. España)", "modo": "caminando", "minutos": 151.8, "km_linea_recta": 5.0}, "geometry": {"type": "Point", "coordinates": [-70.808, -33.181955]}}, {"type": "Feature", "properties": {"origen": "Centro de Batuco (Av. España)", "modo": "caminando", "minutos": 116.0, "km_linea_recta": 5.26}, "geometry": {"type": "Point", "coordinates": [-70.781075, -33.18799]}}, {"type": "Feature", "properties": {"origen": "Centro de Batuco (Av. España)", "modo": "caminando", "minutos": 157.8, "km_linea_recta": 5.75}, "geometry": {"type": "Point", "coordinates": [-70.761365, -33.204477]}}, {"type": "Feature", "properties": {"origen": "Centro de Batuco (Av. España)", "modo": "caminando", "minutos": 124.6, "km_linea_recta": 5.98}, "geometry": {"type": "Point", "coordinates": [-70.754151, -33.227]}}, {"type": "Feature", "properties": {"origen": "Centro de Batuco (Av. España)", "modo": "caminando", "minutos": 155.2, "km_linea_recta": 5.75}, "geometry": {"type": "Point", "coordinates": [-70.761365, -33.249523]}}, {"type": "Feature", "properties": {"origen": "Centro de Batuco (Av. España)", "modo": "caminando", "minutos": 144.6, "km_linea_recta": 5.26}, "geometry": {"type": "Point", "coordinates": [-70.781075, -33.26601]}}, {"type": "Feature", "properties": {"origen": "Centro de Batuco (Av. España)", "modo": "caminando", "minutos": 177.1, "km_linea_recta": 5.0}, "geometry": {"type": "Point", "coordinates": [-70.808, -33.272045]}}, {"type": "Feature", "properties": {"origen": "Centro de Batuco (Av. España)", "modo": "caminando", "minutos": 145.1, "km_linea_recta": 5.26}, "geometry": {"type": "Point", "coordinates": [-70.834925, -33.26601]}}, {"type": "Feature", "properties": {"origen": "Centro de Batuco (Av. España)", "modo": "caminando", "minutos": 85.7, "km_linea_recta": 5.75}, "geometry": {"type": "Point", "coordinates": [-70.854635, -33.249523]}}, {"type": "Feature", "properties": {"origen": "Centro de Batuco (Av. España)", "modo": "caminando", "minutos": 93.9, "km_linea_recta": 5.98}, "geometry": {"type": "Point", "coordinates": [-70.861849, -33.227]}}, {"type": "Feature", "properties": {"origen": "Centro de Batuco (Av. España)", "modo": "caminando", "minutos": 107.8, "km_linea_recta": 5.75}, "geometry": {"type": "Point", "coordinates": [-70.854635, -33.204477]}}, {"type": "Feature", "properties": {"origen": "Centro de Batuco (Av. España)", "modo": "caminando", "minutos": 86.6, "km_linea_recta": 5.26}, "geometry": {"type": "Point", "coordinates": [-70.834925, -33.18799]}}, {"type": "Feature", "properties": {"origen": "Centro de Batuco (Av. España)", "modo": "en auto", "minutos": 7.0, "km_linea_recta": 0.9}, "geometry": {"type": "Point", "coordinates": [-70.808, -33.218892]}}, {"type": "Feature", "properties": {"origen": "Centro de Batuco (Av. España)", "modo": "en auto", "minutos": 9.7, "km_linea_recta": 0.99}, "geometry": {"type": "Point", "coordinates": [-70.801146, -33.221267]}}, {"type": "Feature", "properties": {"origen": "Centro de Batuco (Av. España)", "modo": "en auto", "minutos": 7.6, "km_linea_recta": 1.08}, "geometry": {"type": "Point", "coordinates": [-70.798307, -33.227]}}, {"type": "Feature", "properties": {"origen": "Centro de Batuco (Av. España)", "modo": "en auto", "minutos": 4.4, "km_linea_recta": 0.99}, "geometry": {"type": "Point", "coordinates": [-70.801146, -33.232733]}}, {"type": "Feature", "properties": {"origen": "Centro de Batuco (Av. España)", "modo": "en auto", "minutos": 3.7, "km_linea_recta": 0.9}, "geometry": {"type": "Point", "coordinates": [-70.808, -33.235108]}}, {"type": "Feature", "properties": {"origen": "Centro de Batuco (Av. España)", "modo": "en auto", "minutos": 3.6, "km_linea_recta": 0.99}, "geometry": {"type": "Point", "coordinates": [-70.814854, -33.232733]}}, {"type": "Feature", "properties": {"origen": "Centro de Batuco (Av. España)", "modo": "en auto", "minutos": 2.6, "km_linea_recta": 1.08}, "geometry": {"type": "Point", "coordinates": [-70.817693, -33.227]}}, {"type": "Feature", "properties": {"origen": "Centro de Batuco (Av. España)", "modo": "en auto", "minutos": 4.4, "km_linea_recta": 0.99}, "geometry": {"type": "Point", "coordinates": [-70.814854, -33.221267]}}, {"type": "Feature", "properties": {"origen": "Centro de Batuco (Av. España)", "modo": "en auto", "minutos": 22.7, "km_linea_recta": 1.8}, "geometry": {"type": "Point", "coordinates": [-70.808, -33.210784]}}, {"type": "Feature", "properties": {"origen": "Centro de Batuco (Av. España)", "modo": "en auto", "minutos": 10.4, "km_linea_recta": 1.89}, "geometry": {"type": "Point", "coordinates": [-70.798307, -33.212956]}}, {"type": "Feature", "properties": {"origen": "Centro de Batuco (Av. España)", "modo": "en auto", "minutos": 11.1, "km_linea_recta": 2.07}, "geometry": {"type": "Point", "coordinates": [-70.791212, -33.218892]}}, {"type": "Feature", "properties": {"origen": "Centro de Batuco (Av. España)", "modo": "en auto", "minutos": 11.3, "km_linea_recta": 2.15}, "geometry": {"type": "Point", "coordinates": [-70.788614, -33.227]}}, {"type": "Feature", "properties": {"origen": "Centro de Batuco (Av. España)", "modo": "en auto", "minutos": 6.5, "km_linea_recta": 2.07}, "geometry": {"type": "Point", "coordinates": [-70.791212, -33.235108]}}, {"type": "Feature", "properties": {"origen": "Centro de Batuco (Av. España)", "modo": "en auto", "minutos": 8.9, "km_linea_recta": 1.89}, "geometry": {"type": "Point", "coordinates": [-70.798307, -33.241044]}}, {"type": "Feature", "properties": {"origen": "Centro de Batuco (Av. España)", "modo": "en auto", "minutos": 6.5, "km_linea_recta": 1.8}, "geometry": {"type": "Point", "coordinates": [-70.808, -33.243216]}}, {"type": "Feature", "properties": {"origen": "Centro de Batuco (Av. España)", "modo": "en auto", "minutos": 7.1, "km_linea_recta": 1.89}, "geometry": {"type": "Point", "coordinates": [-70.817693, -33.241044]}}, {"type": "Feature", "properties": {"origen": "Centro de Batuco (Av. España)", "modo": "en auto", "minutos": 11.7, "km_linea_recta": 2.07}, "geometry": {"type": "Point", "coordinates": [-70.824788, -33.235108]}}, {"type": "Feature", "properties": {"origen": "Centro de Batuco (Av. España)", "modo": "en auto", "minutos": 13.3, "km_linea_recta": 2.15}, "geometry": {"type": "Point", "coordinates": [-70.827386, -33.227]}}, {"type": "Feature", "properties": {"origen": "Centro de Batuco (Av. España)", "modo": "en auto", "minutos": 6.5, "km_linea_recta": 2.07}, "geometry": {"type": "Point", "coordinates": [-70.824788, -33.218892]}}, {"type": "Feature", "properties": {"origen": "Centro de Batuco (Av. España)", "modo": "en auto", "minutos": 5.8, "km_linea_recta": 1.89}, "geometry": {"type": "Point", "coordinates": [-70.817693, -33.212956]}}, {"type": "Feature", "properties": {"origen": "Centro de Batuco (Av. España)", "modo": "en auto", "minutos": 20.1, "km_linea_recta": 3.0}, "geometry": {"type": "Point", "coordinates": [-70.808, -33.199973]}}, {"type": "Feature", "properties": {"origen": "Centro de Batuco (Av. España)", "modo": "en auto", "minutos": 14.9, "km_linea_recta": 3.16}, "geometry": {"type": "Point", "coordinates": [-70.791845, -33.203594]}}, {"type": "Feature", "properties": {"origen": "Centro de Batuco (Av. España)", "modo": "en auto", "minutos": 10.5, "km_linea_recta": 3.45}, "geometry": {"type": "Point", "coordinates": [-70.780019, -33.213486]}}, {"type": "Feature", "properties": {"origen": "Centro de Batuco (Av. España)", "modo": "en auto", "minutos": 8.0, "km_linea_recta": 3.59}, "geometry": {"type": "Point", "coordinates": [-70.775691, -33.227]}}, {"type": "Feature", "properties": {"origen": "Centro de Batuco (Av. España)", "modo": "en auto", "minutos": 14.2, "km_linea_recta": 3.45}, "geometry": {"type": "Point", "coordinates": [-70.780019, -33.240514]}}, {"type": "Feature", "properties": {"origen": "Centro de Batuco (Av. España)", "modo": "en auto", "minutos": 19.8, "km_linea_recta": 3.16}, "geometry": {"type": "Point", "coordinates": [-70.791845, -33.250406]}}, {"type": "Feature", "properties": {"origen": "Centro de Batuco (Av. España)", "modo": "en auto", "minutos": 22.6, "km_linea_recta": 3.0}, "geometry": {"type": "Point", "coordinates": [-70.808, -33.254027]}}, {"type": "Feature", "properties": {"origen": "Centro de Batuco (Av. España)", "modo": "en auto", "minutos": 10.0, "km_linea_recta": 3.16}, "geometry": {"type": "Point", "coordinates": [-70.824155, -33.250406]}}, {"type": "Feature", "properties": {"origen": "Centro de Batuco (Av. España)", "modo": "en auto", "minutos": 10.7, "km_linea_recta": 3.45}, "geometry": {"type": "Point", "coordinates": [-70.835981, -33.240514]}}, {"type": "Feature", "properties": {"origen": "Centro de Batuco (Av. España)", "modo": "en auto", "minutos": 14.9, "km_linea_recta": 3.59}, "geometry": {"type": "Point", "coordinates": [-70.840309, -33.227]}}, {"type": "Feature", "properties": {"origen": "Centro de Batuco (Av. España)", "modo": "en auto", "minutos": 16.7, "km_linea_recta": 3.45}, "geometry": {"type": "Point", "coordinates": [-70.835981, -33.213486]}}, {"type": "Feature", "properties": {"origen": "Centro de Batuco (Av. España)", "modo": "en auto", "minutos": 11.7, "km_linea_recta": 3.16}, "geometry": {"type": "Point", "coordinates": [-70.824155, -33.203594]}}, {"type": "Feature", "properties": {"origen": "Centro de Batuco (Av. España)", "modo": "en auto", "minutos": 20.1, "km_linea_recta": 5.0}, "geometry": {"type": "Point", "coordinates": [-70.808, -33.181955]}}, {"type": "Feature", "properties": {"origen": "Centro de Batuco (Av. España)", "modo": "en auto", "minutos": 25.3, "km_linea_recta": 5.26}, "geometry": {"type": "Point", "coordinates": [-70.781075, -33.18799]}}, {"type": "Feature", "properties": {"origen": "Centro de Batuco (Av. España)", "modo": "en auto", "minutos": 22.7, "km_linea_recta": 5.75}, "geometry": {"type": "Point", "coordinates": [-70.761365, -33.204477]}}, {"type": "Feature", "properties": {"origen": "Centro de Batuco (Av. España)", "modo": "en auto", "minutos": 16.1, "km_linea_recta": 5.98}, "geometry": {"type": "Point", "coordinates": [-70.754151, -33.227]}}, {"type": "Feature", "properties": {"origen": "Centro de Batuco (Av. España)", "modo": "en auto", "minutos": 14.8, "km_linea_recta": 5.75}, "geometry": {"type": "Point", "coordinates": [-70.761365, -33.249523]}}, {"type": "Feature", "properties": {"origen": "Centro de Batuco (Av. España)", "modo": "en auto", "minutos": 19.1, "km_linea_recta": 5.26}, "geometry": {"type": "Point", "coordinates": [-70.781075, -33.26601]}}, {"type": "Feature", "properties": {"origen": "Centro de Batuco (Av. España)", "modo": "en auto", "minutos": 22.0, "km_linea_recta": 5.0}, "geometry": {"type": "Point", "coordinates": [-70.808, -33.272045]}}, {"type": "Feature", "properties": {"origen": "Centro de Batuco (Av. España)", "modo": "en auto", "minutos": 18.3, "km_linea_recta": 5.26}, "geometry": {"type": "Point", "coordinates": [-70.834925, -33.26601]}}, {"type": "Feature", "properties": {"origen": "Centro de Batuco (Av. España)", "modo": "en auto", "minutos": 16.3, "km_linea_recta": 5.75}, "geometry": {"type": "Point", "coordinates": [-70.854635, -33.249523]}}, {"type": "Feature", "properties": {"origen": "Centro de Batuco (Av. España)", "modo": "en auto", "minutos": 15.4, "km_linea_recta": 5.98}, "geometry": {"type": "Point", "coordinates": [-70.861849, -33.227]}}, {"type": "Feature", "properties": {"origen": "Centro de Batuco (Av. España)", "modo": "en auto", "minutos": 20.1, "km_linea_recta": 5.75}, "geometry": {"type": "Point", "coordinates": [-70.854635, -33.204477]}}, {"type": "Feature", "properties": {"origen": "Centro de Batuco (Av. España)", "modo": "en auto", "minutos": 15.8, "km_linea_recta": 5.26}, "geometry": {"type": "Point", "coordinates": [-70.834925, -33.18799]}}, {"type": "Feature", "properties": {"origen": "Sitio estación de tren", "modo": "caminando", "minutos": 158.1, "km_linea_recta": 0.9}, "geometry": {"type": "Point", "coordinates": [-70.8095, -33.212392]}}, {"type": "Feature", "properties": {"origen": "Sitio estación de tren", "modo": "caminando", "minutos": 59.5, "km_linea_recta": 0.99}, "geometry": {"type": "Point", "coordinates": [-70.802647, -33.214767]}}, {"type": "Feature", "properties": {"origen": "Sitio estación de tren", "modo": "caminando", "minutos": 50.9, "km_linea_recta": 1.08}, "geometry": {"type": "Point", "coordinates": [-70.799808, -33.2205]}}, {"type": "Feature", "properties": {"origen": "Sitio estación de tren", "modo": "caminando", "minutos": 46.9, "km_linea_recta": 0.99}, "geometry": {"type": "Point", "coordinates": [-70.802647, -33.226233]}}, {"type": "Feature", "properties": {"origen": "Sitio estación de tren", "modo": "caminando", "minutos": 32.8, "km_linea_recta": 0.9}, "geometry": {"type": "Point", "coordinates": [-70.8095, -33.228608]}}, {"type": "Feature", "properties": {"origen": "Sitio estación de tren", "modo": "caminando", "minutos": 20.4, "km_linea_recta": 0.99}, "geometry": {"type": "Point", "coordinates": [-70.816353, -33.226233]}}, {"type": "Feature", "properties": {"origen": "Sitio estación de tren", "modo": "caminando", "minutos": 32.5, "km_linea_recta": 1.08}, "geometry": {"type": "Point", "coordinates": [-70.819192, -33.2205]}}, {"type": "Feature", "properties": {"origen": "Sitio estación de tren", "modo": "caminando", "minutos": 20.9, "km_linea_recta": 0.99}, "geometry": {"type": "Point", "coordinates": [-70.816353, -33.214767]}}, {"type": "Feature", "properties": {"origen": "Sitio estación de tren", "modo": "caminando", "minutos": 143.8, "km_linea_recta": 1.8}, "geometry": {"type": "Point", "coordinates": [-70.8095, -33.204284]}}, {"type": "Feature", "properties": {"origen": "Sitio estación de tren", "modo": "caminando", "minutos": 68.2, "km_linea_recta": 1.89}, "geometry": {"type": "Point", "coordinates": [-70.799808, -33.206456]}}, {"type": "Feature", "properties": {"origen": "Sitio estación de tren", "modo": "caminando", "minutos": 59.2, "km_linea_recta": 2.07}, "geometry": {"type": "Point", "coordinates": [-70.792713, -33.212392]}}, {"type": "Feature", "properties": {"origen": "Sitio estación de tren", "modo": "caminando", "minutos": 65.5, "km_linea_recta": 2.15}, "geometry": {"type": "Point", "coordinates": [-70.790116, -33.2205]}}, {"type": "Feature", "properties": {"origen": "Sitio estación de tren", "modo": "caminando", "minutos": 71.8, "km_linea_recta": 2.07}, "geometry": {"type": "Point", "coordinates": [-70.792713, -33.228608]}}, {"type": "Feature", "properties": {"origen": "Sitio estación de tren", "modo": "caminando", "minutos": 56.3, "km_linea_recta": 1.89}, "geometry": {"type": "Point", "coordinates": [-70.799808, -33.234544]}}, {"type": "Feature", "properties": {"origen": "Sitio estación de tren", "modo": "caminando", "minutos": 42.5, "km_linea_recta": 1.8}, "geometry": {"type": "Point", "coordinates": [-70.8095, -33.236716]}}, {"type": "Feature", "properties": {"origen": "Sitio estación de tren", "modo": "caminando", "minutos": 56.4, "km_linea_recta": 1.89}, "geometry": {"type": "Point", "coordinates": [-70.819192, -33.234544]}}, {"type": "Feature", "properties": {"origen": "Sitio estación de tren", "modo": "caminando", "minutos": 78.8, "km_linea_recta": 2.07}, "geometry": {"type": "Point", "coordinates": [-70.826287, -33.228608]}}, {"type": "Feature", "properties": {"origen": "Sitio estación de tren", "modo": "caminando", "minutos": 91.3, "km_linea_recta": 2.15}, "geometry": {"type": "Point", "coordinates": [-70.828884, -33.2205]}}, {"type": "Feature", "properties": {"origen": "Sitio estación de tren", "modo": "caminando", "minutos": 32.1, "km_linea_recta": 2.07}, "geometry": {"type": "Point", "coordinates": [-70.826287, -33.212392]}}, {"type": "Feature", "properties": {"origen": "Sitio estación de tren", "modo": "caminando", "minutos": 33.3, "km_linea_recta": 1.89}, "geometry": {"type": "Point", "coordinates": [-70.819192, -33.206456]}}, {"type": "Feature", "properties": {"origen": "Sitio estación de tren", "modo": "caminando", "minutos": 132.4, "km_linea_recta": 3.0}, "geometry": {"type": "Point", "coordinates": [-70.8095, -33.193473]}}, {"type": "Feature", "properties": {"origen": "Sitio estación de tren", "modo": "caminando", "minutos": 80.6, "km_linea_recta": 3.16}, "geometry": {"type": "Point", "coordinates": [-70.793346, -33.197094]}}, {"type": "Feature", "properties": {"origen": "Sitio estación de tren", "modo": "caminando", "minutos": 81.8, "km_linea_recta": 3.45}, "geometry": {"type": "Point", "coordinates": [-70.781521, -33.206986]}}, {"type": "Feature", "properties": {"origen": "Sitio estación de tren", "modo": "caminando", "minutos": 75.6, "km_linea_recta": 3.59}, "geometry": {"type": "Point", "coordinates": [-70.777193, -33.2205]}}, {"type": "Feature", "properties": {"origen": "Sitio estación de tren", "modo": "caminando", "minutos": 139.2, "km_linea_recta": 3.45}, "geometry": {"type": "Point", "coordinates": [-70.781521, -33.234014]}}, {"type": "Feature", "properties": {"origen": "Sitio estación de tren", "modo": "caminando", "minutos": 176.2, "km_linea_recta": 3.16}, "geometry": {"type": "Point", "coordinates": [-70.793346, -33.243906]}}, {"type": "Feature", "properties": {"origen": "Sitio estación de tren", "modo": "caminando", "minutos": 61.0, "km_linea_recta": 3.0}, "geometry": {"type": "Point", "coordinates": [-70.8095, -33.247527]}}, {"type": "Feature", "properties": {"origen": "Sitio estación de tren", "modo": "caminando", "minutos": 59.4, "km_linea_recta": 3.16}, "geometry": {"type": "Point", "coordinates": [-70.825654, -33.243906]}}, {"type": "Feature", "properties": {"origen": "Sitio estación de tren", "modo": "caminando", "minutos": 91.8, "km_linea_recta": 3.45}, "geometry": {"type": "Point", "coordinates": [-70.837479, -33.234014]}}, {"type": "Feature", "properties": {"origen": "Sitio estación de tren", "modo": "caminando", "minutos": 109.2, "km_linea_recta": 3.59}, "geometry": {"type": "Point", "coordinates": [-70.841807, -33.2205]}}, {"type": "Feature", "properties": {"origen": "Sitio estación de tren", "modo": "caminando", "minutos": 98.5, "km_linea_recta": 3.45}, "geometry": {"type": "Point", "coordinates": [-70.837479, -33.206986]}}, {"type": "Feature", "properties": {"origen": "Sitio estación de tren", "modo": "caminando", "minutos": 59.6, "km_linea_recta": 3.16}, "geometry": {"type": "Point", "coordinates": [-70.825654, -33.197094]}}, {"type": "Feature", "properties": {"origen": "Sitio estación de tren", "modo": "caminando", "minutos": 164.7, "km_linea_recta": 5.0}, "geometry": {"type": "Point", "coordinates": [-70.8095, -33.175455]}}, {"type": "Feature", "properties": {"origen": "Sitio estación de tren", "modo": "caminando", "minutos": 118.5, "km_linea_recta": 5.26}, "geometry": {"type": "Point", "coordinates": [-70.782577, -33.18149]}}, {"type": "Feature", "properties": {"origen": "Sitio estación de tren", "modo": "caminando", "minutos": 174.5, "km_linea_recta": 5.75}, "geometry": {"type": "Point", "coordinates": [-70.762869, -33.197977]}}, {"type": "Feature", "properties": {"origen": "Sitio estación de tren", "modo": "caminando", "minutos": 140.8, "km_linea_recta": 5.98}, "geometry": {"type": "Point", "coordinates": [-70.755655, -33.2205]}}, {"type": "Feature", "properties": {"origen": "Sitio estación de tren", "modo": "caminando", "minutos": 118.8, "km_linea_recta": 5.75}, "geometry": {"type": "Point", "coordinates": [-70.762869, -33.243023]}}, {"type": "Feature", "properties": {"origen": "Sitio estación de tren", "modo": "caminando", "minutos": 151.7, "km_linea_recta": 5.26}, "geometry": {"type": "Point", "coordinates": [-70.782577, -33.25951]}}, {"type": "Feature", "properties": {"origen": "Sitio estación de tren", "modo": "caminando", "minutos": 192.2, "km_linea_recta": 5.0}, "geometry": {"type": "Point", "coordinates": [-70.8095, -33.265545]}}, {"type": "Feature", "properties": {"origen": "Sitio estación de tren", "modo": "caminando", "minutos": 93.1, "km_linea_recta": 5.26}, "geometry": {"type": "Point", "coordinates": [-70.836423, -33.25951]}}, {"type": "Feature", "properties": {"origen": "Sitio estación de tren", "modo": "caminando", "minutos": 102.3, "km_linea_recta": 5.75}, "geometry": {"type": "Point", "coordinates": [-70.856131, -33.243023]}}, {"type": "Feature", "properties": {"origen": "Sitio estación de tren", "modo": "caminando", "minutos": 110.5, "km_linea_recta": 5.98}, "geometry": {"type": "Point", "coordinates": [-70.863345, -33.2205]}}, {"type": "Feature", "properties": {"origen": "Sitio estación de tren", "modo": "caminando", "minutos": 446.1, "km_linea_recta": 5.75}, "geometry": {"type": "Point", "coordinates": [-70.856131, -33.197977]}}, {"type": "Feature", "properties": {"origen": "Sitio estación de tren", "modo": "caminando", "minutos": 93.6, "km_linea_recta": 5.26}, "geometry": {"type": "Point", "coordinates": [-70.836423, -33.18149]}}, {"type": "Feature", "properties": {"origen": "Sitio estación de tren", "modo": "en auto", "minutos": 27.7, "km_linea_recta": 0.9}, "geometry": {"type": "Point", "coordinates": [-70.8095, -33.212392]}}, {"type": "Feature", "properties": {"origen": "Sitio estación de tren", "modo": "en auto", "minutos": 14.6, "km_linea_recta": 0.99}, "geometry": {"type": "Point", "coordinates": [-70.802647, -33.214767]}}, {"type": "Feature", "properties": {"origen": "Sitio estación de tren", "modo": "en auto", "minutos": 13.8, "km_linea_recta": 1.08}, "geometry": {"type": "Point", "coordinates": [-70.799808, -33.2205]}}, {"type": "Feature", "properties": {"origen": "Sitio estación de tren", "modo": "en auto", "minutos": 12.5, "km_linea_recta": 0.99}, "geometry": {"type": "Point", "coordinates": [-70.802647, -33.226233]}}, {"type": "Feature", "properties": {"origen": "Sitio estación de tren", "modo": "en auto", "minutos": 7.0, "km_linea_recta": 0.9}, "geometry": {"type": "Point", "coordinates": [-70.8095, -33.228608]}}, {"type": "Feature", "properties": {"origen": "Sitio estación de tren", "modo": "en auto", "minutos": 4.5, "km_linea_recta": 0.99}, "geometry": {"type": "Point", "coordinates": [-70.816353, -33.226233]}}, {"type": "Feature", "properties": {"origen": "Sitio estación de tren", "modo": "en auto", "minutos": 7.7, "km_linea_recta": 1.08}, "geometry": {"type": "Point", "coordinates": [-70.819192, -33.2205]}}, {"type": "Feature", "properties": {"origen": "Sitio estación de tren", "modo": "en auto", "minutos": 4.5, "km_linea_recta": 0.99}, "geometry": {"type": "Point", "coordinates": [-70.816353, -33.214767]}}, {"type": "Feature", "properties": {"origen": "Sitio estación de tren", "modo": "en auto", "minutos": 25.7, "km_linea_recta": 1.8}, "geometry": {"type": "Point", "coordinates": [-70.8095, -33.204284]}}, {"type": "Feature", "properties": {"origen": "Sitio estación de tren", "modo": "en auto", "minutos": 15.4, "km_linea_recta": 1.89}, "geometry": {"type": "Point", "coordinates": [-70.799808, -33.206456]}}, {"type": "Feature", "properties": {"origen": "Sitio estación de tren", "modo": "en auto", "minutos": 14.8, "km_linea_recta": 2.07}, "geometry": {"type": "Point", "coordinates": [-70.792713, -33.212392]}}, {"type": "Feature", "properties": {"origen": "Sitio estación de tren", "modo": "en auto", "minutos": 15.1, "km_linea_recta": 2.15}, "geometry": {"type": "Point", "coordinates": [-70.790116, -33.2205]}}, {"type": "Feature", "properties": {"origen": "Sitio estación de tren", "modo": "en auto", "minutos": 19.4, "km_linea_recta": 2.07}, "geometry": {"type": "Point", "coordinates": [-70.792713, -33.228608]}}, {"type": "Feature", "properties": {"origen": "Sitio estación de tren", "modo": "en auto", "minutos": 10.1, "km_linea_recta": 1.89}, "geometry": {"type": "Point", "coordinates": [-70.799808, -33.234544]}}, {"type": "Feature", "properties": {"origen": "Sitio estación de tren", "modo": "en auto", "minutos": 8.4, "km_linea_recta": 1.8}, "geometry": {"type": "Point", "coordinates": [-70.8095, -33.236716]}}, {"type": "Feature", "properties": {"origen": "Sitio estación de tren", "modo": "en auto", "minutos": 12.4, "km_linea_recta": 1.89}, "geometry": {"type": "Point", "coordinates": [-70.819192, -33.234544]}}, {"type": "Feature", "properties": {"origen": "Sitio estación de tren", "modo": "en auto", "minutos": 14.6, "km_linea_recta": 2.07}, "geometry": {"type": "Point", "coordinates": [-70.826287, -33.228608]}}, {"type": "Feature", "properties": {"origen": "Sitio estación de tren", "modo": "en auto", "minutos": 17.3, "km_linea_recta": 2.15}, "geometry": {"type": "Point", "coordinates": [-70.828884, -33.2205]}}, {"type": "Feature", "properties": {"origen": "Sitio estación de tren", "modo": "en auto", "minutos": 7.5, "km_linea_recta": 2.07}, "geometry": {"type": "Point", "coordinates": [-70.826287, -33.212392]}}, {"type": "Feature", "properties": {"origen": "Sitio estación de tren", "modo": "en auto", "minutos": 6.4, "km_linea_recta": 1.89}, "geometry": {"type": "Point", "coordinates": [-70.819192, -33.206456]}}, {"type": "Feature", "properties": {"origen": "Sitio estación de tren", "modo": "en auto", "minutos": 23.4, "km_linea_recta": 3.0}, "geometry": {"type": "Point", "coordinates": [-70.8095, -33.193473]}}, {"type": "Feature", "properties": {"origen": "Sitio estación de tren", "modo": "en auto", "minutos": 17.4, "km_linea_recta": 3.16}, "geometry": {"type": "Point", "coordinates": [-70.793346, -33.197094]}}, {"type": "Feature", "properties": {"origen": "Sitio estación de tren", "modo": "en auto", "minutos": 16.0, "km_linea_recta": 3.45}, "geometry": {"type": "Point", "coordinates": [-70.781521, -33.206986]}}, {"type": "Feature", "properties": {"origen": "Sitio estación de tren", "modo": "en auto", "minutos": 13.9, "km_linea_recta": 3.59}, "geometry": {"type": "Point", "coordinates": [-70.777193, -33.2205]}}, {"type": "Feature", "properties": {"origen": "Sitio estación de tren", "modo": "en auto", "minutos": 21.9, "km_linea_recta": 3.45}, "geometry": {"type": "Point", "coordinates": [-70.781521, -33.234014]}}, {"type": "Feature", "properties": {"origen": "Sitio estación de tren", "modo": "en auto", "minutos": 26.9, "km_linea_recta": 3.16}, "geometry": {"type": "Point", "coordinates": [-70.793346, -33.243906]}}, {"type": "Feature", "properties": {"origen": "Sitio estación de tren", "modo": "en auto", "minutos": 13.0, "km_linea_recta": 3.0}, "geometry": {"type": "Point", "coordinates": [-70.8095, -33.247527]}}, {"type": "Feature", "properties": {"origen": "Sitio estación de tren", "modo": "en auto", "minutos": 10.4, "km_linea_recta": 3.16}, "geometry": {"type": "Point", "coordinates": [-70.825654, -33.243906]}}, {"type": "Feature", "properties": {"origen": "Sitio estación de tren", "modo": "en auto", "minutos": 13.5, "km_linea_recta": 3.45}, "geometry": {"type": "Point", "coordinates": [-70.837479, -33.234014]}}, {"type": "Feature", "properties": {"origen": "Sitio estación de tren", "modo": "en auto", "minutos": 16.5, "km_linea_recta": 3.59}, "geometry": {"type": "Point", "coordinates": [-70.841807, -33.2205]}}, {"type": "Feature", "properties": {"origen": "Sitio estación de tren", "modo": "en auto", "minutos": 19.1, "km_linea_recta": 3.45}, "geometry": {"type": "Point", "coordinates": [-70.837479, -33.206986]}}, {"type": "Feature", "properties": {"origen": "Sitio estación de tren", "modo": "en auto", "minutos": 10.8, "km_linea_recta": 3.16}, "geometry": {"type": "Point", "coordinates": [-70.825654, -33.197094]}}, {"type": "Feature", "properties": {"origen": "Sitio estación de tren", "modo": "en auto", "minutos": 27.0, "km_linea_recta": 5.0}, "geometry": {"type": "Point", "coordinates": [-70.8095, -33.175455]}}, {"type": "Feature", "properties": {"origen": "Sitio estación de tren", "modo": "en auto", "minutos": 22.1, "km_linea_recta": 5.26}, "geometry": {"type": "Point", "coordinates": [-70.782577, -33.18149]}}, {"type": "Feature", "properties": {"origen": "Sitio estación de tren", "modo": "en auto", "minutos": 29.2, "km_linea_recta": 5.75}, "geometry": {"type": "Point", "coordinates": [-70.762869, -33.197977]}}, {"type": "Feature", "properties": {"origen": "Sitio estación de tren", "modo": "en auto", "minutos": 23.2, "km_linea_recta": 5.98}, "geometry": {"type": "Point", "coordinates": [-70.755655, -33.2205]}}, {"type": "Feature", "properties": {"origen": "Sitio estación de tren", "modo": "en auto", "minutos": 16.6, "km_linea_recta": 5.75}, "geometry": {"type": "Point", "coordinates": [-70.762869, -33.243023]}}, {"type": "Feature", "properties": {"origen": "Sitio estación de tren", "modo": "en auto", "minutos": 23.1, "km_linea_recta": 5.26}, "geometry": {"type": "Point", "coordinates": [-70.782577, -33.25951]}}, {"type": "Feature", "properties": {"origen": "Sitio estación de tren", "modo": "en auto", "minutos": 23.1, "km_linea_recta": 5.0}, "geometry": {"type": "Point", "coordinates": [-70.8095, -33.265545]}}, {"type": "Feature", "properties": {"origen": "Sitio estación de tren", "modo": "en auto", "minutos": 13.1, "km_linea_recta": 5.26}, "geometry": {"type": "Point", "coordinates": [-70.836423, -33.25951]}}, {"type": "Feature", "properties": {"origen": "Sitio estación de tren", "modo": "en auto", "minutos": 18.1, "km_linea_recta": 5.75}, "geometry": {"type": "Point", "coordinates": [-70.856131, -33.243023]}}, {"type": "Feature", "properties": {"origen": "Sitio estación de tren", "modo": "en auto", "minutos": 16.9, "km_linea_recta": 5.98}, "geometry": {"type": "Point", "coordinates": [-70.863345, -33.2205]}}, {"type": "Feature", "properties": {"origen": "Sitio estación de tren", "modo": "en auto", "minutos": 47.2, "km_linea_recta": 5.75}, "geometry": {"type": "Point", "coordinates": [-70.856131, -33.197977]}}, {"type": "Feature", "properties": {"origen": "Sitio estación de tren", "modo": "en auto", "minutos": 15.8, "km_linea_recta": 5.26}, "geometry": {"type": "Point", "coordinates": [-70.836423, -33.18149]}}]}