{"type": "FeatureCollection", "features": [{"type": "Feature", "properties": {"stop_id": "PB2189", "nombre": "PB2189-El Porvenir / esq. Río Maullín", "dist_km_batuco": 10.58}, "geometry": {"type": "Point", "coordinates": [-70.76096741864204, -33.313622327504035]}}, {"type": "Feature", "properties": {"stop_id": "PB2190", "nombre": "PB2190-El Porvenir / esq. Río Maullín", "dist_km_batuco": 10.58}, "geometry": {"type": "Point", "coordinates": [-70.76116940564509, -33.31372127941922]}}, {"type": "Feature", "properties": {"stop_id": "PB2188", "nombre": "PB2188-El Porvenir / esq. Av. El Alfalfal", "dist_km_batuco": 11.06}, "geometry": {"type": "Point", "coordinates": [-70.75893307834438, -33.317568126461815]}}, {"type": "Feature", "properties": {"stop_id": "PB2187", "nombre": "PB2187-El Porvenir / esq. Av. El Alfalfal", "dist_km_batuco": 11.07}, "geometry": {"type": "Point", "coordinates": [-70.75910646062837, -33.317729261434465]}}, {"type": "Feature", "properties": {"stop_id": "PB2209", "nombre": "PB2209-El Porvenir / esq. Río Rapel", "dist_km_batuco": 11.44}, "geometry": {"type": "Point", "coordinates": [-70.75728364802585, -33.320780758670814]}}, {"type": "Feature", "properties": {"stop_id": "PB2171", "nombre": "PB2171-El Porvenir / esq. Calle Los. Nogales", "dist_km_batuco": 11.46}, "geometry": {"type": "Point", "coordinates": [-70.75745459677741, -33.32097512630365]}}, {"type": "Feature", "properties": {"stop_id": "PB2095", "nombre": "PB2095-Río Maule / esq. Lago Riñihue", "dist_km_batuco": 11.7}, "geometry": {"type": "Point", "coordinates": [-70.75075453491232, -33.320748164719575]}}, {"type": "Feature", "properties": {"stop_id": "PB2111", "nombre": "PB2111-Boulevard Los Cóndores / esq. Blvd. Sn. Pedro", "dist_km_batuco": 11.7}, "geometry": {"type": "Point", "coordinates": [-70.77139095896595, -33.32771518871647]}}, {"type": "Feature", "properties": {"stop_id": "PB2094", "nombre": "PB2094-Río Maule / esq. Pasaje San Pablo", "dist_km_batuco": 11.71}, "geometry": {"type": "Point", "coordinates": [-70.75086498876655, -33.32089991757093]}}, {"type": "Feature", "properties": {"stop_id": "PB2109", "nombre": "PB2109-Boulevard Los Cóndores / esq. Avenida Sn. Luis Ote.", "dist_km_batuco": 11.72}, "geometry": {"type": "Point", "coordinates": [-70.76761334883366, -33.32684014245518]}}, {"type": "Feature", "properties": {"stop_id": "PB2172", "nombre": "PB2172-El Porvenir / esq. Calle Los. Nogales", "dist_km_batuco": 11.72}, "geometry": {"type": "Point", "coordinates": [-70.75609743737651, -33.323093944982055]}}, {"type": "Feature", "properties": {"stop_id": "PB2110", "nombre": "PB2110-Boulevard Los Cóndores / esq. Avenida Sn. Luis Ote.", "dist_km_batuco": 11.74}, "geometry": {"type": "Point", "coordinates": [-70.76867546363577, -33.32730297510698]}}, {"type": "Feature", "properties": {"stop_id": "PB2093", "nombre": "PB2093-Costanera -Poniente F.C. / esq. Río Maule", "dist_km_batuco": 11.74}, "geometry": {"type": "Point", "coordinates": [-70.74811769328458, -33.319955629197345]}}, {"type": "Feature", "properties": {"stop_id": "PB2170", "nombre": "PB2170-El Porvenir / esq. Pasaje Río Rapel", "dist_km_batuco": 11.75}, "geometry": {"type": "Point", "coordinates": [-70.75620596003387, -33.32335763617237]}}, {"type": "Feature", "properties": {"stop_id": "PB2169", "nombre": "PB2169-Boulevard Sn. Cristóbal / esq. Blvd. Los Cóndores", "dist_km_batuco": 11.77}, "geometry": {"type": "Point", "coordinates": [-70.76537479506602, -33.32663750289295]}}]}