{"type": "FeatureCollection", "features": [{"type": "Feature", "geometry": {"type": "Point", "coordinates": [-70.875446283, -33.2783985974341]}, "properties": {"Fecha": 1705449600000, "Hora": -2209161600000, "Tipo__CONA": "COLISION", "Causa__CON": "IMPRUDENCIA DEL CONDUCTOR", "Fallecidos": 0, "Lesionados": 1, "Graves": 0, "Zona": "URBANA"}}, {"type": "Feature", "geometry": {"type": "Point", "coordinates": [-70.7893817333, -33.2189087617348]}, "properties": {"Fecha": 1704931200000, "Hora": -2209161600000, "Tipo__CONA": "CHOQUE", "Causa__CON": "IMPRUDENCIA DEL CONDUCTOR", "Fallecidos": 0, "Lesionados": 0, "Graves": 0, "Zona": "URBANA"}}, {"type": "Feature", "geometry": {"type": "Point", "coordinates": [-70.807816, -33.2293349991347]}, "properties": {"Fecha": 1705104000000, "Hora": -2209161600000, "Tipo__CONA": "CHOQUE", "Causa__CON": "IMPRUDENCIA DEL CONDUCTOR", "Fallecidos": 0, "Lesionados": 0, "Graves": 0, "Zona": "URBANA"}}, {"type": "Feature", "geometry": {"type": "Point", "coordinates": [-70.8840475878, -33.2764894457341]}, "properties": {"Fecha": 1705190400000, "Hora": -2209161600000, "Tipo__CONA": "CHOQUE", "Causa__CON": "IMPRUDENCIA DEL CONDUCTOR", "Fallecidos": 0, "Lesionados": 0, "Graves": 0, "Zona": "URBANA"}}, {"type": "Feature", "geometry": {"type": "Point", "coordinates": [-70.7283089863, -33.3156296856336]}, "properties": {"Fecha": 1705276800000, "Hora": -2209161600000, "Tipo__CONA": "COLISION", "Causa__CON": "IMPRUDENCIA DEL CONDUCTOR", "Fallecidos": 0, "Lesionados": 0, "Graves": 0, "Zona": "URBANA"}}, {"type": "Feature", "geometry": {"type": "Point", "coordinates": [-70.879136, -33.282924999134]}, "properties": {"Fecha": 1705276800000, "Hora": -2209161600000, "Tipo__CONA": "COLISION", "Causa__CON": "IMPRUDENCIA DEL CONDUCTOR", "Fallecidos": 0, "Lesionados": 0, "Graves": 0, "Zona": "URBANA"}}, {"type": "Feature", "geometry": {"type": "Point", "coordinates": [-70.886608, -33.2771009991341]}, "properties": {"Fecha": 1705363200000, "Hora": -2209161600000, "Tipo__CONA": "CHOQUE", "Causa__CON": "IMPRUDENCIA DEL CONDUCTOR", "Fallecidos": 0, "Lesionados": 0, "Graves": 0, "Zona": "URBANA"}}, {"type": "Feature", "geometry": {"type": "Point", "coordinates": [-70.8674238068, -33.2945537152339]}, "properties": {"Fecha": 1704672000000, "Hora": -2209161600000, "Tipo__CONA": "CHOQUE", "Causa__CON": "IMPRUDENCIA DEL CONDUCTOR", "Fallecidos": 0, "Lesionados": 0, "Graves": 0, "Zona": "URBANA"}}, {"type": "Feature", "geometry": {"type": "Point", "coordinates": [-70.732933, -33.3186309991335]}, "properties": {"Fecha": 1704758400000, "Hora": -2209161600000, "Tipo__CONA": "COLISION", "Causa__CON": "IMPRUDENCIA DEL CONDUCTOR", "Fallecidos": 0, "Lesionados": 0, "Graves": 0, "Zona": "URBANA"}}, {"type": "Feature", "geometry": {"type": "Point", "coordinates": [-70.8791094734, -33.282950866134]}, "properties": {"Fecha": 1706227200000, "Hora": -2209161600000, "Tipo__CONA": "CHOQUE", "Causa__CON": "IMPRUDENCIA DEL CONDUCTOR", "Fallecidos": 0, "Lesionados": 0, "Graves": 0, "Zona": "URBANA"}}, {"type": "Feature", "geometry": {"type": "Point", "coordinates": [-70.866531, -33.2945859991339]}, "properties": {"Fecha": 1706227200000, "Hora": -2209161600000, "Tipo__CONA": "COLISION", "Causa__CON": "IMPRUDENCIA DEL CONDUCTOR", "Fallecidos": 0, "Lesionados": 0, "Graves": 0, "Zona": "URBANA"}}, {"type": "Feature", "geometry": {"type": "Point", "coordinates": [-70.745916, -33.3285909991334]}, "properties": {"Fecha": 1705881600000, "Hora": -2209161600000, "Tipo__CONA": "COLISION", "Causa__CON": "IMPRUDENCIA DEL CONDUCTOR", "Fallecidos": 0, "Lesionados": 0, "Graves": 0, "Zona": "URBANA"}}, {"type": "Feature", "geometry": {"type": "Point", "coordinates": [-70.8702636557, -33.282637346734]}, "properties": {"Fecha": 1705881600000, "Hora": -2209161600000, "Tipo__CONA": "COLISION", "Causa__CON": "IMPRUDENCIA DEL CONDUCTOR", "Fallecidos": 0, "Lesionados": 0, "Graves": 0, "Zona": "URBANA"}}, {"type": "Feature", "geometry": {"type": "Point", "coordinates": [-70.8786219306, -33.283648956734]}, "properties": {"Fecha": 1706918400000, "Hora": -2209161600000, "Tipo__CONA": "COLISION", "Causa__CON": "IMPRUDENCIA DEL CONDUCTOR", "Fallecidos": 0, "Lesionados": 0, "Graves": 0, "Zona": "URBANA"}}, {"type": "Feature", "geometry": {"type": "Point", "coordinates": [-70.866531, -33.2945859991339]}, "properties": {"Fecha": 1707091200000, "Hora": -2209161600000, "Tipo__CONA": "COLISION", "Causa__CON": "IMPRUDENCIA DEL CONDUCTOR", "Fallecidos": 0, "Lesionados": 0, "Graves": 0, "Zona": "URBANA"}}, {"type": "Feature", "geometry": {"type": "Point", "coordinates": [-70.8689948332, -33.2881482514339]}, "properties": {"Fecha": 1707091200000, "Hora": -2209161600000, "Tipo__CONA": "CHOQUE", "Causa__CON": "IMPRUDENCIA DEL CONDUCTOR", "Fallecidos": 0, "Lesionados": 0, "Graves": 0, "Zona": "URBANA"}}, {"type": "Feature", "geometry": {"type": "Point", "coordinates": [-70.8702636557, -33.282637346734]}, "properties": {"Fecha": 1707955200000, "Hora": -2209161600000, "Tipo__CONA": "COLISION", "Causa__CON": "IMPRUDENCIA DEL CONDUCTOR", "Fallecidos": 0, "Lesionados": 0, "Graves": 0, "Zona": "URBANA"}}, {"type": "Feature", "geometry": {"type": "Point", "coordinates": [-70.850262, -33.2731689991341]}, "properties": {"Fecha": 1707955200000, "Hora": -2209161600000, "Tipo__CONA": "CHOQUE", "Causa__CON": "IMPRUDENCIA DEL CONDUCTOR", "Fallecidos": 0, "Lesionados": 0, "Graves": 0, "Zona": "URBANA"}}, {"type": "Feature", "geometry": {"type": "Point", "coordinates": [-70.794221, -33.357142799133]}, "properties": {"Fecha": 1708041600000, "Hora": -2209161600000, "Tipo__CONA": "COLISION", "Causa__CON": "IMPRUDENCIA DEL CONDUCTOR", "Fallecidos": 0, "Lesionados": 1, "Graves": 0, "Zona": "URBANA"}}, {"type": "Feature", "geometry": {"type": "Point", "coordinates": [-70.7498019406, -33.3757525487328]}, "properties": {"Fecha": 1708128000000, "Hora": -2209161600000, "Tipo__CONA": "COLISION", "Causa__CON": "IMPRUDENCIA DEL CONDUCTOR", "Fallecidos": 0, "Lesionados": 0, "Graves": 0, "Zona": "URBANA"}}, {"type": "Feature", "geometry": {"type": "Point", "coordinates": [-70.8742096807, -33.2768743810341]}, "properties": {"Fecha": 1707523200000, "Hora": -2209161600000, "Tipo__CONA": "VOLCADURA", "Causa__CON": "DESOBEDIENCIA A SEÑALIZACION", "Fallecidos": 0, "Lesionados": 1, "Graves": 1, "Zona": "URBANA"}}, {"type": "Feature", "geometry": {"type": "Point", "coordinates": [-70.867677, -33.2909319991339]}, "properties": {"Fecha": 1707868800000, "Hora": -2209161600000, "Tipo__CONA": "COLISION", "Causa__CON": "IMPRUDENCIA DEL CONDUCTOR", "Fallecidos": 0, "Lesionados": 0, "Graves": 0, "Zona": "URBANA"}}, {"type": "Feature", "geometry": {"type": "Point", "coordinates": [-70.866531, -33.2945859991339]}, "properties": {"Fecha": 1707868800000, "Hora": -2209161600000, "Tipo__CONA": "COLISION", "Causa__CON": "IMPRUDENCIA DEL CONDUCTOR", "Fallecidos": 0, "Lesionados": 0, "Graves": 0, "Zona": "URBANA"}}, {"type": "Feature", "geometry": {"type": "Point", "coordinates": [-70.873495, -33.2955269991338]}, "properties": {"Fecha": 1708128000000, "Hora": -2209161600000, "Tipo__CONA": "CHOQUE", "Causa__CON": "IMPRUDENCIA DEL CONDUCTOR", "Fallecidos": 0, "Lesionados": 0, "Graves": 0, "Zona": "URBANA"}}, {"type": "Feature", "geometry": {"type": "Point", "coordinates": [-70.8857029786, -33.2790698937341]}, "properties": {"Fecha": 1704326400000, "Hora": -2209161600000, "Tipo__CONA": "CHOQUE", "Causa__CON": "IMPRUDENCIA DEL CONDUCTOR", "Fallecidos": 0, "Lesionados": 0, "Graves": 0, "Zona": "URBANA"}}, {"type": "Feature", "geometry": {"type": "Point", "coordinates": [-70.879095, -33.2768019991341]}, "properties": {"Fecha": 1707868800000, "Hora": -2209161600000, "Tipo__CONA": "COLISION", "Causa__CON": "IMPRUDENCIA DEL CONDUCTOR", "Fallecidos": 0, "Lesionados": 0, "Graves": 0, "Zona": "URBANA"}}, {"type": "Feature", "geometry": {"type": "Point", "coordinates": [-70.8531952725, -33.3039006294337]}, "properties": {"Fecha": 1708819200000, "Hora": -2209161600000, "Tipo__CONA": "COLISION", "Causa__CON": "IMPRUDENCIA DEL CONDUCTOR", "Fallecidos": 0, "Lesionados": 1, "Graves": 0, "Zona": "URBANA"}}, {"type": "Feature", "geometry": {"type": "Point", "coordinates": [-70.8894345959, -33.2784237902341]}, "properties": {"Fecha": 1708992000000, "Hora": -2209161600000, "Tipo__CONA": "CHOQUE", "Causa__CON": "IMPRUDENCIA DEL CONDUCTOR", "Fallecidos": 0, "Lesionados": 0, "Graves": 0, "Zona": "URBANA"}}, {"type": "Feature", "geometry": {"type": "Point", "coordinates": [-70.841718, -33.3499089991331]}, "properties": {"Fecha": 1708905600000, "Hora": -2209161600000, "Tipo__CONA": "COLISION", "Causa__CON": "IMPRUDENCIA DEL CONDUCTOR", "Fallecidos": 1, "Lesionados": 1, "Graves": 0, "Zona": "URBANA"}}, {"type": "Feature", "geometry": {"type": "Point", "coordinates": [-70.738435, -33.3244889991335]}, "properties": {"Fecha": 1710115200000, "Hora": -2209161600000, "Tipo__CONA": "CHOQUE", "Causa__CON": "IMPRUDENCIA DEL CONDUCTOR", "Fallecidos": 0, "Lesionados": 0, "Graves": 0, "Zona": "URBANA"}}, {"type": "Feature", "geometry": {"type": "Point", "coordinates": [-70.8762630272, -33.284965437534]}, "properties": {"Fecha": 1709078400000, "Hora": -2209161600000, "Tipo__CONA": "COLISION", "Causa__CON": "IMPRUDENCIA DEL CONDUCTOR", "Fallecidos": 0, "Lesionados": 0, "Graves": 0, "Zona": "URBANA"}}, {"type": "Feature", "geometry": {"type": "Point", "coordinates": [-70.8717731334, -33.283728199534]}, "properties": {"Fecha": 1709164800000, "Hora": -2209161600000, "Tipo__CONA": "COLISION", "Causa__CON": "IMPRUDENCIA DEL CONDUCTOR", "Fallecidos": 0, "Lesionados": 0, "Graves": 0, "Zona": "URBANA"}}, {"type": "Feature", "geometry": {"type": "Point", "coordinates": [-70.870215, -33.282458999134]}, "properties": {"Fecha": 1709337600000, "Hora": -2209161600000, "Tipo__CONA": "COLISION", "Causa__CON": "ALCOHOL EN CONDUCTOR", "Fallecidos": 0, "Lesionados": 0, "Graves": 0, "Zona": "URBANA"}}, {"type": "Feature", "geometry": {"type": "Point", "coordinates": [-70.881575, -33.2932029991339]}, "properties": {"Fecha": 1709510400000, "Hora": -2209161600000, "Tipo__CONA": "COLISION", "Causa__CON": "IMPRUDENCIA DEL CONDUCTOR", "Fallecidos": 0, "Lesionados": 0, "Graves": 0, "Zona": "URBANA"}}, {"type": "Feature", "geometry": {"type": "Point", "coordinates": [-70.825457, -33.2401149991345]}, "properties": {"Fecha": 1709596800000, "Hora": -2209161600000, "Tipo__CONA": "ATROPELLO", "Causa__CON": "IMPRUDENCIA DEL PEATON", "Fallecidos": 0, "Lesionados": 2, "Graves": 0, "Zona": "URBANA"}}, {"type": "Feature", "geometry": {"type": "Point", "coordinates": [-70.850262, -33.2731689991341]}, "properties": {"Fecha": 1709683200000, "Hora": -2209161600000, "Tipo__CONA": "COLISION", "Causa__CON": "IMPRUDENCIA DEL CONDUCTOR", "Fallecidos": 0, "Lesionados": 0, "Graves": 0, "Zona": "URBANA"}}, {"type": "Feature", "geometry": {"type": "Point", "coordinates": [-70.7699443143, -33.2891970660339]}, "properties": {"Fecha": 1709769600000, "Hora": -2209161600000, "Tipo__CONA": "COLISION", "Causa__CON": "DROGAS Y/O FATIGA EN CONDUCTOR", "Fallecidos": 0, "Lesionados": 2, "Graves": 0, "Zona": "URBANA"}}, {"type": "Feature", "geometry": {"type": "Point", "coordinates": [-70.765034, -33.3278149991334]}, "properties": {"Fecha": 1709856000000, "Hora": -2209161600000, "Tipo__CONA": "COLISION", "Causa__CON": "IMPRUDENCIA DEL CONDUCTOR", "Fallecidos": 0, "Lesionados": 1, "Graves": 0, "Zona": "URBANA"}}, {"type": "Feature", "geometry": {"type": "Point", "coordinates": [-70.7852501994, -33.280573098334]}, "properties": {"Fecha": 1709856000000, "Hora": -2209161600000, "Tipo__CONA": "COLISION", "Causa__CON": "IMPRUDENCIA DEL CONDUCTOR", "Fallecidos": 0, "Lesionados": 0, "Graves": 0, "Zona": "URBANA"}}, {"type": "Feature", "geometry": {"type": "Point", "coordinates": [-70.8867715252, -33.286337402634]}, "properties": {"Fecha": 1709596800000, "Hora": -2209161600000, "Tipo__CONA": "COLISION", "Causa__CON": "IMPRUDENCIA DEL CONDUCTOR", "Fallecidos": 0, "Lesionados": 0, "Graves": 0, "Zona": "URBANA"}}, {"type": "Feature", "geometry": {"type": "Point", "coordinates": [-70.8531840687, -33.3047394932337]}, "properties": {"Fecha": 1710028800000, "Hora": -2209161600000, "Tipo__CONA": "CHOQUE", "Causa__CON": "IMPRUDENCIA DEL CONDUCTOR", "Fallecidos": 0, "Lesionados": 0, "Graves": 0, "Zona": "URBANA"}}, {"type": "Feature", "geometry": {"type": "Point", "coordinates": [-70.8347506928, -33.2278854155347]}, "properties": {"Fecha": 1710028800000, "Hora": -2209161600000, "Tipo__CONA": "CHOQUE", "Causa__CON": "IMPRUDENCIA DEL CONDUCTOR", "Fallecidos": 0, "Lesionados": 0, "Graves": 0, "Zona": "URBANA"}}, {"type": "Feature", "geometry": {"type": "Point", "coordinates": [-70.805793, -33.2310599991347]}, "properties": {"Fecha": 1710979200000, "Hora": -2209161600000, "Tipo__CONA": "CHOQUE", "Causa__CON": "DROGAS Y/O FATIGA EN CONDUCTOR", "Fallecidos": 0, "Lesionados": 0, "Graves": 0, "Zona": "URBANA"}}, {"type": "Feature", "geometry": {"type": "Point", "coordinates": [-70.875824, -33.285020999134]}, "properties": {"Fecha": 1710979200000, "Hora": -2209161600000, "Tipo__CONA": "ATROPELLO", "Causa__CON": "IMPRUDENCIA DEL CONDUCTOR", "Fallecidos": 0, "Lesionados": 1, "Graves": 0, "Zona": "URBANA"}}, {"type": "Feature", "geometry": {"type": "Point", "coordinates": [-70.8791094734, -33.282950866134]}, "properties": {"Fecha": 1711065600000, "Hora": -2209161600000, "Tipo__CONA": "CHOQUE", "Causa__CON": "IMPRUDENCIA DEL CONDUCTOR", "Fallecidos": 0, "Lesionados": 0, "Graves": 0, "Zona": "URBANA"}}, {"type": "Feature", "geometry": {"type": "Point", "coordinates": [-70.841718, -33.3499089991331]}, "properties": {"Fecha": 1711324800000, "Hora": -2209161600000, "Tipo__CONA": "COLISION", "Causa__CON": "IMPRUDENCIA DEL CONDUCTOR", "Fallecidos": 0, "Lesionados": 0, "Graves": 0, "Zona": "URBANA"}}, {"type": "Feature", "geometry": {"type": "Point", "coordinates": [-70.8057419898, -33.2384680985346]}, "properties": {"Fecha": 1710374400000, "Hora": -2209161600000, "Tipo__CONA": "CHOQUE", "Causa__CON": "IMPRUDENCIA DEL CONDUCTOR", "Fallecidos": 0, "Lesionados": 0, "Graves": 0, "Zona": "URBANA"}}, {"type": "Feature", "geometry": {"type": "Point", "coordinates": [-70.8717731334, -33.283728199534]}, "properties": {"Fecha": 1710547200000, "Hora": -2209161600000, "Tipo__CONA": "COLISION", "Causa__CON": "IMPRUDENCIA DEL CONDUCTOR", "Fallecidos": 0, "Lesionados": 0, "Graves": 0, "Zona": "URBANA"}}, {"type": "Feature", "geometry": {"type": "Point", "coordinates": [-70.8791094734, -33.282950866134]}, "properties": {"Fecha": 1710547200000, "Hora": -2209161600000, "Tipo__CONA": "COLISION", "Causa__CON": "IMPRUDENCIA DEL CONDUCTOR", "Fallecidos": 0, "Lesionados": 0, "Graves": 0, "Zona": "URBANA"}}, {"type": "Feature", "geometry": {"type": "Point", "coordinates": [-70.8684650302, -33.2944371693339]}, "properties": {"Fecha": 1710547200000, "Hora": -2209161600000, "Tipo__CONA": "CHOQUE", "Causa__CON": "IMPRUDENCIA DEL CONDUCTOR", "Fallecidos": 0, "Lesionados": 0, "Graves": 0, "Zona": "URBANA"}}, {"type": "Feature", "geometry": {"type": "Point", "coordinates": [-70.835532, -33.3160419991336]}, "properties": {"Fecha": 1710720000000, "Hora": -2209161600000, "Tipo__CONA": "COLISION", "Causa__CON": "IMPRUDENCIA DEL CONDUCTOR", "Fallecidos": 0, "Lesionados": 0, "Graves": 0, "Zona": "URBANA"}}, {"type": "Feature", "geometry": {"type": "Point", "coordinates": [-70.879136, -33.282924999134]}, "properties": {"Fecha": 1710806400000, "Hora": -2209161600000, "Tipo__CONA": "COLISION", "Causa__CON": "IMPRUDENCIA DEL CONDUCTOR", "Fallecidos": 0, "Lesionados": 0, "Graves": 0, "Zona": "URBANA"}}, {"type": "Feature", "geometry": {"type": "Point", "coordinates": [-70.728311, -33.3156189991336]}, "properties": {"Fecha": 1710806400000, "Hora": -2209161600000, "Tipo__CONA": "COLISION", "Causa__CON": "IMPRUDENCIA DEL CONDUCTOR", "Fallecidos": 0, "Lesionados": 1, "Graves": 1, "Zona": "URBANA"}}, {"type": "Feature", "geometry": {"type": "Point", "coordinates": [-70.835532, -33.3160419991336]}, "properties": {"Fecha": 1710892800000, "Hora": -2209161600000, "Tipo__CONA": "COLISION", "Causa__CON": "IMPRUDENCIA DEL CONDUCTOR", "Fallecidos": 0, "Lesionados": 0, "Graves": 0, "Zona": "URBANA"}}, {"type": "Feature", "geometry": {"type": "Point", "coordinates": [-70.867677, -33.2909319991339]}, "properties": {"Fecha": 1711411200000, "Hora": -2209161600000, "Tipo__CONA": "COLISION", "Causa__CON": "IMPRUDENCIA DEL CONDUCTOR", "Fallecidos": 0, "Lesionados": 1, "Graves": 0, "Zona": "URBANA"}}, {"type": "Feature", "geometry": {"type": "Point", "coordinates": [-70.727671, -33.3151369991336]}, "properties": {"Fecha": 1712188800000, "Hora": -2209161600000, "Tipo__CONA": "COLISION", "Causa__CON": "IMPRUDENCIA DEL CONDUCTOR", "Fallecidos": 0, "Lesionados": 0, "Graves": 0, "Zona": "URBANA"}}, {"type": "Feature", "geometry": {"type": "Point", "coordinates": [-70.884478, -33.2997489991338]}, "properties": {"Fecha": 1712188800000, "Hora": -2209161600000, "Tipo__CONA": "COLISION", "Causa__CON": "DESOBEDIENCIA A SEÑALIZACION", "Fallecidos": 0, "Lesionados": 0, "Graves": 0, "Zona": "URBANA"}}, {"type": "Feature", "geometry": {"type": "Point", "coordinates": [-70.835532, -33.3160419991336]}, "properties": {"Fecha": 1711929600000, "Hora": -2209161600000, "Tipo__CONA": "COLISION", "Causa__CON": "IMPRUDENCIA DEL CONDUCTOR", "Fallecidos": 0, "Lesionados": 0, "Graves": 0, "Zona": "URBANA"}}, {"type": "Feature", "geometry": {"type": "Point", "coordinates": [-70.879136, -33.282924999134]}, "properties": {"Fecha": 1712102400000, "Hora": -2209161600000, "Tipo__CONA": "COLISION", "Causa__CON": "IMPRUDENCIA DEL CONDUCTOR", "Fallecidos": 0, "Lesionados": 0, "Graves": 0, "Zona": "URBANA"}}, {"type": "Feature", "geometry": {"type": "Point", "coordinates": [-70.884478, -33.2997489991338]}, "properties": {"Fecha": 1712707200000, "Hora": -2209161600000, "Tipo__CONA": "COLISION", "Causa__CON": "IMPRUDENCIA DEL CONDUCTOR", "Fallecidos": 0, "Lesionados": 1, "Graves": 0, "Zona": "URBANA"}}, {"type": "Feature", "geometry": {"type": "Point", "coordinates": [-70.807012, -33.2342839991346]}, "properties": {"Fecha": 1712707200000, "Hora": -2209161600000, "Tipo__CONA": "COLISION", "Causa__CON": "IMPRUDENCIA DEL CONDUCTOR", "Fallecidos": 0, "Lesionados": 0, "Graves": 0, "Zona": "URBANA"}}, {"type": "Feature", "geometry": {"type": "Point", "coordinates": [-70.870292, -33.2861669991339]}, "properties": {"Fecha": 1712707200000, "Hora": -2209161600000, "Tipo__CONA": "COLISION", "Causa__CON": "IMPRUDENCIA DEL CONDUCTOR", "Fallecidos": 0, "Lesionados": 1, "Graves": 0, "Zona": "URBANA"}}, {"type": "Feature", "geometry": {"type": "Point", "coordinates": [-70.728311, -33.3156189991336]}, "properties": {"Fecha": 1712793600000, "Hora": -2209161600000, "Tipo__CONA": "COLISION", "Causa__CON": "IMPRUDENCIA DEL CONDUCTOR", "Fallecidos": 0, "Lesionados": 0, "Graves": 0, "Zona": "URBANA"}}, {"type": "Feature", "geometry": {"type": "Point", "coordinates": [-70.879136, -33.282924999134]}, "properties": {"Fecha": 1712880000000, "Hora": -2209161600000, "Tipo__CONA": "COLISION", "Causa__CON": "IMPRUDENCIA DEL CONDUCTOR", "Fallecidos": 0, "Lesionados": 0, "Graves": 0, "Zona": "URBANA"}}, {"type": "Feature", "geometry": {"type": "Point", "coordinates": [-70.873191, -33.2972089991338]}, "properties": {"Fecha": 1712188800000, "Hora": -2209161600000, "Tipo__CONA": "COLISION", "Causa__CON": "IMPRUDENCIA DEL CONDUCTOR", "Fallecidos": 0, "Lesionados": 0, "Graves": 0, "Zona": "URBANA"}}, {"type": "Feature", "geometry": {"type": "Point", "coordinates": [-70.883427, -33.2876819991339]}, "properties": {"Fecha": 1712275200000, "Hora": -2209161600000, "Tipo__CONA": "COLISION", "Causa__CON": "IMPRUDENCIA DEL CONDUCTOR", "Fallecidos": 0, "Lesionados": 0, "Graves": 0, "Zona": "URBANA"}}, {"type": "Feature", "geometry": {"type": "Point", "coordinates": [-70.883427, -33.2876819991339]}, "properties": {"Fecha": 1712275200000, "Hora": -2209161600000, "Tipo__CONA": "COLISION", "Causa__CON": "IMPRUDENCIA DEL CONDUCTOR", "Fallecidos": 0, "Lesionados": 0, "Graves": 0, "Zona": "URBANA"}}, {"type": "Feature", "geometry": {"type": "Point", "coordinates": [-70.866531, -33.2945859991339]}, "properties": {"Fecha": 1712275200000, "Hora": -2209161600000, "Tipo__CONA": "COLISION", "Causa__CON": "IMPRUDENCIA DEL CONDUCTOR", "Fallecidos": 0, "Lesionados": 0, "Graves": 0, "Zona": "URBANA"}}, {"type": "Feature", "geometry": {"type": "Point", "coordinates": [-70.805944, -33.2300979991347]}, "properties": {"Fecha": 1712534400000, "Hora": -2209161600000, "Tipo__CONA": "COLISION", "Causa__CON": "IMPRUDENCIA DEL CONDUCTOR", "Fallecidos": 0, "Lesionados": 0, "Graves": 0, "Zona": "URBANA"}}, {"type": "Feature", "geometry": {"type": "Point", "coordinates": [-70.878364, -33.2961239991338]}, "properties": {"Fecha": 1713225600000, "Hora": -2209161600000, "Tipo__CONA": "COLISION", "Causa__CON": "IMPRUDENCIA DEL CONDUCTOR", "Fallecidos": 0, "Lesionados": 0, "Graves": 0, "Zona": "URBANA"}}, {"type": "Feature", "geometry": {"type": "Point", "coordinates": [-70.873495, -33.2955269991338]}, "properties": {"Fecha": 1713312000000, "Hora": -2209161600000, "Tipo__CONA": "COLISION", "Causa__CON": "IMPRUDENCIA DEL CONDUCTOR", "Fallecidos": 0, "Lesionados": 0, "Graves": 0, "Zona": "URBANA"}}, {"type": "Feature", "geometry": {"type": "Point", "coordinates": [-70.8857942331, -33.282626145134]}, "properties": {"Fecha": 1713398400000, "Hora": -2209161600000, "Tipo__CONA": "CHOQUE", "Causa__CON": "IMPRUDENCIA DEL CONDUCTOR", "Fallecidos": 0, "Lesionados": 0, "Graves": 0, "Zona": "URBANA"}}, {"type": "Feature", "geometry": {"type": "Point", "coordinates": [-70.823266, -33.3294259991334]}, "properties": {"Fecha": 1713484800000, "Hora": -2209161600000, "Tipo__CONA": "COLISION", "Causa__CON": "IMPRUDENCIA DEL CONDUCTOR", "Fallecidos": 0, "Lesionados": 1, "Graves": 0, "Zona": "URBANA"}}, {"type": "Feature", "geometry": {"type": "Point", "coordinates": [-70.732933, -33.3186309991335]}, "properties": {"Fecha": 1713744000000, "Hora": -2209161600000, "Tipo__CONA": "COLISION", "Causa__CON": "IMPRUDENCIA DEL CONDUCTOR", "Fallecidos": 0, "Lesionados": 0, "Graves": 0, "Zona": "URBANA"}}, {"type": "Feature", "geometry": {"type": "Point", "coordinates": [-70.780538, -33.2430469991345]}, "properties": {"Fecha": 1714953600000, "Hora": -2209161600000, "Tipo__CONA": "CHOQUE", "Causa__CON": "DROGAS Y/O FATIGA EN CONDUCTOR", "Fallecidos": 0, "Lesionados": 1, "Graves": 0, "Zona": "URBANA"}}, {"type": "Feature", "geometry": {"type": "Point", "coordinates": [-70.721655, -33.3207679991335]}, "properties": {"Fecha": 1714089600000, "Hora": -2209161600000, "Tipo__CONA": "COLISION", "Causa__CON": "IMPRUDENCIA DEL CONDUCTOR", "Fallecidos": 0, "Lesionados": 1, "Graves": 0, "Zona": "URBANA"}}, {"type": "Feature", "geometry": {"type": "Point", "coordinates": [-70.8697092772, -33.281931707834]}, "properties": {"Fecha": 1714348800000, "Hora": -2209161600000, "Tipo__CONA": "COLISION", "Causa__CON": "IMPRUDENCIA DEL CONDUCTOR", "Fallecidos": 0, "Lesionados": 0, "Graves": 0, "Zona": "URBANA"}}, {"type": "Feature", "geometry": {"type": "Point", "coordinates": [-70.8868227518, -33.2748107355341]}, "properties": {"Fecha": 1715040000000, "Hora": -2209161600000, "Tipo__CONA": "COLISION", "Causa__CON": "IMPRUDENCIA DEL CONDUCTOR", "Fallecidos": 0, "Lesionados": 0, "Graves": 0, "Zona": "URBANA"}}, {"type": "Feature", "geometry": {"type": "Point", "coordinates": [-70.8791094734, -33.282950866134]}, "properties": {"Fecha": 1713916800000, "Hora": -2209161600000, "Tipo__CONA": "COLISION", "Causa__CON": "IMPRUDENCIA DEL CONDUCTOR", "Fallecidos": 0, "Lesionados": 0, "Graves": 0, "Zona": "URBANA"}}, {"type": "Feature", "geometry": {"type": "Point", "coordinates": [-70.76473, -33.3292049991334]}, "properties": {"Fecha": 1715126400000, "Hora": -2209161600000, "Tipo__CONA": "COLISION", "Causa__CON": "IMPRUDENCIA DEL CONDUCTOR", "Fallecidos": 0, "Lesionados": 1, "Graves": 0, "Zona": "URBANA"}}, {"type": "Feature", "geometry": {"type": "Point", "coordinates": [-70.813219, -33.2372179991346]}, "properties": {"Fecha": 1715126400000, "Hora": -2209161600000, "Tipo__CONA": "COLISION", "Causa__CON": "IMPRUDENCIA DEL CONDUCTOR", "Fallecidos": 0, "Lesionados": 1, "Graves": 0, "Zona": "URBANA"}}, {"type": "Feature", "geometry": {"type": "Point", "coordinates": [-70.877744, -33.285679999134]}, "properties": {"Fecha": 1715817600000, "Hora": -2209161600000, "Tipo__CONA": "COLISION", "Causa__CON": "IMPRUDENCIA DEL CONDUCTOR", "Fallecidos": 0, "Lesionados": 0, "Graves": 0, "Zona": "URBANA"}}, {"type": "Feature", "geometry": {"type": "Point", "coordinates": [-70.8753719007, -33.2861357370339]}, "properties": {"Fecha": 1715040000000, "Hora": -2209161600000, "Tipo__CONA": "COLISION", "Causa__CON": "IMPRUDENCIA DEL CONDUCTOR", "Fallecidos": 0, "Lesionados": 0, "Graves": 0, "Zona": "URBANA"}}, {"type": "Feature", "geometry": {"type": "Point", "coordinates": [-70.774243, -33.2891689991339]}, "properties": {"Fecha": 1715990400000, "Hora": -2209161600000, "Tipo__CONA": "COLISION", "Causa__CON": "IMPRUDENCIA DEL CONDUCTOR", "Fallecidos": 0, "Lesionados": 0, "Graves": 0, "Zona": "URBANA"}}, {"type": "Feature", "geometry": {"type": "Point", "coordinates": [-70.878217, -33.2921999991339]}, "properties": {"Fecha": 1716163200000, "Hora": -2209161600000, "Tipo__CONA": "COLISION", "Causa__CON": "IMPRUDENCIA DEL CONDUCTOR", "Fallecidos": 0, "Lesionados": 1, "Graves": 0, "Zona": "URBANA"}}, {"type": "Feature", "geometry": {"type": "Point", "coordinates": [-70.794221, -33.357142799133]}, "properties": {"Fecha": 1715212800000, "Hora": -2209161600000, "Tipo__CONA": "COLISION", "Causa__CON": "IMPRUDENCIA DEL CONDUCTOR", "Fallecidos": 0, "Lesionados": 0, "Graves": 0, "Zona": "URBANA"}}, {"type": "Feature", "geometry": {"type": "Point", "coordinates": [-70.867677, -33.2909319991339]}, "properties": {"Fecha": 1716336000000, "Hora": -2209161600000, "Tipo__CONA": "COLISION", "Causa__CON": "IMPRUDENCIA DEL CONDUCTOR", "Fallecidos": 0, "Lesionados": 0, "Graves": 0, "Zona": "URBANA"}}, {"type": "Feature", "geometry": {"type": "Point", "coordinates": [-70.868694, -33.2945019991338]}, "properties": {"Fecha": 1716422400000, "Hora": -2209161600000, "Tipo__CONA": "ATROPELLO", "Causa__CON": "IMPRUDENCIA DEL CONDUCTOR", "Fallecidos": 0, "Lesionados": 1, "Graves": 0, "Zona": "URBANA"}}, {"type": "Feature", "geometry": {"type": "Point", "coordinates": [-70.8702636557, -33.282637346734]}, "properties": {"Fecha": 1716595200000, "Hora": -2209161600000, "Tipo__CONA": "COLISION", "Causa__CON": "IMPRUDENCIA DEL CONDUCTOR", "Fallecidos": 0, "Lesionados": 0, "Graves": 0, "Zona": "URBANA"}}, {"type": "Feature", "geometry": {"type": "Point", "coordinates": [-70.841718, -33.3499089991331]}, "properties": {"Fecha": 1715472000000, "Hora": -2209161600000, "Tipo__CONA": "COLISION", "Causa__CON": "IMPRUDENCIA DEL CONDUCTOR", "Fallecidos": 0, "Lesionados": 0, "Graves": 0, "Zona": "URBANA"}}, {"type": "Feature", "geometry": {"type": "Point", "coordinates": [-70.879136, -33.282924999134]}, "properties": {"Fecha": 1715040000000, "Hora": -2209161600000, "Tipo__CONA": "COLISION", "Causa__CON": "IMPRUDENCIA DEL CONDUCTOR", "Fallecidos": 0, "Lesionados": 0, "Graves": 0, "Zona": "URBANA"}}, {"type": "Feature", "geometry": {"type": "Point", "coordinates": [-70.8805150507, -33.2858511311339]}, "properties": {"Fecha": 1715817600000, "Hora": -2209161600000, "Tipo__CONA": "COLISION", "Causa__CON": "IMPRUDENCIA DEL CONDUCTOR", "Fallecidos": 0, "Lesionados": 0, "Graves": 0, "Zona": "URBANA"}}, {"type": "Feature", "geometry": {"type": "Point", "coordinates": [-70.7852501994, -33.280573098334]}, "properties": {"Fecha": 1717459200000, "Hora": -2209161600000, "Tipo__CONA": "COLISION", "Causa__CON": "IMPRUDENCIA DEL CONDUCTOR", "Fallecidos": 0, "Lesionados": 0, "Graves": 0, "Zona": "URBANA"}}, {"type": "Feature", "geometry": {"type": "Point", "coordinates": [-70.8054, -33.2340339991346]}, "properties": {"Fecha": 1717545600000, "Hora": -2209161600000, "Tipo__CONA": "COLISION", "Causa__CON": "IMPRUDENCIA DEL CONDUCTOR", "Fallecidos": 0, "Lesionados": 0, "Graves": 0, "Zona": "URBANA"}}, {"type": "Feature", "geometry": {"type": "Point", "coordinates": [-70.883427, -33.2876819991339]}, "properties": {"Fecha": 1717632000000, "Hora": -2209161600000, "Tipo__CONA": "COLISION", "Causa__CON": "IMPRUDENCIA DEL CONDUCTOR", "Fallecidos": 0, "Lesionados": 0, "Graves": 0, "Zona": "URBANA"}}, {"type": "Feature", "geometry": {"type": "Point", "coordinates": [-70.765664, -33.2872069991339]}, "properties": {"Fecha": 1713571200000, "Hora": -2209161600000, "Tipo__CONA": "COLISION", "Causa__CON": "IMPRUDENCIA DEL CONDUCTOR", "Fallecidos": 0, "Lesionados": 0, "Graves": 0, "Zona": "URBANA"}}, {"type": "Feature", "geometry": {"type": "Point", "coordinates": [-70.880103, -33.2959069991338]}, "properties": {"Fecha": 1717718400000, "Hora": -2209161600000, "Tipo__CONA": "COLISION", "Causa__CON": "IMPRUDENCIA DEL CONDUCTOR", "Fallecidos": 0, "Lesionados": 1, "Graves": 0, "Zona": "URBANA"}}, {"type": "Feature", "geometry": {"type": "Point", "coordinates": [-70.8691390006, -33.2902803621339]}, "properties": {"Fecha": 1718150400000, "Hora": -2209161600000, "Tipo__CONA": "COLISION", "Causa__CON": "IMPRUDENCIA DEL CONDUCTOR", "Fallecidos": 0, "Lesionados": 0, "Graves": 0, "Zona": "URBANA"}}, {"type": "Feature", "geometry": {"type": "Point", "coordinates": [-70.8791094734, -33.282950866134]}, "properties": {"Fecha": 1718150400000, "Hora": -2209161600000, "Tipo__CONA": "COLISION", "Causa__CON": "IMPRUDENCIA DEL CONDUCTOR", "Fallecidos": 0, "Lesionados": 1, "Graves": 0, "Zona": "URBANA"}}, {"type": "Feature", "geometry": {"type": "Point", "coordinates": [-70.872097, -33.2864869991339]}, "properties": {"Fecha": 1717977600000, "Hora": -2209161600000, "Tipo__CONA": "COLISION", "Causa__CON": "IMPRUDENCIA DEL CONDUCTOR", "Fallecidos": 0, "Lesionados": 0, "Graves": 0, "Zona": "URBANA"}}, {"type": "Feature", "geometry": {"type": "Point", "coordinates": [-70.8806611114, -33.285292723934]}, "properties": {"Fecha": 1717977600000, "Hora": -2209161600000, "Tipo__CONA": "ATROPELLO", "Causa__CON": "IMPRUDENCIA DEL CONDUCTOR", "Fallecidos": 0, "Lesionados": 1, "Graves": 0, "Zona": "URBANA"}}, {"type": "Feature", "geometry": {"type": "Point", "coordinates": [-70.805944, -33.2300979991347]}, "properties": {"Fecha": 1717200000000, "Hora": -2209161600000, "Tipo__CONA": "COLISION", "Causa__CON": "IMPRUDENCIA DEL CONDUCTOR", "Fallecidos": 0, "Lesionados": 0, "Graves": 0, "Zona": "URBANA"}}, {"type": "Feature", "geometry": {"type": "Point", "coordinates": [-70.874359, -33.279979999134]}, "properties": {"Fecha": 1718496000000, "Hora": -2209161600000, "Tipo__CONA": "COLISION", "Causa__CON": "IMPRUDENCIA DEL CONDUCTOR", "Fallecidos": 0, "Lesionados": 0, "Graves": 0, "Zona": "URBANA"}}, {"type": "Feature", "geometry": {"type": "Point", "coordinates": [-70.8791094734, -33.282950866134]}, "properties": {"Fecha": 1718928000000, "Hora": -2209161600000, "Tipo__CONA": "ATROPELLO", "Causa__CON": "IMPRUDENCIA DEL CONDUCTOR", "Fallecidos": 1, "Lesionados": 0, "Graves": 0, "Zona": "URBANA"}}, {"type": "Feature", "geometry": {"type": "Point", "coordinates": [-70.882079, -33.286940999134]}, "properties": {"Fecha": 1719705600000, "Hora": -2209161600000, "Tipo__CONA": "ATROPELLO", "Causa__CON": "IMPRUDENCIA DEL CONDUCTOR", "Fallecidos": 1, "Lesionados": 0, "Graves": 0, "Zona": "URBANA"}}, {"type": "Feature", "geometry": {"type": "Point", "coordinates": [-70.711846, -33.3388559991333]}, "properties": {"Fecha": 1719878400000, "Hora": -2209161600000, "Tipo__CONA": "COLISION", "Causa__CON": "IMPRUDENCIA DEL CONDUCTOR", "Fallecidos": 0, "Lesionados": 0, "Graves": 0, "Zona": "URBANA"}}, {"type": "Feature", "geometry": {"type": "Point", "coordinates": [-70.8783975319, -33.284002702234]}, "properties": {"Fecha": 1719964800000, "Hora": -2209161600000, "Tipo__CONA": "COLISION", "Causa__CON": "IMPRUDENCIA DEL CONDUCTOR", "Fallecidos": 0, "Lesionados": 0, "Graves": 0, "Zona": "URBANA"}}, {"type": "Feature", "geometry": {"type": "Point", "coordinates": [-70.8791094734, -33.282950866134]}, "properties": {"Fecha": 1718841600000, "Hora": -2209161600000, "Tipo__CONA": "CHOQUE", "Causa__CON": "IMPRUDENCIA DEL CONDUCTOR", "Fallecidos": 0, "Lesionados": 0, "Graves": 0, "Zona": "URBANA"}}, {"type": "Feature", "geometry": {"type": "Point", "coordinates": [-70.7577463049, -33.282746454434]}, "properties": {"Fecha": 1718928000000, "Hora": -2209161600000, "Tipo__CONA": "COLISION", "Causa__CON": "IMPRUDENCIA DEL CONDUCTOR", "Fallecidos": 0, "Lesionados": 0, "Graves": 0, "Zona": "URBANA"}}, {"type": "Feature", "geometry": {"type": "Point", "coordinates": [-70.7456747006, -33.2726303998341]}, "properties": {"Fecha": 1719446400000, "Hora": -2209161600000, "Tipo__CONA": "COLISION", "Causa__CON": "IMPRUDENCIA DEL CONDUCTOR", "Fallecidos": 0, "Lesionados": 0, "Graves": 0, "Zona": "URBANA"}}, {"type": "Feature", "geometry": {"type": "Point", "coordinates": [-70.866531, -33.2945859991339]}, "properties": {"Fecha": 1719446400000, "Hora": -2209161600000, "Tipo__CONA": "COLISION", "Causa__CON": "IMPRUDENCIA DEL CONDUCTOR", "Fallecidos": 0, "Lesionados": 0, "Graves": 0, "Zona": "URBANA"}}, {"type": "Feature", "geometry": {"type": "Point", "coordinates": [-70.812451, -33.2330799991346]}, "properties": {"Fecha": 1719705600000, "Hora": -2209161600000, "Tipo__CONA": "COLISION", "Causa__CON": "IMPRUDENCIA DEL CONDUCTOR", "Fallecidos": 0, "Lesionados": 0, "Graves": 0, "Zona": "URBANA"}}, {"type": "Feature", "geometry": {"type": "Point", "coordinates": [-70.879571177, -33.2885047854339]}, "properties": {"Fecha": 1719792000000, "Hora": -2209161600000, "Tipo__CONA": "COLISION", "Causa__CON": "IMPRUDENCIA DEL CONDUCTOR", "Fallecidos": 0, "Lesionados": 0, "Graves": 0, "Zona": "URBANA"}}, {"type": "Feature", "geometry": {"type": "Point", "coordinates": [-70.8689020549, -33.2882878993339]}, "properties": {"Fecha": 1719792000000, "Hora": -2209161600000, "Tipo__CONA": "ATROPELLO", "Causa__CON": "ALCOHOL EN CONDUCTOR", "Fallecidos": 1, "Lesionados": 1, "Graves": 0, "Zona": "URBANA"}}, {"type": "Feature", "geometry": {"type": "Point", "coordinates": [-70.742701, -33.2737879991341]}, "properties": {"Fecha": 1720137600000, "Hora": -2209161600000, "Tipo__CONA": "COLISION", "Causa__CON": "IMPRUDENCIA DEL CONDUCTOR", "Fallecidos": 0, "Lesionados": 0, "Graves": 0, "Zona": "URBANA"}}, {"type": "Feature", "geometry": {"type": "Point", "coordinates": [-70.877911, -33.2899039991339]}, "properties": {"Fecha": 1720137600000, "Hora": -2209161600000, "Tipo__CONA": "COLISION", "Causa__CON": "ALCOHOL EN CONDUCTOR", "Fallecidos": 0, "Lesionados": 0, "Graves": 0, "Zona": "URBANA"}}, {"type": "Feature", "geometry": {"type": "Point", "coordinates": [-70.743151, -33.3242669991335]}, "properties": {"Fecha": 1720224000000, "Hora": -2209161600000, "Tipo__CONA": "COLISION", "Causa__CON": "IMPRUDENCIA DEL CONDUCTOR", "Fallecidos": 0, "Lesionados": 0, "Graves": 0, "Zona": "URBANA"}}, {"type": "Feature", "geometry": {"type": "Point", "coordinates": [-70.8701509797, -33.282520999234]}, "properties": {"Fecha": 1720224000000, "Hora": -2209161600000, "Tipo__CONA": "COLISION", "Causa__CON": "IMPRUDENCIA DEL CONDUCTOR", "Fallecidos": 0, "Lesionados": 0, "Graves": 0, "Zona": "URBANA"}}, {"type": "Feature", "geometry": {"type": "Point", "coordinates": [-70.879136, -33.282924999134]}, "properties": {"Fecha": 1720396800000, "Hora": -2209161600000, "Tipo__CONA": "COLISION", "Causa__CON": "IMPRUDENCIA DEL CONDUCTOR", "Fallecidos": 0, "Lesionados": 0, "Graves": 0, "Zona": "URBANA"}}, {"type": "Feature", "geometry": {"type": "Point", "coordinates": [-70.7426176708, -33.2720216565341]}, "properties": {"Fecha": 1720742400000, "Hora": -2209161600000, "Tipo__CONA": "COLISION", "Causa__CON": "IMPRUDENCIA DEL CONDUCTOR", "Fallecidos": 0, "Lesionados": 0, "Graves": 0, "Zona": "URBANA"}}, {"type": "Feature", "geometry": {"type": "Point", "coordinates": [-70.882079, -33.286940999134]}, "properties": {"Fecha": 1719705600000, "Hora": -2209161600000, "Tipo__CONA": "COLISION", "Causa__CON": "IMPRUDENCIA DEL CONDUCTOR", "Fallecidos": 0, "Lesionados": 0, "Graves": 0, "Zona": "URBANA"}}, {"type": "Feature", "geometry": {"type": "Point", "coordinates": [-70.8777679237, -33.2961335301338]}, "properties": {"Fecha": 1722902400000, "Hora": -2209161600000, "Tipo__CONA": "COLISION", "Causa__CON": "IMPRUDENCIA DEL CONDUCTOR", "Fallecidos": 0, "Lesionados": 0, "Graves": 0, "Zona": "URBANA"}}, {"type": "Feature", "geometry": {"type": "Point", "coordinates": [-70.728311, -33.3156189991336]}, "properties": {"Fecha": 1722556800000, "Hora": -2209161600000, "Tipo__CONA": "COLISION", "Causa__CON": "IMPRUDENCIA DEL CONDUCTOR", "Fallecidos": 0, "Lesionados": 0, "Graves": 0, "Zona": "URBANA"}}, {"type": "Feature", "geometry": {"type": "Point", "coordinates": [-70.872097, -33.2864869991339]}, "properties": {"Fecha": 1722816000000, "Hora": -2209161600000, "Tipo__CONA": "COLISION", "Causa__CON": "IMPRUDENCIA DEL CONDUCTOR", "Fallecidos": 0, "Lesionados": 0, "Graves": 0, "Zona": "URBANA"}}, {"type": "Feature", "geometry": {"type": "Point", "coordinates": [-70.763721, -33.2489629991345]}, "properties": {"Fecha": 1720828800000, "Hora": -2209161600000, "Tipo__CONA": "COLISION", "Causa__CON": "IMPRUDENCIA DEL CONDUCTOR", "Fallecidos": 0, "Lesionados": 0, "Graves": 0, "Zona": "URBANA"}}, {"type": "Feature", "geometry": {"type": "Point", "coordinates": [-70.732495, -33.2955349991338]}, "properties": {"Fecha": 1721001600000, "Hora": -2209161600000, "Tipo__CONA": "COLISION", "Causa__CON": "IMPRUDENCIA DEL CONDUCTOR", "Fallecidos": 0, "Lesionados": 0, "Graves": 0, "Zona": "URBANA"}}, {"type": "Feature", "geometry": {"type": "Point", "coordinates": [-70.743151, -33.3242669991335]}, "properties": {"Fecha": 1721347200000, "Hora": -2209161600000, "Tipo__CONA": "COLISION", "Causa__CON": "IMPRUDENCIA DEL CONDUCTOR", "Fallecidos": 0, "Lesionados": 1, "Graves": 0, "Zona": "URBANA"}}, {"type": "Feature", "geometry": {"type": "Point", "coordinates": [-70.879139, -33.282954999134]}, "properties": {"Fecha": 1721347200000, "Hora": -2209161600000, "Tipo__CONA": "COLISION", "Causa__CON": "IMPRUDENCIA DEL CONDUCTOR", "Fallecidos": 0, "Lesionados": 0, "Graves": 0, "Zona": "URBANA"}}, {"type": "Feature", "geometry": {"type": "Point", "coordinates": [-70.8867136367, -33.2887581298339]}, "properties": {"Fecha": 1721433600000, "Hora": -2209161600000, "Tipo__CONA": "COLISION", "Causa__CON": "IMPRUDENCIA DEL CONDUCTOR", "Fallecidos": 0, "Lesionados": 0, "Graves": 0, "Zona": "URBANA"}}, {"type": "Feature", "geometry": {"type": "Point", "coordinates": [-70.870215, -33.282458999134]}, "properties": {"Fecha": 1721606400000, "Hora": -2209161600000, "Tipo__CONA": "COLISION", "Causa__CON": "IMPRUDENCIA DEL CONDUCTOR", "Fallecidos": 0, "Lesionados": 0, "Graves": 0, "Zona": "URBANA"}}, {"type": "Feature", "geometry": {"type": "Point", "coordinates": [-70.746915, -33.3240929991335]}, "properties": {"Fecha": 1721520000000, "Hora": -2209161600000, "Tipo__CONA": "ATROPELLO", "Causa__CON": "IMPRUDENCIA DEL CONDUCTOR", "Fallecidos": 0, "Lesionados": 0, "Graves": 0, "Zona": "URBANA"}}, {"type": "Feature", "geometry": {"type": "Point", "coordinates": [-70.870912, -33.280580999134]}, "properties": {"Fecha": 1722038400000, "Hora": -2209161600000, "Tipo__CONA": "CHOQUE", "Causa__CON": "IMPRUDENCIA DEL CONDUCTOR", "Fallecidos": 0, "Lesionados": 0, "Graves": 0, "Zona": "URBANA"}}, {"type": "Feature", "geometry": {"type": "Point", "coordinates": [-70.7244544782, -33.3113193743336]}, "properties": {"Fecha": 1722384000000, "Hora": -2209161600000, "Tipo__CONA": "COLISION", "Causa__CON": "IMPRUDENCIA DEL CONDUCTOR", "Fallecidos": 0, "Lesionados": 0, "Graves": 0, "Zona": "URBANA"}}, {"type": "Feature", "geometry": {"type": "Point", "coordinates": [-70.751098, -33.3256329991334]}, "properties": {"Fecha": 1721779200000, "Hora": -2209161600000, "Tipo__CONA": "COLISION", "Causa__CON": "IMPRUDENCIA DEL CONDUCTOR", "Fallecidos": 0, "Lesionados": 1, "Graves": 0, "Zona": "URBANA"}}, {"type": "Feature", "geometry": {"type": "Point", "coordinates": [-70.880103, -33.2959069991338]}, "properties": {"Fecha": 1724284800000, "Hora": -2209161600000, "Tipo__CONA": "COLISION", "Causa__CON": "IMPRUDENCIA DEL CONDUCTOR", "Fallecidos": 0, "Lesionados": 0, "Graves": 0, "Zona": "URBANA"}}, {"type": "Feature", "geometry": {"type": "Point", "coordinates": [-70.724364, -33.3134759991336]}, "properties": {"Fecha": 1724284800000, "Hora": -2209161600000, "Tipo__CONA": "COLISION", "Causa__CON": "IMPRUDENCIA DEL CONDUCTOR", "Fallecidos": 0, "Lesionados": 0, "Graves": 0, "Zona": "URBANA"}}, {"type": "Feature", "geometry": {"type": "Point", "coordinates": [-70.867463, -33.2765439991341]}, "properties": {"Fecha": 1724284800000, "Hora": -2209161600000, "Tipo__CONA": "COLISION", "Causa__CON": "IMPRUDENCIA DEL CONDUCTOR", "Fallecidos": 0, "Lesionados": 0, "Graves": 0, "Zona": "URBANA"}}, {"type": "Feature", "geometry": {"type": "Point", "coordinates": [-70.746915, -33.3240929991335]}, "properties": {"Fecha": 1724457600000, "Hora": -2209161600000, "Tipo__CONA": "CHOQUE", "Causa__CON": "IMPRUDENCIA DEL CONDUCTOR", "Fallecidos": 0, "Lesionados": 1, "Graves": 0, "Zona": "URBANA"}}, {"type": "Feature", "geometry": {"type": "Point", "coordinates": [-70.8791094734, -33.282950866134]}, "properties": {"Fecha": 1724457600000, "Hora": -2209161600000, "Tipo__CONA": "CHOQUE", "Causa__CON": "IMPRUDENCIA DEL CONDUCTOR", "Fallecidos": 0, "Lesionados": 0, "Graves": 0, "Zona": "URBANA"}}, {"type": "Feature", "geometry": {"type": "Point", "coordinates": [-70.8791094734, -33.282950866134]}, "properties": {"Fecha": 1724371200000, "Hora": -2209161600000, "Tipo__CONA": "COLISION", "Causa__CON": "IMPRUDENCIA DEL CONDUCTOR", "Fallecidos": 0, "Lesionados": 0, "Graves": 0, "Zona": "URBANA"}}, {"type": "Feature", "geometry": {"type": "Point", "coordinates": [-70.8791094734, -33.282950866134]}, "properties": {"Fecha": 1724889600000, "Hora": -2209161600000, "Tipo__CONA": "COLISION", "Causa__CON": "IMPRUDENCIA DEL CONDUCTOR", "Fallecidos": 0, "Lesionados": 0, "Graves": 0, "Zona": "URBANA"}}, {"type": "Feature", "geometry": {"type": "Point", "coordinates": [-70.725724, -33.3243959991335]}, "properties": {"Fecha": 1725235200000, "Hora": -2209161600000, "Tipo__CONA": "CHOQUE", "Causa__CON": "IMPRUDENCIA DEL CONDUCTOR", "Fallecidos": 0, "Lesionados": 0, "Graves": 0, "Zona": "URBANA"}}, {"type": "Feature", "geometry": {"type": "Point", "coordinates": [-70.880103, -33.2959069991338]}, "properties": {"Fecha": 1725321600000, "Hora": -2209161600000, "Tipo__CONA": "COLISION", "Causa__CON": "IMPRUDENCIA DEL CONDUCTOR", "Fallecidos": 0, "Lesionados": 0, "Graves": 0, "Zona": "URBANA"}}, {"type": "Feature", "geometry": {"type": "Point", "coordinates": [-70.726771, -33.3151379991336]}, "properties": {"Fecha": 1725321600000, "Hora": -2209161600000, "Tipo__CONA": "COLISION", "Causa__CON": "IMPRUDENCIA DEL CONDUCTOR", "Fallecidos": 0, "Lesionados": 0, "Graves": 0, "Zona": "URBANA"}}, {"type": "Feature", "geometry": {"type": "Point", "coordinates": [-70.8848842048, -33.281169492734]}, "properties": {"Fecha": 1725408000000, "Hora": -2209161600000, "Tipo__CONA": "COLISION", "Causa__CON": "IMPRUDENCIA DEL CONDUCTOR", "Fallecidos": 0, "Lesionados": 0, "Graves": 0, "Zona": "URBANA"}}, {"type": "Feature", "geometry": {"type": "Point", "coordinates": [-70.8752538986, -33.286163200534]}, "properties": {"Fecha": 1725580800000, "Hora": -2209161600000, "Tipo__CONA": "COLISION", "Causa__CON": "IMPRUDENCIA DEL CONDUCTOR", "Fallecidos": 0, "Lesionados": 0, "Graves": 0, "Zona": "URBANA"}}, {"type": "Feature", "geometry": {"type": "Point", "coordinates": [-70.8791094734, -33.282950866134]}, "properties": {"Fecha": 1725494400000, "Hora": -2209161600000, "Tipo__CONA": "COLISION", "Causa__CON": "IMPRUDENCIA DEL CONDUCTOR", "Fallecidos": 0, "Lesionados": 0, "Graves": 0, "Zona": "URBANA"}}, {"type": "Feature", "geometry": {"type": "Point", "coordinates": [-70.884813, -33.283826999134]}, "properties": {"Fecha": 1725667200000, "Hora": -2209161600000, "Tipo__CONA": "COLISION", "Causa__CON": "IMPRUDENCIA DEL CONDUCTOR", "Fallecidos": 0, "Lesionados": 0, "Graves": 0, "Zona": "URBANA"}}, {"type": "Feature", "geometry": {"type": "Point", "coordinates": [-70.728311, -33.3156189991336]}, "properties": {"Fecha": 1726099200000, "Hora": -2209161600000, "Tipo__CONA": "COLISION", "Causa__CON": "IMPRUDENCIA DEL CONDUCTOR", "Fallecidos": 0, "Lesionados": 0, "Graves": 0, "Zona": "URBANA"}}, {"type": "Feature", "geometry": {"type": "Point", "coordinates": [-70.7553913903, -33.2425991091345]}, "properties": {"Fecha": 1726272000000, "Hora": -2209161600000, "Tipo__CONA": "CHOQUE", "Causa__CON": "IMPRUDENCIA DEL CONDUCTOR", "Fallecidos": 0, "Lesionados": 0, "Graves": 0, "Zona": "URBANA"}}, {"type": "Feature", "geometry": {"type": "Point", "coordinates": [-70.874421, -33.2880789991339]}, "properties": {"Fecha": 1726358400000, "Hora": -2209161600000, "Tipo__CONA": "COLISION", "Causa__CON": "IMPRUDENCIA DEL CONDUCTOR", "Fallecidos": 0, "Lesionados": 0, "Graves": 0, "Zona": "URBANA"}}, {"type": "Feature", "geometry": {"type": "Point", "coordinates": [-70.8525327108, -33.3043060301337]}, "properties": {"Fecha": 1726704000000, "Hora": -2209161600000, "Tipo__CONA": "COLISION", "Causa__CON": "IMPRUDENCIA DEL CONDUCTOR", "Fallecidos": 0, "Lesionados": 0, "Graves": 0, "Zona": "URBANA"}}, {"type": "Feature", "geometry": {"type": "Point", "coordinates": [-70.8791094734, -33.282950866134]}, "properties": {"Fecha": 1726790400000, "Hora": -2209161600000, "Tipo__CONA": "COLISION", "Causa__CON": "IMPRUDENCIA DEL CONDUCTOR", "Fallecidos": 0, "Lesionados": 0, "Graves": 0, "Zona": "URBANA"}}, {"type": "Feature", "geometry": {"type": "Point", "coordinates": [-70.711846, -33.3388559991333]}, "properties": {"Fecha": 1727049600000, "Hora": -2209161600000, "Tipo__CONA": "COLISION", "Causa__CON": "IMPRUDENCIA DEL CONDUCTOR", "Fallecidos": 0, "Lesionados": 0, "Graves": 0, "Zona": "URBANA"}}, {"type": "Feature", "geometry": {"type": "Point", "coordinates": [-70.7345242547, -33.2909328524339]}, "properties": {"Fecha": 1727049600000, "Hora": -2209161600000, "Tipo__CONA": "COLISION", "Causa__CON": "IMPRUDENCIA DEL CONDUCTOR", "Fallecidos": 0, "Lesionados": 0, "Graves": 0, "Zona": "URBANA"}}, {"type": "Feature", "geometry": {"type": "Point", "coordinates": [-70.8791094734, -33.282950866134]}, "properties": {"Fecha": 1727913600000, "Hora": -2209161600000, "Tipo__CONA": "COLISION", "Causa__CON": "IMPRUDENCIA DEL CONDUCTOR", "Fallecidos": 0, "Lesionados": 0, "Graves": 0, "Zona": "URBANA"}}, {"type": "Feature", "geometry": {"type": "Point", "coordinates": [-70.743151, -33.3242669991335]}, "properties": {"Fecha": 1728000000000, "Hora": -2209161600000, "Tipo__CONA": "COLISION", "Causa__CON": "IMPRUDENCIA DEL CONDUCTOR", "Fallecidos": 0, "Lesionados": 0, "Graves": 0, "Zona": "URBANA"}}, {"type": "Feature", "geometry": {"type": "Point", "coordinates": [-70.728311, -33.3156189991336]}, "properties": {"Fecha": 1728172800000, "Hora": -2209161600000, "Tipo__CONA": "COLISION", "Causa__CON": "IMPRUDENCIA DEL CONDUCTOR", "Fallecidos": 0, "Lesionados": 0, "Graves": 0, "Zona": "URBANA"}}, {"type": "Feature", "geometry": {"type": "Point", "coordinates": [-70.8791094734, -33.282950866134]}, "properties": {"Fecha": 1727654400000, "Hora": -2209161600000, "Tipo__CONA": "CHOQUE", "Causa__CON": "IMPRUDENCIA DEL CONDUCTOR", "Fallecidos": 0, "Lesionados": 1, "Graves": 0, "Zona": "URBANA"}}, {"type": "Feature", "geometry": {"type": "Point", "coordinates": [-70.880103, -33.2959069991338]}, "properties": {"Fecha": 1727654400000, "Hora": -2209161600000, "Tipo__CONA": "CHOQUE", "Causa__CON": "IMPRUDENCIA DEL CONDUCTOR", "Fallecidos": 0, "Lesionados": 0, "Graves": 0, "Zona": "URBANA"}}, {"type": "Feature", "geometry": {"type": "Point", "coordinates": [-70.724364, -33.3134759991336]}, "properties": {"Fecha": 1727827200000, "Hora": -2209161600000, "Tipo__CONA": "COLISION", "Causa__CON": "IMPRUDENCIA DEL CONDUCTOR", "Fallecidos": 0, "Lesionados": 0, "Graves": 0, "Zona": "URBANA"}}, {"type": "Feature", "geometry": {"type": "Point", "coordinates": [-70.878364, -33.2961239991338]}, "properties": {"Fecha": 1729468800000, "Hora": -2209161600000, "Tipo__CONA": "COLISION", "Causa__CON": "IMPRUDENCIA DEL CONDUCTOR", "Fallecidos": 0, "Lesionados": 0, "Graves": 0, "Zona": "URBANA"}}, {"type": "Feature", "geometry": {"type": "Point", "coordinates": [-70.868694, -33.2945019991338]}, "properties": {"Fecha": 1729555200000, "Hora": -2209161600000, "Tipo__CONA": "COLISION", "Causa__CON": "IMPRUDENCIA DEL CONDUCTOR", "Fallecidos": 0, "Lesionados": 0, "Graves": 0, "Zona": "URBANA"}}, {"type": "Feature", "geometry": {"type": "Point", "coordinates": [-70.805591211, -33.2323253424346]}, "properties": {"Fecha": 1729555200000, "Hora": -2209161600000, "Tipo__CONA": "CHOQUE", "Causa__CON": "ALCOHOL EN CONDUCTOR", "Fallecidos": 0, "Lesionados": 0, "Graves": 0, "Zona": "URBANA"}}, {"type": "Feature", "geometry": {"type": "Point", "coordinates": [-70.879095, -33.2768019991341]}, "properties": {"Fecha": 1728950400000, "Hora": -2209161600000, "Tipo__CONA": "COLISION", "Causa__CON": "IMPRUDENCIA DEL CONDUCTOR", "Fallecidos": 0, "Lesionados": 0, "Graves": 0, "Zona": "URBANA"}}, {"type": "Feature", "geometry": {"type": "Point", "coordinates": [-70.879136, -33.282924999134]}, "properties": {"Fecha": 1730419200000, "Hora": -2209161600000, "Tipo__CONA": "COLISION", "Causa__CON": "IMPRUDENCIA DEL CONDUCTOR", "Fallecidos": 0, "Lesionados": 0, "Graves": 0, "Zona": "URBANA"}}, {"type": "Feature", "geometry": {"type": "Point", "coordinates": [-70.8785648554, -33.2857706854339]}, "properties": {"Fecha": 1730505600000, "Hora": -2209161600000, "Tipo__CONA": "COLISION", "Causa__CON": "IMPRUDENCIA DEL CONDUCTOR", "Fallecidos": 0, "Lesionados": 0, "Graves": 0, "Zona": "URBANA"}}, {"type": "Feature", "geometry": {"type": "Point", "coordinates": [-70.805793, -33.2310599991347]}, "properties": {"Fecha": 1730505600000, "Hora": -2209161600000, "Tipo__CONA": "COLISION", "Causa__CON": "IMPRUDENCIA DEL CONDUCTOR", "Fallecidos": 0, "Lesionados": 0, "Graves": 0, "Zona": "URBANA"}}, {"type": "Feature", "geometry": {"type": "Point", "coordinates": [-70.724364, -33.3134759991336]}, "properties": {"Fecha": 1729555200000, "Hora": -2209161600000, "Tipo__CONA": "COLISION", "Causa__CON": "IMPRUDENCIA DEL CONDUCTOR", "Fallecidos": 0, "Lesionados": 0, "Graves": 0, "Zona": "URBANA"}}, {"type": "Feature", "geometry": {"type": "Point", "coordinates": [-70.888829, -33.280862999134]}, "properties": {"Fecha": 1729900800000, "Hora": -2209161600000, "Tipo__CONA": "COLISION", "Causa__CON": "IMPRUDENCIA DEL CONDUCTOR", "Fallecidos": 0, "Lesionados": 0, "Graves": 0, "Zona": "URBANA"}}, {"type": "Feature", "geometry": {"type": "Point", "coordinates": [-70.872097, -33.2864869991339]}, "properties": {"Fecha": 1730160000000, "Hora": -2209161600000, "Tipo__CONA": "COLISION", "Causa__CON": "IMPRUDENCIA DEL CONDUCTOR", "Fallecidos": 0, "Lesionados": 0, "Graves": 0, "Zona": "URBANA"}}, {"type": "Feature", "geometry": {"type": "Point", "coordinates": [-70.7698799214, -33.2891623818339]}, "properties": {"Fecha": 1730246400000, "Hora": -2209161600000, "Tipo__CONA": "COLISION", "Causa__CON": "IMPRUDENCIA DEL CONDUCTOR", "Fallecidos": 0, "Lesionados": 1, "Graves": 0, "Zona": "URBANA"}}, {"type": "Feature", "geometry": {"type": "Point", "coordinates": [-70.8090844951, -33.2336353700346]}, "properties": {"Fecha": 1730419200000, "Hora": -2209161600000, "Tipo__CONA": "COLISION", "Causa__CON": "IMPRUDENCIA DEL CONDUCTOR", "Fallecidos": 0, "Lesionados": 0, "Graves": 0, "Zona": "URBANA"}}, {"type": "Feature", "geometry": {"type": "Point", "coordinates": [-70.774663, -33.2252259991348]}, "properties": {"Fecha": 1731196800000, "Hora": -2209161600000, "Tipo__CONA": "COLISION", "Causa__CON": "IMPRUDENCIA DEL CONDUCTOR", "Fallecidos": 0, "Lesionados": 1, "Graves": 0, "Zona": "URBANA"}}, {"type": "Feature", "geometry": {"type": "Point", "coordinates": [-70.8853219787, -33.2894760629339]}, "properties": {"Fecha": 1731283200000, "Hora": -2209161600000, "Tipo__CONA": "CHOQUE", "Causa__CON": "IMPRUDENCIA DEL CONDUCTOR", "Fallecidos": 0, "Lesionados": 0, "Graves": 0, "Zona": "URBANA"}}, {"type": "Feature", "geometry": {"type": "Point", "coordinates": [-70.879136, -33.282924999134]}, "properties": {"Fecha": 1730937600000, "Hora": -2209161600000, "Tipo__CONA": "COLISION", "Causa__CON": "IMPRUDENCIA DEL CONDUCTOR", "Fallecidos": 0, "Lesionados": 0, "Graves": 0, "Zona": "URBANA"}}, {"type": "Feature", "geometry": {"type": "Point", "coordinates": [-70.850277, -33.3056839991337]}, "properties": {"Fecha": 1731628800000, "Hora": -2209161600000, "Tipo__CONA": "COLISION", "Causa__CON": "IMPRUDENCIA DEL CONDUCTOR", "Fallecidos": 0, "Lesionados": 0, "Graves": 0, "Zona": "URBANA"}}, {"type": "Feature", "geometry": {"type": "Point", "coordinates": [-70.887395, -33.286406999134]}, "properties": {"Fecha": 1731628800000, "Hora": -2209161600000, "Tipo__CONA": "COLISION", "Causa__CON": "IMPRUDENCIA DEL CONDUCTOR", "Fallecidos": 0, "Lesionados": 0, "Graves": 0, "Zona": "URBANA"}}, {"type": "Feature", "geometry": {"type": "Point", "coordinates": [-70.880744, -33.284842999134]}, "properties": {"Fecha": 1731542400000, "Hora": -2209161600000, "Tipo__CONA": "COLISION", "Causa__CON": "IMPRUDENCIA DEL CONDUCTOR", "Fallecidos": 0, "Lesionados": 0, "Graves": 0, "Zona": "URBANA"}}, {"type": "Feature", "geometry": {"type": "Point", "coordinates": [-70.873495, -33.2955269991338]}, "properties": {"Fecha": 1731715200000, "Hora": -2209161600000, "Tipo__CONA": "COLISION", "Causa__CON": "IMPRUDENCIA DEL CONDUCTOR", "Fallecidos": 0, "Lesionados": 0, "Graves": 0, "Zona": "URBANA"}}, {"type": "Feature", "geometry": {"type": "Point", "coordinates": [-70.879136, -33.282924999134]}, "properties": {"Fecha": 1731888000000, "Hora": -2209161600000, "Tipo__CONA": "COLISION", "Causa__CON": "IMPRUDENCIA DEL CONDUCTOR", "Fallecidos": 0, "Lesionados": 0, "Graves": 0, "Zona": "URBANA"}}, {"type": "Feature", "geometry": {"type": "Point", "coordinates": [-70.7484786723, -33.3760717820328]}, "properties": {"Fecha": 1732233600000, "Hora": -2209161600000, "Tipo__CONA": "COLISION", "Causa__CON": "IMPRUDENCIA DEL CONDUCTOR", "Fallecidos": 0, "Lesionados": 0, "Graves": 0, "Zona": "URBANA"}}, {"type": "Feature", "geometry": {"type": "Point", "coordinates": [-70.8727326, -33.2871542991339]}, "properties": {"Fecha": 1732147200000, "Hora": -2209161600000, "Tipo__CONA": "COLISION", "Causa__CON": "IMPRUDENCIA DEL CONDUCTOR", "Fallecidos": 0, "Lesionados": 0, "Graves": 0, "Zona": "URBANA"}}, {"type": "Feature", "geometry": {"type": "Point", "coordinates": [-70.850277, -33.3056839991337]}, "properties": {"Fecha": 1732320000000, "Hora": -2209161600000, "Tipo__CONA": "COLISION", "Causa__CON": "IMPRUDENCIA DEL CONDUCTOR", "Fallecidos": 0, "Lesionados": 0, "Graves": 0, "Zona": "URBANA"}}, {"type": "Feature", "geometry": {"type": "Point", "coordinates": [-70.835532, -33.3160419991336]}, "properties": {"Fecha": 1732320000000, "Hora": -2209161600000, "Tipo__CONA": "COLISION", "Causa__CON": "IMPRUDENCIA DEL CONDUCTOR", "Fallecidos": 0, "Lesionados": 0, "Graves": 0, "Zona": "URBANA"}}, {"type": "Feature", "geometry": {"type": "Point", "coordinates": [-70.879136, -33.282924999134]}, "properties": {"Fecha": 1732406400000, "Hora": -2209161600000, "Tipo__CONA": "COLISION", "Causa__CON": "IMPRUDENCIA DEL CONDUCTOR", "Fallecidos": 0, "Lesionados": 0, "Graves": 0, "Zona": "URBANA"}}, {"type": "Feature", "geometry": {"type": "Point", "coordinates": [-70.878364, -33.2961239991338]}, "properties": {"Fecha": 1732492800000, "Hora": -2209161600000, "Tipo__CONA": "COLISION", "Causa__CON": "IMPRUDENCIA DEL CONDUCTOR", "Fallecidos": 0, "Lesionados": 0, "Graves": 0, "Zona": "URBANA"}}, {"type": "Feature", "geometry": {"type": "Point", "coordinates": [-70.8056202361, -33.2320773110347]}, "properties": {"Fecha": 1732924800000, "Hora": -2209161600000, "Tipo__CONA": "COLISION", "Causa__CON": "IMPRUDENCIA DEL CONDUCTOR", "Fallecidos": 0, "Lesionados": 0, "Graves": 0, "Zona": "URBANA"}}, {"type": "Feature", "geometry": {"type": "Point", "coordinates": [-70.8773934009, -33.2918685353339]}, "properties": {"Fecha": 1733011200000, "Hora": -2209161600000, "Tipo__CONA": "COLISION", "Causa__CON": "IMPRUDENCIA DEL CONDUCTOR", "Fallecidos": 0, "Lesionados": 0, "Graves": 0, "Zona": "URBANA"}}, {"type": "Feature", "geometry": {"type": "Point", "coordinates": [-70.8717731334, -33.283728199534]}, "properties": {"Fecha": 1733011200000, "Hora": -2209161600000, "Tipo__CONA": "COLISION", "Causa__CON": "IMPRUDENCIA DEL CONDUCTOR", "Fallecidos": 0, "Lesionados": 0, "Graves": 0, "Zona": "URBANA"}}, {"type": "Feature", "geometry": {"type": "Point", "coordinates": [-70.879619, -33.2885379991339]}, "properties": {"Fecha": 1733097600000, "Hora": -2209161600000, "Tipo__CONA": "COLISION", "Causa__CON": "IMPRUDENCIA DEL CONDUCTOR", "Fallecidos": 0, "Lesionados": 1, "Graves": 1, "Zona": "URBANA"}}, {"type": "Feature", "geometry": {"type": "Point", "coordinates": [-70.886772, -33.2888739991339]}, "properties": {"Fecha": 1733529600000, "Hora": -2209161600000, "Tipo__CONA": "COLISION", "Causa__CON": "IMPRUDENCIA DEL CONDUCTOR", "Fallecidos": 0, "Lesionados": 0, "Graves": 0, "Zona": "URBANA"}}, {"type": "Feature", "geometry": {"type": "Point", "coordinates": [-70.724364, -33.3134759991336]}, "properties": {"Fecha": 1733616000000, "Hora": -2209161600000, "Tipo__CONA": "COLISION", "Causa__CON": "IMPRUDENCIA DEL CONDUCTOR", "Fallecidos": 0, "Lesionados": 0, "Graves": 0, "Zona": "URBANA"}}, {"type": "Feature", "geometry": {"type": "Point", "coordinates": [-70.7489919042, -33.3759478895328]}, "properties": {"Fecha": 1733788800000, "Hora": -2209161600000, "Tipo__CONA": "COLISION", "Causa__CON": "IMPRUDENCIA DEL CONDUCTOR", "Fallecidos": 1, "Lesionados": 5, "Graves": 5, "Zona": "URBANA"}}, {"type": "Feature", "geometry": {"type": "Point", "coordinates": [-70.8629852, -33.279736899134]}, "properties": {"Fecha": 1734307200000, "Hora": -2209161600000, "Tipo__CONA": "COLISION", "Causa__CON": "IMPRUDENCIA DEL CONDUCTOR", "Fallecidos": 0, "Lesionados": 0, "Graves": 0, "Zona": "URBANA"}}, {"type": "Feature", "geometry": {"type": "Point", "coordinates": [-70.8681566949, -33.2895313018339]}, "properties": {"Fecha": 1734393600000, "Hora": -2209161600000, "Tipo__CONA": "COLISION", "Causa__CON": "IMPRUDENCIA DEL CONDUCTOR", "Fallecidos": 0, "Lesionados": 0, "Graves": 0, "Zona": "URBANA"}}, {"type": "Feature", "geometry": {"type": "Point", "coordinates": [-70.879444, -33.281507999134]}, "properties": {"Fecha": 1734566400000, "Hora": -2209161600000, "Tipo__CONA": "CHOQUE", "Causa__CON": "IMPRUDENCIA DEL CONDUCTOR", "Fallecidos": 0, "Lesionados": 0, "Graves": 0, "Zona": "URBANA"}}, {"type": "Feature", "geometry": {"type": "Point", "coordinates": [-70.807012, -33.2342839991346]}, "properties": {"Fecha": 1734652800000, "Hora": -2209161600000, "Tipo__CONA": "COLISION", "Causa__CON": "IMPRUDENCIA DEL CONDUCTOR", "Fallecidos": 0, "Lesionados": 0, "Graves": 0, "Zona": "URBANA"}}, {"type": "Feature", "geometry": {"type": "Point", "coordinates": [-70.870292, -33.2861669991339]}, "properties": {"Fecha": 1734998400000, "Hora": -2209161600000, "Tipo__CONA": "COLISION", "Causa__CON": "IMPRUDENCIA DEL CONDUCTOR", "Fallecidos": 0, "Lesionados": 0, "Graves": 0, "Zona": "URBANA"}}, {"type": "Feature", "geometry": {"type": "Point", "coordinates": [-70.88312, -33.2949089991338]}, "properties": {"Fecha": 1734998400000, "Hora": -2209161600000, "Tipo__CONA": "COLISION", "Causa__CON": "IMPRUDENCIA DEL CONDUCTOR", "Fallecidos": 0, "Lesionados": 0, "Graves": 0, "Zona": "URBANA"}}, {"type": "Feature", "geometry": {"type": "Point", "coordinates": [-70.724364, -33.3134759991336]}, "properties": {"Fecha": 1735430400000, "Hora": -2209161600000, "Tipo__CONA": "COLISION", "Causa__CON": "IMPRUDENCIA DEL CONDUCTOR", "Fallecidos": 0, "Lesionados": 1, "Graves": 0, "Zona": "URBANA"}}, {"type": "Feature", "geometry": {"type": "Point", "coordinates": [-70.835532, -33.3160419991336]}, "properties": {"Fecha": 1735430400000, "Hora": -2209161600000, "Tipo__CONA": "COLISION", "Causa__CON": "IMPRUDENCIA DEL CONDUCTOR", "Fallecidos": 0, "Lesionados": 0, "Graves": 0, "Zona": "URBANA"}}, {"type": "Feature", "geometry": {"type": "Point", "coordinates": [-70.835532, -33.3160419991336]}, "properties": {"Fecha": 1734912000000, "Hora": -2209161600000, "Tipo__CONA": "COLISION", "Causa__CON": "IMPRUDENCIA DEL CONDUCTOR", "Fallecidos": 0, "Lesionados": 0, "Graves": 0, "Zona": "URBANA"}}]}